"STATION","DATE","REPORT_TYPE","SOURCE","AWND","BackupDirection","BackupDistance","BackupDistanceUnit","BackupElements","BackupElevation","BackupElevationUnit","BackupEquipment","BackupLatitude","BackupLongitude","BackupName","CDSD","CLDD","DSNW","DailyAverageDewPointTemperature","DailyAverageDryBulbTemperature","DailyAverageRelativeHumidity","DailyAverageSeaLevelPressure","DailyAverageStationPressure","DailyAverageWetBulbTemperature","DailyAverageWindSpeed","DailyCoolingDegreeDays","DailyDepartureFromNormalAverageTemperature","DailyHeatingDegreeDays","DailyMaximumDryBulbTemperature","DailyMinimumDryBulbTemperature","DailyPeakWindDirection","DailyPeakWindSpeed","DailyPrecipitation","DailySnowDepth","DailySnowfall","DailySustainedWindDirection","DailySustainedWindSpeed","DailyWeather","HDSD","HTDD","HeavyFog","HourlyAltimeterSetting","HourlyDewPointTemperature","HourlyDryBulbTemperature","HourlyPrecipitation","HourlyPresentWeatherType","HourlyPressureChange","HourlyPressureTendency","HourlyRelativeHumidity","HourlySeaLevelPressure","HourlySkyConditions","HourlyStationPressure","HourlyVisibility","HourlyWetBulbTemperature","HourlyWindDirection","HourlyWindGustSpeed","HourlyWindSpeed","MonthlyAverageRH","MonthlyDaysWithGT001Precip","MonthlyDaysWithGT010Precip","MonthlyDaysWithGT32Temp","MonthlyDaysWithGT90Temp","MonthlyDaysWithLT0Temp","MonthlyDaysWithLT32Temp","MonthlyDepartureFromNormalAverageTemperature","MonthlyDepartureFromNormalCoolingDegreeDays","MonthlyDepartureFromNormalHeatingDegreeDays","MonthlyDepartureFromNormalMaximumTemperature","MonthlyDepartureFromNormalMinimumTemperature","MonthlyDepartureFromNormalPrecipitation","MonthlyDewpointTemperature","MonthlyGreatestPrecip","MonthlyGreatestPrecipDate","MonthlyGreatestSnowDepth","MonthlyGreatestSnowDepthDate","MonthlyGreatestSnowfall","MonthlyGreatestSnowfallDate","MonthlyMaxSeaLevelPressureValue","MonthlyMaxSeaLevelPressureValueDate","MonthlyMaxSeaLevelPressureValueTime","MonthlyMaximumTemperature","MonthlyMeanTemperature","MonthlyMinSeaLevelPressureValue","MonthlyMinSeaLevelPressureValueDate","MonthlyMinSeaLevelPressureValueTime","MonthlyMinimumTemperature","MonthlySeaLevelPressure","MonthlyStationPressure","MonthlyTotalLiquidPrecipitation","MonthlyTotalSnowfall","MonthlyWetBulb","NormalsCoolingDegreeDay","NormalsHeatingDegreeDay","REM","REPORT_TYPE","SOURCE","ShortDurationEndDate005","ShortDurationEndDate010","ShortDurationEndDate015","ShortDurationEndDate020","ShortDurationEndDate030","ShortDurationEndDate045","ShortDurationEndDate060","ShortDurationEndDate080","ShortDurationEndDate100","ShortDurationEndDate120","ShortDurationEndDate150","ShortDurationEndDate180","ShortDurationPrecipitationValue005","ShortDurationPrecipitationValue010","ShortDurationPrecipitationValue015","ShortDurationPrecipitationValue020","ShortDurationPrecipitationValue030","ShortDurationPrecipitationValue045","ShortDurationPrecipitationValue060","ShortDurationPrecipitationValue080","ShortDurationPrecipitationValue100","ShortDurationPrecipitationValue120","ShortDurationPrecipitationValue150","ShortDurationPrecipitationValue180","Sunrise","Sunset","TStorms","WindEquipmentChangeDate"
"72793024233","2017-12-01T00:53:00","FM-15","7",,,,,,,,,,,,,,,,,,,,,,,,,,,,,,,,,,,,,,"30.14","40","45","0.00",,"-0.00","3","83","30.16","FEW:02 38 BKN:07 190","29.67","10.00","43","200",,"13",,,,,,,,,,,,,,,,,,,,,,,,,,,,,,,,,,,,,"MET11112/01/17 00:53:02 METAR KSEA 010853Z 20011KT 10SM FEW038 BKN190 07/04 A3014 RMK AO2 SLP215 T00720044 53001 (TL)","FM-15","7",,,,,,,,,,,,,,,,,,,,,,,,,,,,"2007-05-17"
"72793024233","2017-12-01T01:53:00","FM-15","7",,,,,,,,,,,,,,,,,,,,,,,,,,,,,,,,,,,,,,"30.13","39","44","0.00",,,,"83","30.16","FEW:02 34 BKN:07 190","29.66","10.00","42","180",,"10",,,,,,,,,,,,,,,,,,,,,,,,,,,,,,,,,,,,,"MET10512/01/17 01:53:02 METAR KSEA 010953Z 18009KT 10SM FEW034 BKN190 07/04 A3013 RMK AO2 SLP212 T00670039 (TL)","FM-15","7",,,,,,,,,,,,,,,,,,,,,,,,,,,,"2007-05-17"
"72793024233","2017-12-01T02:53:00","FM-15","7",,,,,,,,,,,,,,,,,,,,,,,,,,,,,,,,,,,,,,"30.12","39","43","0.00",,,,"86","30.15","SCT:04 35 BKN:07 190","29.65","10.00","41","150",,"8",,,,,,,,,,,,,,,,,,,,,,,,,,,,,,,,,,,,,"MET10512/01/17 02:53:02 METAR KSEA 011053Z 15007KT 10SM SCT035 BKN190 06/04 A3012 RMK AO2 SLP209 T00610039 (TL)","FM-15","7",,,,,,,,,,,,,,,,,,,,,,,,,,,,"2007-05-17"
"72793024233","2017-12-01T03:53:00","FM-15","7",,,,,,,,,,,,,,,,,,,,,,,,,,,,,,,,,,,,,,"30.11","38","42","0.00",,"+0.03","8","85","30.13","SCT:04 36 BKN:07 150","29.64","10.00","40","130",,"9",,,,,,,,,,,,,,,,,,,,,,,,,,,,,,,,,,,,,"MET12912/01/17 03:53:02 METAR KSEA 011153Z 13008KT 10SM SCT036 BKN150 06/03 A3011 RMK AO2 SLP203 70027 T00560033 10078 20056 58011 (TL)","FM-15","7",,,,,,,,,,,,,,,,,,,,,,,,,,,,"2007-05-17"
"72793024233","2017-12-01T04:00:00","FM-12","4",,,,,,,,,,,,,,,,,,,,,,,,,,,,,,,,,,,,,,,"38","42",,,"+0.03","8","85","30.13","41","29.63","9.94","40","130",,"9",,,,,,,,,,,,,,,,,,,,,,,,,,,,,,,,,,,,,"SYN08672793 32666 61308 10056 20033 30033 40203 58011 91153 333 10078 20056 70069 555 90112=","FM-12","4",,,,,,,,,,,,,,,,,,,,,,,,,,,,"2007-05-17"
"72793024233","2017-12-01T04:53:00","FM-15","7",,,,,,,,,,,,,,,,,,,,,,,,,,,,,,,,,,,,,,"30.09","37","41","0.00",,,,"86","30.11","FEW:02 36 BKN:07 160","29.62","10.00","39","140",,"8",,,,,,,,,,,,,,,,,,,,,,,,,,,,,,,,,,,,,"MET10512/01/17 04:53:02 METAR KSEA 011253Z 14007KT 10SM FEW036 BKN160 05/03 A3009 RMK AO2 SLP197 T00500028 (TL)","FM-15","7",,,,,,,,,,,,,,,,,,,,,,,,,,,,"2007-05-17"
"72793024233","2017-12-01T05:53:00","FM-15","7",,,,,,,,,,,,,,,,,,,,,,,,,,,,,,,,,,,,,,"30.08","36","42","0.00",,,,"79","30.10","FEW:02 36 SCT:04 160","29.61","10.00","39","210",,"10",,,,,,,,,,,,,,,,,,,,,,,,,,,,,,,,,,,,,"MET10512/01/17 05:53:02 METAR KSEA 011353Z 21009KT 10SM FEW036 SCT160 06/02 A3008 RMK AO2 SLP193 T00560022 (JC)","FM-15","7",,,,,,,,,,,,,,,,,,,,,,,,,,,,"2007-05-17"
"72793024233","2017-12-01T06:53:00","FM-15","7",,,,,,,,,,,,,,,,,,,,,,,,,,,,,,,,,,,,,,"30.07","35","39","0.00",,"+0.04","6","86","30.09","FEW:02 36 SCT:04 160","29.60","10.00","37","160",,"8",,,,,,,,,,,,,,,,,,,,,,,,,,,,,,,,,,,,,"MET11312/01/17 06:53:02 METAR KSEA 011453Z 16007KT 10SM FEW036 SCT160 04/02 A3007 RMK AO2 SLP190 T00390017 56013 $ (JC)","FM-15","7",,,,,,,,,,,,,,,,,,,,,,,,,,,,"2007-05-17"
"72793024233","2017-12-01T07:53:00","FM-15","7",,,,,,,,,,,,,,,,,,,,,,,,,,,,,,,,,,,,,,"30.06","36","41","0.00",,,,"82","30.09","FEW:02 35 BKN:07 60 OVC:08 160","29.59","10.00","39","160",,"7",,,,,,,,,,,,,,,,,,,,,,,,,,,,,,,,,,,,,"MET11412/01/17 07:53:02 METAR KSEA 011553Z 16006KT 10SM FEW035 BKN060 OVC160 05/02 A3006 RMK AO2 SLP189 T00500022 $ (JC)","FM-15","7",,,,,,,,,,,,,,,,,,,,,,,,,,,,"2007-05-17"
"72793024233","2017-12-01T08:53:00","FM-15","7",,,,,,,,,,,,,,,,,,,,,,,,,,,,,,,,,,,,,,"30.06","36","42","0.00",,,,"79","30.08","FEW:02 40 BKN:07 70 BKN:07 160","29.59","10.00","39","140",,"9",,,,,,,,,,,,,,,,,,,,,,,,,,,,,,,,,,,,,"MET11212/01/17 08:53:02 METAR KSEA 011653Z 14008KT 10SM FEW040 BKN070 BKN160 06/02 A3006 RMK AO2 SLP187 T00560022 (JC)","FM-15","7",,,,,,,,,,,,,,,,,,,,,,,,,,,,"2007-05-17"
"72793024233","2017-12-01T09:53:00","FM-15","7",,,,,,,,,,,,,,,,,,,,,,,,,,,,,,,,,,,,,,"30.06","37","44","0.00",,"+0.01","5","76","30.09","FEW:02 40 BKN:07 70 OVC:08 100","29.59","10.00","41","210",,"7",,,,,,,,,,,,,,,,,,,,,,,,,,,,,,,,,,,,,"MET13012/01/17 09:53:02 METAR KSEA 011753Z 21006KT 10SM FEW040 BKN070 OVC100 07/03 A3006 RMK AO2 SLP188 T00670028 10067 20033 55002 (JC)","FM-15","7",,,,,,,,,,,,,,,,,,,,,,,,,,,,"2007-05-17"
"72793024233","2017-12-01T10:00:00","FM-12","4",,,,,,,,,,,,,,,,,,,,,,,,,,,,,,,,,,,,,,,"37","44",,,"+0.01","5","76","30.09","41","29.58","9.94","41","210",,"7",,,,,,,,,,,,,,,,,,,,,,,,,,,,,,,,,,,,,"SYN08072793 32666 82106 10067 20028 30016 40188 55002 91753 333 10078 20033 555 90118=","FM-12","4",,,,,,,,,,,,,,,,,,,,,,,,,,,,"2007-05-17"
"72793024233","2017-12-01T10:53:00","FM-15","7",,,,,,,,,,,,,,,,,,,,,,,,,,,,,,,,,,,,,,"30.05","39","47","0.00",,,,"74","30.07","FEW:02 40 BKN:07 75 OVC:08 100","29.58","10.00","43","210","18","11",,,,,,,,,,,,,,,,,,,,,,,,,,,,,,,,,,,,,"MET11512/01/17 10:53:02 METAR KSEA 011853Z 21010G16KT 10SM FEW040 BKN075 OVC100 08/04 A3005 RMK AO2 SLP183 T00830039 (JC)","FM-15","7",,,,,,,,,,,,,,,,,,,,,,,,,,,,"2007-05-17"
"72793024233","2017-12-01T11:53:00","FM-15","7",,,,,,,,,,,,,,,,,,,,,,,,,,,,,,,,,,,,,,"30.02","38","48","0.00",,,,"68","30.04","FEW:02 40 BKN:07 75 BKN:07 120","29.55","10.00","43","180",,"15",,,,,,,,,,,,,,,,,,,,,,,,,,,,,,,,,,,,,"MET11212/01/17 11:53:02 METAR KSEA 011953Z 18013KT 10SM FEW040 BKN075 BKN120 09/03 A3002 RMK AO2 SLP173 T00890033 (JC)","FM-15","7",,,,,,,,,,,,,,,,,,,,,,,,,,,,"2007-05-17"
"72793024233","2017-12-01T12:53:00","FM-15","7",,,,,,,,,,,,,,,,,,,,,,,,,,,,,,,,,,,,,,"30.00","38","48","0.00",,"+0.06","8","68","30.02","FEW:02 20 BKN:07 70 OVC:08 90","29.53","10.00","43","180",,"11",,,,,,,,,,,,,,,,,,,,,,,,,,,,,,,,,,,,,"MET12512/01/17 12:53:02 METAR KSEA 012053Z 18010KT 10SM FEW020 BKN070 OVC090 09/03 A3000 RMK AO2 SLP167 SHRA W T00890033 58019 (JC)","FM-15","7",,,,,,,,,,,,,,,,,,,,,,,,,,,,"2007-05-17"
"72793024233","2017-12-01T13:53:00","FM-15","7",,,,,,,,,,,,,,,,,,,,,,,,,,,,,,,,,,,,,,"29.98","38","48","T",,,,"68","30.01","FEW:02 37 BKN:07 60 BKN:07 80","29.51","10.00","43","180",,"9",,,,,,,,,,,,,,,,,,,,,,,,,,,,,,,,,,,,,"MET12712/01/17 13:53:02 METAR KSEA 012153Z 18008KT 10SM FEW037 BKN060 BKN080 09/03 A2998 RMK AO2 RAB39E47 SLP161 P0000 T00890033 (RS)","FM-15","7",,,,,,,,,,,,,,,,,,,,,,,,,,,,"2007-05-17"
"72793024233","2017-12-01T14:53:00","FM-15","7",,,,,,,,,,,,,,,,,,,,,,,,,,,,,,,,,,,,,,"29.98","42","46","0.05","-RA:02 BR:1 |RA |",,,"86","30.00","BKN:07 33 OVC:08 60","29.51","6.00","44","200",,"9",,,,,,,,,,,,,,,,,,,,,,,,,,,,,,,,,,,,,"MET12512/01/17 14:53:02 METAR KSEA 012253Z 20008KT 6SM -RA BR BKN033 OVC060 08/06 A2998 RMK AO2 RAB2155 SLP160 P0005 T00780056 (RS)","FM-15","7",,,,,,,,,,,,,,,,,,,,,,,,,,,,"2007-05-17"
"72793024233","2017-12-01T15:37:00","FM-16","7",,,,,,,,,,,,,,,,,,,,,,,,,,,,,,,,,,,,,,"29.96","44","45","0.04","-RA:02 |RA |",,,"97",,"FEW:02 9 BKN:07 30 BKN:07 90","29.49","10.00","45","190",,"10",,,,,,,,,,,,,,,,,,,,,,,,,,,,,,,,,,,,,"MET11512/01/17 15:37:02 SPECI KSEA 012337Z 19009KT 10SM -RA FEW009 BKN030 BKN090 07/07 A2996 RMK AO2 P0004 T00720067 (RS)","FM-16","7",,,,,,,,,,,,,,,,,,,,,,,,,,,,"2007-05-17"
"72793024233","2017-12-01T15:53:00","FM-15","7",,,,,,,,,,,,,,,,,,,,,,,,,,,,,,,,,,,,,,"29.96","43","45","0.04","-RA:02 |RA |","+0.04","6","93","29.98","SCT:04 8 BKN:07 30 BKN:07 90","29.49","10.00","44","170",,"11",,,,,,,,,,,,,,,,,,,,,,,,,,,,,,,,,,,,,"MET14612/01/17 15:53:02 METAR KSEA 012353Z 17010KT 10SM -RA SCT008 BKN030 BKN090 07/06 A2996 RMK AO2 SLP154 P0004 60009 T00720061 10089 20067 56013 (RS)","FM-15","7",,,,,,,,,,,,,,,,,,,,,,,,,,,,"2007-05-17"
"72793024233","2017-12-01T16:00:00","FM-12","4",,,,,,,,,,,,,,,,,,,,,,,,,,,,,,,,,,,,,,,"43","45",,"||RA","+0.04","6","93","29.98","8","29.48","9.94","44","170",,"11",,,,,,,,,,,,,,,,,,,,,,,,,,,,,,,,,,,,,"SYN09272793 11366 61710 10072 20061 39983 40154 56013 60021 761// 92353 333 10089 20056 555 90200=","FM-12","4",,,,,,,,,,,,,,,,,,,,,,,,,,,,"2007-05-17"
"72793024233","2017-12-01T16:53:00","FM-15","7",,,,,,,,,,,,,,,,,,,,,,,,,,,,,,,,,,,,,,"29.97","43","45","0.01","-RA:02 BR:1 |RA |",,,"93","29.99","FEW:02 9 SCT:04 29 OVC:08 38","29.50","6.00","44","160",,"8",,,,,,,,,,,,,,,,,,,,,,,,,,,,,,,,,,,,,"MET11912/01/17 16:53:01 METAR KSEA 020053Z 16007KT 6SM -RA BR FEW009 SCT029 OVC038 07/06 A2997 RMK AO2 SLP155 P0001 T00720061","FM-15","7",,,,,,,,,,,,,,,,,,,,,,,,,,,,"2007-05-17"
"72793024233","2017-12-01T17:11:00","FM-16","7",,,,,,,,,,,,,,,,,,,,,,,,,,,,,,,,,,,,,,"29.96","43","45","0.01",,,,"93",,"FEW:02 9 OVC:08 29","29.49","10.00","44","170",,"8",,,,,,,,,,,,,,,,,,,,,,,,,,,,,,,,,,,,,"MET10512/01/17 17:11:01 SPECI KSEA 020111Z 17007KT 10SM FEW009 OVC029 07/06 A2996 RMK AO2 RAE10 P0001 T00720061","FM-16","7",,,,,,,,,,,,,,,,,,,,,,,,,,,,"2007-05-17"
"72793024233","2017-12-01T17:44:00","FM-16","7",,,,,,,,,,,,,,,,,,,,,,,,,,,,,,,,,,,,,,"29.97","43","45","0.03","-RA:02 |RA |",,,"93",,"FEW:02 27 OVC:08 31","29.50","10.00","44","170",,"7",,,,,,,,,,,,,,,,,,,,,,,,,,,,,,,,,,,,,"MET11212/01/17 17:44:01 SPECI KSEA 020144Z 17006KT 10SM -RA FEW027 OVC031 07/06 A2997 RMK AO2 RAE10B12 P0003 T00720061","FM-16","7",,,,,,,,,,,,,,,,,,,,,,,,,,,,"2007-05-17"
"72793024233","2017-12-01T17:53:00","FM-15","7",,,,,,,,,,,,,,,,,,,,,,,,,,,,,,,,,,,,,,"29.97","43","45","0.04",,,,"93","29.99","FEW:02 27 OVC:08 33","29.50","10.00","44","180",,"9",,,,,,,,,,,,,,,,,,,,,,,,,,,,,,,,,,,,,"MET11812/01/17 17:53:01 METAR KSEA 020153Z 18008KT 10SM FEW027 OVC033 07/06 A2997 RMK AO2 RAE10B12E53 SLP156 P0003 T00720061","FM-15","7",,,,,,,,,,,,,,,,,,,,,,,,,,,,"2007-05-17"
"72793024233","2017-12-01T18:26:00","FM-16","7",,,,,,,,,,,,,,,,,,,,,,,,,,,,,,,,,,,,,,"29.97","43","45","0.04","-RA:02 BR:1 |RA |",,,"93",,"FEW:02 17 OVC:08 28","29.50","6.00","44","200",,"9",,,,,,,,,,,,,,,,,,,,,,,,,,,,,,,,,,,,,"MET11312/01/17 18:26:01 SPECI KSEA 020226Z 20008KT 6SM -RA BR FEW017 OVC028 07/06 A2997 RMK AO2 RAB0155 P0004 T00720061","FM-16","7",,,,,,,,,,,,,,,,,,,,,,,,,,,,"2007-05-17"
"72793024233","2017-12-01T18:53:00","FM-15","7",,,,,,,,,,,,,,,,,,,,,,,,,,,,,,,,,,,,,,"29.97","43","45","0.07","-RA:02 |RA |","-0.01","2","93","29.99","SCT:04 18 BKN:07 26 OVC:08 33","29.50","7.00","44","200",,"9",,,,,,,,,,,,,,,,,,,,,,,,,,,,,,,,,,,,,"MET13612/01/17 18:53:02 METAR KSEA 020253Z 20008KT 7SM -RA SCT018 BKN026 OVC033 07/06 A2997 RMK AO2 RAB0155 SLP157 P0008 60012 T00720061 52003","FM-15","7",,,,,,,,,,,,,,,,,,,,,,,,,,,,"2007-05-17"
"72793024233","2017-12-01T19:53:00","FM-15","7",,,,,,,,,,,,,,,,,,,,,,,,,,,,,,,,,,,,,,"29.97","41","44","T","-RA:02 |RA |",,,"89","30.00","FEW:02 17 BKN:07 29 OVC:08 46","29.50","10.00","43","180","22","11",,,,,,,,,,,,,,,,,,,,,,,,,,,,,,,,,,,,,"MET12912/01/17 19:53:02 METAR KSEA 020353Z 18010G19KT 10SM -RA FEW017 BKN029 OVC046 07/05 A2997 RMK AO2 RAE07B34 SLP158 P0000 T00670050","FM-15","7",,,,,,,,,,,,,,,,,,,,,,,,,,,,"2007-05-17"
"72793024233","2017-12-01T20:53:00","FM-15","7",,,,,,,,,,,,,,,,,,,,,,,,,,,,,,,,,,,,,,"29.99","42","44","0.05","-RA:02 |RA |",,,"93","30.01","BKN:07 23 OVC:08 29","29.52","10.00","43","190",,"7",,,,,,,,,,,,,,,,,,,,,,,,,,,,,,,,,,,,,"MET11012/01/17 20:53:02 METAR KSEA 020453Z 19006KT 10SM -RA BKN023 OVC029 07/06 A2999 RMK AO2 SLP163 P0005 T00670056","FM-15","7",,,,,,,,,,,,,,,,,,,,,,,,,,,,"2007-05-17"
"72793024233","2017-12-01T21:22:00","FM-16","7",,,,,,,,,,,,,,,,,,,,,,,,,,,,,,,,,,,,,,"29.99","41","44","0.01","-RA:02 |RA |",,,"89",,"FEW:02 23 BKN:07 30 OVC:08 75","29.52","10.00","43","170",,"11",,,,,,,,,,,,,,,,,,,,,,,,,,,,,,,,,,,,,"MET11012/01/17 21:22:02 SPECI KSEA 020522Z 17010KT 10SM -RA FEW023 BKN030 OVC075 07/05 A2999 RMK AO2 P0001 T00670050","FM-16","7",,,,,,,,,,,,,,,,,,,,,,,,,,,,"2007-05-17"
"72793024233","2017-12-01T21:53:00","FM-15","7",,,,,,,,,,,,,,,,,,,,,,,,,,,,,,,,,,,,,,"29.99","40","44","0.01",,"-0.01","1","85","30.01","FEW:02 30 BKN:07 49 BKN:07 80","29.52","10.00","42","170",,"11",,,,,,,,,,,,,,,,,,,,,,,,,,,,,,,,,,,,,"MET14312/01/17 21:53:02 METAR KSEA 020553Z 17010KT 10SM FEW030 BKN049 BKN080 07/04 A2999 RMK AO2 RAE41 SLP163 P0001 60018 T00670044 10072 20061 51005","FM-15","7",,,,,,,,,,,,,,,,,,,,,,,,,,,,"2007-05-17"
"72793024233","2017-12-01T22:00:00","FM-12","4",,,,,,,,,,,,,,,,,,,,,,,,,,,,,,,,,,,,,,,"40","44",,,"-0.01","1","85","30.01","26","29.51","9.94","42","170",,"11",,,,,,,,,,,,,,,,,,,,,,,,,,,,,,,,,,,,,"SYN08672793 12566 61710 10067 20044 39993 40163 51005 60051 90553 333 10078 20056 555 90206=","FM-12","4",,,,,,,,,,,,,,,,,,,,,,,,,,,,"2007-05-17"
"72793024233","2017-12-01T22:53:00","FM-15","7",,,,,,,,,,,,,,,,,,,,,,,,,,,,,,,,,,,,,,"29.99","41","44","T","-RA:02 |RA |",,,"89","30.02","SCT:04 26 BKN:07 39 BKN:07 80","29.52","10.00","43","180",,"14",,,,,,,,,,,,,,,,,,,,,,,,,,,,,,,,,,,,,"MET12312/01/17 22:53:02 METAR KSEA 020653Z 18012KT 10SM -RA SCT026 BKN039 BKN080 07/05 A2999 RMK AO2 RAB46 SLP165 P0000 T00670050","FM-15","7",,,,,,,,,,,,,,,,,,,,,,,,,,,,"2007-05-17"
"72793024233","2017-12-01T23:53:00","FM-15","7",,,,,,,,,,,,,,,,,,,,,,,,,,,,,,,,,,,,,,"29.99","40","43","T",,,,"89","30.01","FEW:02 15 FEW:02 30 SCT:04 90","29.52","10.00","42","200",,"11",,,,,,,,,,,,,,,,,,,,,,,,,,,,,,,,,,,,,"MET12912/01/17 23:53:02 METAR KSEA 020753Z 20010KT 10SM FEW015 FEW030 SCT090 06/04 A2999 RMK AO2 RAE51 SLP162 P0000 T00610044 400890033","FM-15","7",,,,,,,,,,,,,,,,,,,,,,,,,,,,"2007-05-17"
"72793024233","2017-12-01T23:59:00","SOD  ","6",,,,,,,,,,,,,,,"39","43","84","30.05","29.55","42","10.0","0","0.7","22","48","38","190","22","0.27","0","0.0","210","16","RA BR",,,,,,,,,,,,,,,,,,,,,,,,,,,,,,,,,,,,,,,,,,,,,,,,,,,,,,,,"SOD75324 HR PRECIPITATION (IN): 0.27 SNOW DEPTH (IN):0     24 HR SNOWFALL (IN):0.0  WEATHER(CODE):1  24 HR MAX TEMP (F): 4824 HR MIN TEMP (F): 38AVERAGE STATION PRESSURE:29.555 MINIMUM SEA LEVEL PRESSURE:29.98 TIME OF OCCURRENCE:1639 PEAK WIND SPEED (MPH): 22 PEAK WIND DIR (DEG):190 PEAK WIND TIME (LST):      FASTEST 2MIN SPEED (MPH): 16FASTEST 2MIN DIR (DEG):210 FASTEST 2MIN TIME (LST):     AVERAGE WIND SPEED (MPH):10.0 24 HR AVG TEMP (F): 43DEPART FROM NORMAL:  1  HEATING DEGREE DAYS: 22 COOLING DEGREE DAYS:  0 LATEST DAY MAX TEMP (0700-1900 LST):48  LATEST NIGHT MIN TEMP(1900-0800 LST):38 HOURLY INCREMENTAL PRECIPITATION VALUES (IN):.00 0.00 0.00 0.00 0.00 0.00 0.00 0.00 0.00 0.00 0.00 0.00 0.00 T    0.05 0.04 0.01 0.04 0.07 T    0.05 0.01 T    T","SOD  ","6",,,,,,,,,,,,,,,,,,,,,,,,,"0736","1621",,"2007-05-17"
"72793024233","2017-12-02T00:53:00","FM-15","7",,,,,,,,,,,,,,,,,,,,,,,,,,,,,,,,,,,,,,"29.99","39","41","0.00",,"-0.00","3","93","30.01","FEW:02 40 BKN:07 100","29.52","10.00","40","160",,"9",,,,,,,,,,,,,,,,,,,,,,,,,,,,,,,,,,,,,"MET11712/02/17 00:53:02 METAR KSEA 020853Z 16008KT 10SM FEW040 BKN100 05/04 A2999 RMK AO2 SLP164 60000 T00500039 53001 (LC)","FM-15","7",,,,,,,,,,,,,,,,,,,,,,,,,,,,"2007-05-17"
"72793024233","2017-12-02T01:53:00","FM-15","7",,,,,,,,,,,,,,,,,,,,,,,,,,,,,,,,,,,,,,"29.98","39","42","0.00",,,,"89","30.01","SCT:04 40 BKN:07 100","29.51","10.00","41","170",,"10",,,,,,,,,,,,,,,,,,,,,,,,,,,,,,,,,,,,,"MET10512/02/17 01:53:02 METAR KSEA 020953Z 17009KT 10SM SCT040 BKN100 06/04 A2998 RMK AO2 SLP162 T00560039 (LC)","FM-15","7",,,,,,,,,,,,,,,,,,,,,,,,,,,,"2007-05-17"
"72793024233","2017-12-02T02:53:00","FM-15","7",,,,,,,,,,,,,,,,,,,,,,,,,,,,,,,,,,,,,,"29.98","39","42","0.00",,,,"89","30.00","FEW:02 40 OVC:08 230","29.51","10.00","41","160",,"9",,,,,,,,,,,,,,,,,,,,,,,,,,,,,,,,,,,,,"MET10512/02/17 02:53:02 METAR KSEA 021053Z 16008KT 10SM FEW040 OVC230 06/04 A2998 RMK AO2 SLP159 T00560039 (LC)","FM-15","7",,,,,,,,,,,,,,,,,,,,,,,,,,,,"2007-05-17"
"72793024233","2017-12-02T03:53:00","FM-15","7",,,,,,,,,,,,,,,,,,,,,,,,,,,,,,,,,,,,,,"29.96","39","41","0.00",,"+0.03","8","93","29.98","FEW:02 55 OVC:08 230","29.49","10.00","40","120",,"6",,,,,,,,,,,,,,,,,,,,,,,,,,,,,,,,,,,,,"MET13512/02/17 03:53:02 METAR KSEA 021153Z 12005KT 10SM FEW055 OVC230 05/04 A2996 RMK AO2 SLP153 60000 70027 T00500039 10072 20050 58011 (LC)","FM-15","7",,,,,,,,,,,,,,,,,,,,,,,,,,,,"2007-05-17"
"72793024233","2017-12-02T04:00:00","FM-12","4",,,,,,,,,,,,,,,,,,,,,,,,,,,,,,,,,,,,,,,"39","41",,,"+0.03","8","93","29.98","57","29.48","9.94","40","120",,"6",,,,,,,,,,,,,,,,,,,,,,,,,,,,,,,,,,,,,"SYN09272793 12766 81205 10050 20039 39983 40153 58011 69901 91153 333 10089 20050 70069 555 90212=","FM-12","4",,,,,,,,,,,,,,,,,,,,,,,,,,,,"2007-05-17"
"72793024233","2017-12-02T04:53:00","FM-15","7",,,,,,,,,,,,,,,,,,,,,,,,,,,,,,,,,,,,,,"29.95","39","42","0.00",,,,"89","29.97","FEW:02 50 FEW:02 120 OVC:08 230","29.48","10.00","41","130",,"7",,,,,,,,,,,,,,,,,,,,,,,,,,,,,,,,,,,,,"MET11212/02/17 04:53:02 METAR KSEA 021253Z 13006KT 10SM FEW050 FEW120 OVC230 06/04 A2995 RMK AO2 SLP149 T00560039 (LC)","FM-15","7",,,,,,,,,,,,,,,,,,,,,,,,,,,,"2007-05-17"
"72793024233","2017-12-02T05:53:00","FM-15","7",,,,,,,,,,,,,,,,,,,,,,,,,,,,,,,,,,,,,,"29.93","39","42","0.00",,,,"89","29.95","FEW:02 43 SCT:04 49 OVC:08 110","29.47","10.00","41","150",,"6",,,,,,,,,,,,,,,,,,,,,,,,,,,,,,,,,,,,,"MET11212/02/17 05:53:02 METAR KSEA 021353Z 15005KT 10SM FEW043 SCT049 OVC110 06/04 A2993 RMK AO2 SLP143 T00560039 (LC)","FM-15","7",,,,,,,,,,,,,,,,,,,,,,,,,,,,"2007-05-17"
"72793024233","2017-12-02T06:53:00","FM-15","7",,,,,,,,,,,,,,,,,,,,,,,,,,,,,,,,,,,,,,"29.91","39","43","0.00",,"+0.05","8","86","29.93","FEW:02 48 BKN:07 70 OVC:08 90","29.44","10.00","41","140",,"7",,,,,,,,,,,,,,,,,,,,,,,,,,,,,,,,,,,,,"MET11812/02/17 06:53:02 METAR KSEA 021453Z 14006KT 10SM FEW048 BKN070 OVC090 06/04 A2991 RMK AO2 SLP136 T00610039 58017 (TL)","FM-15","7",,,,,,,,,,,,,,,,,,,,,,,,,,,,"2007-05-17"
"72793024233","2017-12-02T07:53:00","FM-15","7",,,,,,,,,,,,,,,,,,,,,,,,,,,,,,,,,,,,,,"29.91","38","44","0.00",,,,"79","29.93","FEW:02 12 SCT:04 50 OVC:08 110","29.44","10.00","41","120",,"11",,,,,,,,,,,,,,,,,,,,,,,,,,,,,,,,,,,,,"MET11212/02/17 07:53:02 METAR KSEA 021553Z 12010KT 10SM FEW012 SCT050 OVC110 07/03 A2991 RMK AO2 SLP135 T00670033 (TL)","FM-15","7",,,,,,,,,,,,,,,,,,,,,,,,,,,,"2007-05-17"
"72793024233","2017-12-02T08:53:00","FM-15","7",,,,,,,,,,,,,,,,,,,,,,,,,,,,,,,,,,,,,,"29.89","39","44","T","-RA:02 |RA |",,,"83","29.92","FEW:02 41 OVC:08 60","29.42","10.00","42","110",,"9",,,,,,,,,,,,,,,,,,,,,,,,,,,,,,,,,,,,,"MET12112/02/17 08:53:02 METAR KSEA 021653Z 11008KT 10SM -RA FEW041 OVC060 07/04 A2989 RMK AO2 RAB52 SLP131 P0000 T00670039 (TL)","FM-15","7",,,,,,,,,,,,,,,,,,,,,,,,,,,,"2007-05-17"
"72793024233","2017-12-02T09:53:00","FM-15","7",,,,,,,,,,,,,,,,,,,,,,,,,,,,,,,,,,,,,,"29.90","41","43","0.07s","-RA:02 BR:1 |RA |","+0.01","5","93","29.92","OVC:08 30","29.44","4.00","42","270",,"3",,,,,,,,,,,,,,,,,,,,,,,,,,,,,,,,,,,,,"MET13412/02/17 09:53:02 METAR KSEA 021753Z 27003KT 4SM -RA BR OVC030 06/05 A2990 RMK AO2 SLP132 P0006 60006 T00610050 10067 20050 55004 (TL)","FM-15","7",,,,,,,,,,,,,,,,,,,,,,,,,,,,"2007-05-17"
"72793024233","2017-12-02T10:00:00","FM-12","4",,,,,,,,,,,,,,,,,,,,,,,,,,,,,,,,,,,,,,,"41","43",,"||RA","+0.01","5","93","29.92","26","29.42","3.73","42","270",,"3",,,,,,,,,,,,,,,,,,,,,,,,,,,,,,,,,,,,,"SYN09872793 11556 82703 10061 20050 39963 40132 55004 60021 761// 91753 333 10072 20050 96010 555 90218=","FM-12","4",,,,,,,,,,,,,,,,,,,,,,,,,,,,"2007-05-17"
"72793024233","2017-12-02T10:51:00","FM-16","6",,,,,,,,,,,,,,,,,,,,,,,,,,,,,,,,,,,,,,"29.89","41","43",,"RA:02 BR:1 |RA |",,,"93",,"FEW:02 10 BKN:07 26 OVC:08 31","29.42","4.00","42","180",,"5",,,,,,,,,,,,,,,,,,,,,,,,,,,,,,,,,,,,,"MET11112/02/17 10:51:02 SPECI KSEA 021851Z 18004KT 4SM RA BR FEW010 BKN026 OVC031 06/05 A2989 RMK AO2 P0011 FIBI (TL)","FM-16","6",,,,,,,,,,,,,,,,,,,,,,,,,,,,"2007-05-17"
"72793024233","2017-12-02T10:53:00","FM-15","7",,,,,,,,,,,,,,,,,,,,,,,,,,,,,,,,,,,,,,"29.89","42","43","0.11","RA:02 BR:1 |RA |",,,"97","29.91","FEW:02 10 BKN:07 26 OVC:08 31","29.42","4.00","43","170",,"5",,,,,,,,,,,,,,,,,,,,,,,,,,,,,,,,,,,,,"MET12312/02/17 10:53:02 METAR KSEA 021853Z 17004KT 4SM RA BR FEW010 BKN026 OVC031 06/06 A2989 RMK AO2 SLP128 P0011 T00610056 (TL)","FM-15","7",,,,,,,,,,,,,,,,,,,,,,,,,,,,"2007-05-17"
"72793024233","2017-12-02T11:38:00","FM-16","7",,,,,,,,,,,,,,,,,,,,,,,,,,,,,,,,,,,,,,"29.86","42","44","0.05","-RA:02 BR:1 |RA |",,,"93",,"BKN:07 34 OVC:08 43","29.39","5.00","43","160",,"3",,,,,,,,,,,,,,,,,,,,,,,,,,,,,,,,,,,,,"MET11012/02/17 11:38:02 SPECI KSEA 021938Z 16003KT 5SM -RA BR BKN034 OVC043 07/06 A2986 RMK AO2 P0005 T00670056 (TL)","FM-16","7",,,,,,,,,,,,,,,,,,,,,,,,,,,,"2007-05-17"
"72793024233","2017-12-02T11:51:00","FM-16","6",,,,,,,,,,,,,,,,,,,,,,,,,,,,,,,,,,,,,,"29.86","43","45",,"-RA:02 BR:1 |RA |",,,"93",,"FEW:02 8 SCT:04 25 OVC:08 34","29.39","5.00","44","130",,"6",,,,,,,,,,,,,,,,,,,,,,,,,,,,,,,,,,,,,"MET11212/02/17 11:51:02 SPECI KSEA 021951Z 13005KT 5SM -RA BR FEW008 SCT025 OVC034 07/06 A2986 RMK AO2 P0006 FIBI (TL)","FM-16","6",,,,,,,,,,,,,,,,,,,,,,,,,,,,"2007-05-17"
"72793024233","2017-12-02T11:53:00","FM-15","7",,,,,,,,,,,,,,,,,,,,,,,,,,,,,,,,,,,,,,"29.86","42","44","0.06","-RA:02 BR:1 |RA |",,,"93","29.88","FEW:02 8 BKN:07 25 OVC:08 32","29.39","5.00","43","130",,"6",,,,,,,,,,,,,,,,,,,,,,,,,,,,,,,,,,,,,"MET12412/02/17 11:53:02 METAR KSEA 021953Z 13005KT 5SM -RA BR FEW008 BKN025 OVC032 07/06 A2986 RMK AO2 SLP118 P0006 T00670056 (TL)","FM-15","7",,,,,,,,,,,,,,,,,,,,,,,,,,,,"2007-05-17"
"72793024233","2017-12-02T12:51:00","FM-16","6",,,,,,,,,,,,,,,,,,,,,,,,,,,,,,,,,,,,,,"29.84","43","45",,"-RA:02 BR:1 |RA |",,,"93",,"OVC:08 34","29.38","6.00","44","160",,"8",,,,,,,,,,,,,,,,,,,,,,,,,,,,,,,,,,,,,"MET09812/02/17 12:51:02 SPECI KSEA 022051Z 16007KT 6SM -RA BR OVC034 07/06 A2984 RMK AO2 P0005 FIBI (TL)","FM-16","6",,,,,,,,,,,,,,,,,,,,,,,,,,,,"2007-05-17"
"72793024233","2017-12-02T12:53:00","FM-15","7",,,,,,,,,,,,,,,,,,,,,,,,,,,,,,,,,,,,,,"29.84","42","44","0.05","-RA:02 BR:1 |RA |","+0.06","8","93","29.86","OVC:08 34","29.38","5.00","43","140",,"8",,,,,,,,,,,,,,,,,,,,,,,,,,,,,,,,,,,,,"MET12212/02/17 12:53:02 METAR KSEA 022053Z 14007KT 5SM -RA BR OVC034 07/06 A2984 RMK AO2 SLP113 P0006 60023 T00670056 58019 (TL)","FM-15","7",,,,,,,,,,,,,,,,,,,,,,,,,,,,"2007-05-17"
"72793024233","2017-12-02T13:05:00","FM-16","7",,,,,,,,,,,,,,,,,,,,,,,,,,,,,,,,,,,,,,"29.84","42","44","0.01","-RA:02 BR:1 |RA |",,,"93",,"FEW:02 7 SCT:04 27 OVC:08 34","29.38","4.00","43","150",,"7",,,,,,,,,,,,,,,,,,,,,,,,,,,,,,,,,,,,,"MET11712/02/17 13:05:02 SPECI KSEA 022105Z 15006KT 4SM -RA BR FEW007 SCT027 OVC034 07/06 A2984 RMK AO2 P0001 T00670056 (TL)","FM-16","7",,,,,,,,,,,,,,,,,,,,,,,,,,,,"2007-05-17"
"72793024233","2017-12-02T13:51:00","FM-16","6",,,,,,,,,,,,,,,,,,,,,,,,,,,,,,,,,,,,,,"29.83","41","45",,"-RA:02 BR:1 |RA |",,,"87",,"FEW:02 9 BKN:07 22 OVC:08 31","29.36","6.00","43","140",,"9",,,,,,,,,,,,,,,,,,,,,,,,,,,,,,,,,,,,,"MET11212/02/17 13:51:02 SPECI KSEA 022151Z 14008KT 6SM -RA BR FEW009 BKN022 OVC031 07/05 A2983 RMK AO2 P0006 FIBI (RT)","FM-16","6",,,,,,,,,,,,,,,,,,,,,,,,,,,,"2007-05-17"
"72793024233","2017-12-02T13:53:00","FM-15","7",,,,,,,,,,,,,,,,,,,,,,,,,,,,,,,,,,,,,,"29.83","42","44","0.06","-RA:02 BR:1 |RA |",,,"93","29.85","FEW:02 9 BKN:07 22 OVC:08 31","29.36","6.00","43","140",,"10",,,,,,,,,,,,,,,,,,,,,,,,,,,,,,,,,,,,,"MET12412/02/17 13:53:02 METAR KSEA 022153Z 14009KT 6SM -RA BR FEW009 BKN022 OVC031 07/06 A2983 RMK AO2 SLP108 P0006 T00670056 (RT)","FM-15","7",,,,,,,,,,,,,,,,,,,,,,,,,,,,"2007-05-17"
"72793024233","2017-12-02T14:53:00","FM-15","7",,,,,,,,,,,,,,,,,,,,,,,,,,,,,,,,,,,,,,"29.82","41","43","0.06","-RA:02 BR:1 |RA |",,,"93","29.84","FEW:02 9 BKN:07 22 OVC:08 28","29.36","6.00","42","180",,"9",,,,,,,,,,,,,,,,,,,,,,,,,,,,,,,,,,,,,"MET12412/02/17 14:53:02 METAR KSEA 022253Z 18008KT 6SM -RA BR FEW009 BKN022 OVC028 06/05 A2982 RMK AO2 SLP105 P0005 T00610050 (RT)","FM-15","7",,,,,,,,,,,,,,,,,,,,,,,,,,,,"2007-05-17"
"72793024233","2017-12-02T15:53:00","FM-15","7",,,,,,,,,,,,,,,,,,,,,,,,,,,,,,,,,,,,,,"29.82","40","43","0.04","-RA:02 |RA |","+0.02","6","89","29.84","FEW:02 9 BKN:07 21 OVC:08 27","29.36","10.00","42","170",,"9",,,,,,,,,,,,,,,,,,,,,,,,,,,,,,,,,,,,,"MET14612/02/17 15:53:02 METAR KSEA 022353Z 17008KT 10SM -RA FEW009 BKN021 OVC027 06/04 A2982 RMK AO2 SLP104 P0005 60039 T00610044 10067 20061 56008 (RT)","FM-15","7",,,,,,,,,,,,,,,,,,,,,,,,,,,,"2007-05-17"
"72793024233","2017-12-02T16:00:00","FM-12","4",,,,,,,,,,,,,,,,,,,,,,,,,,,,,,,,,,,,,,,"40","43",,"||RA","+0.02","6","89","29.84","8","29.34","9.94","42","170",,"9",,,,,,,,,,,,,,,,,,,,,,,,,,,,,,,,,,,,,"SYN09272793 11366 81708 10061 20044 39936 40104 56008 60101 761// 92353 333 10067 20050 555 90300=","FM-12","4",,,,,,,,,,,,,,,,,,,,,,,,,,,,"2007-05-17"
"72793024233","2017-12-02T16:53:00","FM-15","7",,,,,,,,,,,,,,,,,,,,,,,,,,,,,,,,,,,,,,"29.82","40","42","0.02","-RA:02 |RA |",,,"92","29.84","FEW:02 9 BKN:07 20 OVC:08 25","29.36","8.00","41","180",,"7",,,,,,,,,,,,,,,,,,,,,,,,,,,,,,,,,,,,,"MET11612/02/17 16:53:01 METAR KSEA 030053Z 18006KT 8SM -RA FEW009 BKN020 OVC025 06/04 A2982 RMK AO2 SLP105 P0001 T00560044","FM-15","7",,,,,,,,,,,,,,,,,,,,,,,,,,,,"2007-05-17"
"72793024233","2017-12-02T17:13:00","FM-16","7",,,,,,,,,,,,,,,,,,,,,,,,,,,,,,,,,,,,,,"29.82","40","42","0.02","-RA:02 |RA |",,,"92",,"FEW:02 8 BKN:07 13 OVC:08 20","29.36","9.00","41","180",,"8",,,,,,,,,,,,,,,,,,,,,,,,,,,,,,,,,,,,,"MET10912/02/17 17:13:01 SPECI KSEA 030113Z 18007KT 9SM -RA FEW008 BKN013 OVC020 06/04 A2982 RMK AO2 P0002 T00560044","FM-16","7",,,,,,,,,,,,,,,,,,,,,,,,,,,,"2007-05-17"
"72793024233","2017-12-02T17:33:00","FM-16","7",,,,,,,,,,,,,,,,,,,,,,,,,,,,,,,,,,,,,,"29.82","40","42","0.03","-RA:02 |RA |",,,"92",,"FEW:02 8 SCT:04 13 OVC:08 20","29.36","10.00","41","170",,"8",,,,,,,,,,,,,,,,,,,,,,,,,,,,,,,,,,,,,"MET11012/02/17 17:33:01 SPECI KSEA 030133Z 17007KT 10SM -RA FEW008 SCT013 OVC020 06/04 A2982 RMK AO2 P0003 T00560044","FM-16","7",,,,,,,,,,,,,,,,,,,,,,,,,,,,"2007-05-17"
"72793024233","2017-12-02T17:53:00","FM-15","7",,,,,,,,,,,,,,,,,,,,,,,,,,,,,,,,,,,,,,"29.82","40","42","0.04","-RA:02 |RA |",,,"92","29.84","FEW:02 8 SCT:04 13 OVC:08 20","29.36","10.00","41","170",,"7",,,,,,,,,,,,,,,,,,,,,,,,,,,,,,,,,,,,,"MET11712/02/17 17:53:01 METAR KSEA 030153Z 17006KT 10SM -RA FEW008 SCT013 OVC020 06/04 A2982 RMK AO2 SLP106 P0004 T00560044","FM-15","7",,,,,,,,,,,,,,,,,,,,,,,,,,,,"2007-05-17"
"72793024233","2017-12-02T18:36:00","FM-16","7",,,,,,,,,,,,,,,,,,,,,,,,,,,,,,,,,,,,,,"29.82","40","42","0.04","-RA:02 |RA |",,,"92",,"FEW:02 8 BKN:07 14 OVC:08 18","29.36","8.00","41","180",,"8",,,,,,,,,,,,,,,,,,,,,,,,,,,,,,,,,,,,,"MET10912/02/17 18:36:01 SPECI KSEA 030236Z 18007KT 8SM -RA FEW008 BKN014 OVC018 06/04 A2982 RMK AO2 P0004 T00560044","FM-16","7",,,,,,,,,,,,,,,,,,,,,,,,,,,,"2007-05-17"
"72793024233","2017-12-02T18:53:00","FM-15","7",,,,,,,,,,,,,,,,,,,,,,,,,,,,,,,,,,,,,,"29.83","40","42","0.05","-RA:02 BR:1 |RA |","-0.01","3","92","29.85","FEW:02 6 BKN:07 12 OVC:08 16","29.36","4.00","41","170",,"6",,,,,,,,,,,,,,,,,,,,,,,,,,,,,,,,,,,,,"MET13112/02/17 18:53:02 METAR KSEA 030253Z 17005KT 4SM -RA BR FEW006 BKN012 OVC016 06/04 A2983 RMK AO2 SLP108 P0006 60011 T00560044 53003","FM-15","7",,,,,,,,,,,,,,,,,,,,,,,,,,,,"2007-05-17"
"72793024233","2017-12-02T19:23:00","FM-16","7",,,,,,,,,,,,,,,,,,,,,,,,,,,,,,,,,,,,,,"29.83","40","41","0.02","-RA:02 BR:1 |RA |",,,"96",,"BKN:07 8 OVC:08 12","29.36","3.00","41","190",,"5",,,,,,,,,,,,,,,,,,,,,,,,,,,,,,,,,,,,,"MET10512/02/17 19:23:02 SPECI KSEA 030323Z 19004KT 3SM -RA BR BKN008 OVC012 05/04 A2983 RMK AO2 P0002 T00500044","FM-16","7",,,,,,,,,,,,,,,,,,,,,,,,,,,,"2007-05-17"
"72793024233","2017-12-02T19:32:00","FM-16","7",,,,,,,,,,,,,,,,,,,,,,,,,,,,,,,,,,,,,,"29.83","40","41","0.02","-RA:02 BR:1 |RA |",,,"96",,"BKN:07 6 OVC:08 10","29.36","2.00","41","190",,"5",,,,,,,,,,,,,,,,,,,,,,,,,,,,,,,,,,,,,"MET10512/02/17 19:32:02 SPECI KSEA 030332Z 19004KT 2SM -RA BR BKN006 OVC010 05/04 A2983 RMK AO2 P0002 T00500044","FM-16","7",,,,,,,,,,,,,,,,,,,,,,,,,,,,"2007-05-17"
"72793024233","2017-12-02T19:53:00","FM-15","7",,,,,,,,,,,,,,,,,,,,,,,,,,,,,,,,,,,,,,"29.83","40","41","0.04","-RA:02 BR:1 |RA |",,,"96","29.86","BKN:07 6 OVC:08 10","29.36","2.00","41","180",,"5",,,,,,,,,,,,,,,,,,,,,,,,,,,,,,,,,,,,,"MET11212/02/17 19:53:02 METAR KSEA 030353Z 18004KT 2SM -RA BR BKN006 OVC010 05/04 A2983 RMK AO2 SLP111 P0004 T00500044","FM-15","7",,,,,,,,,,,,,,,,,,,,,,,,,,,,"2007-05-17"
"72793024233","2017-12-02T20:04:00","FM-16","7",,,,,,,,,,,,,,,,,,,,,,,,,,,,,,,,,,,,,,"29.84","40","41","0.01","-RA:02 BR:1 |RA |",,,"96",,"BKN:07 5 OVC:08 9","29.38","3.00","41","170",,"5",,,,,,,,,,,,,,,,,,,,,,,,,,,,,,,,,,,,,"MET11712/02/17 20:04:02 SPECI KSEA 030404Z 17004KT 3SM -RA BR BKN005 OVC009 05/04 A2984 RMK AO2 CIG 003V007 P0001 T00500044","FM-16","7",,,,,,,,,,,,,,,,,,,,,,,,,,,,"2007-05-17"
"72793024233","2017-12-02T20:53:00","FM-15","7",,,,,,,,,,,,,,,,,,,,,,,,,,,,,,,,,,,,,,"29.85","41","42","0.07","-RA:02 BR:1 |RA |",,,"96","29.87","FEW:02 3 OVC:08 5","29.39","3.00","42","190",,"5",,,,,,,,,,,,,,,,,,,,,,,,,,,,,,,,,,,,,"MET12212/02/17 20:53:02 METAR KSEA 030453Z 19004KT 3SM -RA BR FEW003 OVC005 06/05 A2985 RMK AO2 SFC VIS 4 SLP115 P0006 T00560050","FM-15","7",,,,,,,,,,,,,,,,,,,,,,,,,,,,"2007-05-17"
"72793024233","2017-12-02T21:07:00","FM-16","7",,,,,,,,,,,,,,,,,,,,,,,,,,,,,,,,,,,,,,"29.85","40","42","0.03","RA:02 BR:1 |RA |",,,"92",,"SCT:04 5 BKN:07 10 OVC:08 19","29.39","3.00","41","230",,"7",,,,,,,,,,,,,,,,,,,,,,,,,,,,,,,,,,,,,"MET12112/02/17 21:07:02 SPECI KSEA 030507Z 23006KT 3SM RA BR SCT005 BKN010 OVC019 06/04 A2985 RMK AO2 SFC VIS 4 P0003 T00560044","FM-16","7",,,,,,,,,,,,,,,,,,,,,,,,,,,,"2007-05-17"
"72793024233","2017-12-02T21:25:00","FM-16","7",,,,,,,,,,,,,,,,,,,,,,,,,,,,,,,,,,,,,,"29.85","41","42","0.08","-RA:02 |RA |",,,"96",,"SCT:04 9 BKN:07 17 OVC:08 30","29.39","7.00","42","000",,"0",,,,,,,,,,,,,,,,,,,,,,,,,,,,,,,,,,,,,"MET10912/02/17 21:25:02 SPECI KSEA 030525Z 00000KT 7SM -RA SCT009 BKN017 OVC030 06/05 A2985 RMK AO2 P0008 T00560050","FM-16","7",,,,,,,,,,,,,,,,,,,,,,,,,,,,"2007-05-17"
"72793024233","2017-12-02T21:53:00","FM-15","7",,,,,,,,,,,,,,,,,,,,,,,,,,,,,,,,,,,,,,"29.86","40","42","0.09","-RA:02 |RA |","-0.03","3","92","29.88","SCT:04 15 BKN:07 23 OVC:08 36","29.39","10.00","41","180",,"5",,,,,,,,,,,,,,,,,,,,,,,,,,,,,,,,,,,,,"MET14112/02/17 21:53:02 METAR KSEA 030553Z 18004KT 10SM -RA SCT015 BKN023 OVC036 06/04 A2986 RMK AO2 SLP118 P0010 60031 T00560044 10061 20050 53010","FM-15","7",,,,,,,,,,,,,,,,,,,,,,,,,,,,"2007-05-17"
"72793024233","2017-12-02T22:00:00","FM-12","4",,,,,,,,,,,,,,,,,,,,,,,,,,,,,,,,,,,,,,,"40","42",,"||RA","-0.03","3","92","29.88","15","29.38","9.94","41","180",,"5",,,,,,,,,,,,,,,,,,,,,,,,,,,,,,,,,,,,,"SYN09272793 11466 81804 10056 20044 39949 40118 53010 60081 761// 90553 333 10072 20050 555 90306=","FM-12","4",,,,,,,,,,,,,,,,,,,,,,,,,,,,"2007-05-17"
"72793024233","2017-12-02T22:53:00","FM-15","7",,,,,,,,,,,,,,,,,,,,,,,,,,,,,,,,,,,,,,"29.87","41","41","0.02","-RA:02 |RA |",,,"100","29.89","FEW:02 13 BKN:07 18 OVC:08 23","29.41","9.00","41","000",,"0",,,,,,,,,,,,,,,,,,,,,,,,,,,,,,,,,,,,,"MET11612/02/17 22:53:02 METAR KSEA 030653Z 00000KT 9SM -RA FEW013 BKN018 OVC023 05/05 A2987 RMK AO2 SLP122 P0002 T00500050","FM-15","7",,,,,,,,,,,,,,,,,,,,,,,,,,,,"2007-05-17"
"72793024233","2017-12-02T23:11:00","FM-16","7",,,,,,,,,,,,,,,,,,,,,,,,,,,,,,,,,,,,,,"29.87","40","41","0.01","-RA:02 |RA |",,,"96",,"FEW:02 5 SCT:04 13 OVC:08 23","29.41","7.00","41","180",,"5",,,,,,,,,,,,,,,,,,,,,,,,,,,,,,,,,,,,,"MET10912/02/17 23:11:02 SPECI KSEA 030711Z 18004KT 7SM -RA FEW005 SCT013 OVC023 05/04 A2987 RMK AO2 P0001 T00500044","FM-16","7",,,,,,,,,,,,,,,,,,,,,,,,,,,,"2007-05-17"
"72793024233","2017-12-02T23:51:00","FM-16","6",,,,,,,,,,,,,,,,,,,,,,,,,,,,,,,,,,,,,,"29.88","39","41",,"-RA:02 |RA |",,,"93",,"BKN:07 7 BKN:07 32 OVC:08 45","29.41","8.00","40","000",,"0",,,,,,,,,,,,,,,,,,,,,,,,,,,,,,,,,,,,,"MET10912/02/17 23:51:03 SPECI KSEA 030751Z 00000KT 8SM -RA BKN007 BKN032 OVC045 05/04 A2988 RMK AO2 P0001 FIBI (LC)","FM-16","6",,,,,,,,,,,,,,,,,,,,,,,,,,,,"2007-05-17"
"72793024233","2017-12-02T23:53:00","FM-15","7",,,,,,,,,,,,,,,,,,,,,,,,,,,,,,,,,,,,,,"29.88","40","41","0.01","-RA:02 |RA |",,,"96","29.91","BKN:07 7 BKN:07 29 OVC:08 45","29.41","9.00","41","120",,"3",,,,,,,,,,,,,,,,,,,,,,,,,,,,,,,,,,,,,"MET12612/02/17 23:53:02 METAR KSEA 030753Z 12003KT 9SM -RA BKN007 BKN029 OVC045 05/04 A2988 RMK AO2 SLP127 P0001 T00500044 400670050","FM-15","7",,,,,,,,,,,,,,,,,,,,,,,,,,,,"2007-05-17"
"72793024233","2017-12-02T23:59:00","SOD  ","6",,,,,,,,,,,,,,,"40","43","91","29.91","29.41","41","6.8","0","0.9","22","44","41","140","17","0.79","0","0.0","170","13","RA BR",,,,,,,,,,,,,,,,,,,,,,,,,,,,,,,,,,,,,,,,,,,,,,,,,,,,,,,,"SOD75624 HR PRECIPITATION (IN): 0.79 SNOW DEPTH (IN):0     24 HR SNOWFALL (IN):0.0  WEATHER(CODE):1  24 HR MAX TEMP (F): 4424 HR MIN TEMP (F): 41AVERAGE STATION PRESSURE:29.410 MINIMUM SEA LEVEL PRESSURE:29.84 TIME OF OCCURRENCE:1810 PEAK WIND SPEED (MPH): 17 PEAK WIND DIR (DEG):140 PEAK WIND TIME (LST):      FASTEST 2MIN SPEED (MPH): 13FASTEST 2MIN DIR (DEG):170 FASTEST 2MIN TIME (LST):     AVERAGE WIND SPEED (MPH): 6.8 24 HR AVG TEMP (F): 43DEPART FROM NORMAL:  1  HEATING DEGREE DAYS: 22 COOLING DEGREE DAYS:  0 LATEST DAY MAX TEMP (0700-1900 LST):44  LATEST NIGHT MIN TEMP(1900-0800 LST):41 HOURLY INCREMENTAL PRECIPITATION VALUES (IN):.00 0.00 0.00 0.00 0.00 0.00 0.00 0.00 T    0.07 0.11 0.06 0.05 0.06 0.06 0.04 0.02 0.04 0.05 0.04 0.07 0.09 0.02 0.01","SOD  ","6",,,,,,,,,,,,,,,,,,,,,,,,,"0737","1620",,"2007-05-17"
"72793024233","2017-12-03T00:11:00","FM-16","7",,,,,,,,,,,,,,,,,,,,,,,,,,,,,,,,,,,,,,"29.88","40","41","0.01","-RA:02 |RA |",,,"96",,"SCT:04 7 BKN:07 32 OVC:08 43","29.41","7.00","41","120",,"3",,,,,,,,,,,,,,,,,,,,,,,,,,,,,,,,,,,,,"MET11412/03/17 00:11:02 SPECI KSEA 030811Z 12003KT 7SM -RA SCT007 BKN032 OVC043 05/04 A2988 RMK AO2 P0001 T00500044 (LC)","FM-16","7",,,,,,,,,,,,,,,,,,,,,,,,,,,,"2007-05-17"
"72793024233","2017-12-03T00:38:00","FM-16","7",,,,,,,,,,,,,,,,,,,,,,,,,,,,,,,,,,,,,,"29.89","41","41","0.01","-RA:02 BR:1 |RA |",,,"100",,"BKN:07 2 OVC:08 23","29.42","4.00","41","000",,"0",,,,,,,,,,,,,,,,,,,,,,,,,,,,,,,,,,,,,"MET11012/03/17 00:38:02 SPECI KSEA 030838Z 00000KT 4SM -RA BR BKN002 OVC023 05/05 A2989 RMK AO2 P0001 T00500050 (LC)","FM-16","7",,,,,,,,,,,,,,,,,,,,,,,,,,,,"2007-05-17"
"72793024233","2017-12-03T00:53:00","FM-15","7",,,,,,,,,,,,,,,,,,,,,,,,,,,,,,,,,,,,,,"29.90","40","41","0.02","-RA:02 BR:1 |RA |","-0.04","3","96","29.92","BKN:07 2 OVC:08 17","29.44","5.00","41","000",,"0",,,,,,,,,,,,,,,,,,,,,,,,,,,,,,,,,,,,,"MET12912/03/17 00:53:02 METAR KSEA 030853Z 00000KT 5SM -RA BR BKN002 OVC017 05/04 A2990 RMK AO2 SLP132 P0002 60005 T00500044 53014 (LC)","FM-15","7",,,,,,,,,,,,,,,,,,,,,,,,,,,,"2007-05-17"
"72793024233","2017-12-03T01:20:00","FM-16","7",,,,,,,,,,,,,,,,,,,,,,,,,,,,,,,,,,,,,,"29.90","40","41","T","-RA:02 BR:1 |RA |",,,"96",,"SCT:04 2 BKN:07 15 OVC:08 22","29.44","5.00","41","000",,"0",,,,,,,,,,,,,,,,,,,,,,,,,,,,,,,,,,,,,"MET11712/03/17 01:20:02 SPECI KSEA 030920Z 00000KT 5SM -RA BR SCT002 BKN015 OVC022 05/04 A2990 RMK AO2 P0000 T00500044 (LC)","FM-16","7",,,,,,,,,,,,,,,,,,,,,,,,,,,,"2007-05-17"
"72793024233","2017-12-03T01:48:00","FM-16","7",,,,,,,,,,,,,,,,,,,,,,,,,,,,,,,,,,,,,,"29.91","39","43","T",,,,"87",,"FEW:02 2 BKN:07 8 OVC:08 13","29.44","7.00","41","310",,"6",,,,,,,,,,,,,,,,,,,,,,,,,,,,,,,,,,,,,"MET10612/03/17 01:48:02 SPECI KSEA 030948Z 31005KT 7SM FEW002 BKN008 OVC013 06/04 A2991 RMK AO2 RAE43 P0000 (LC)","FM-16","7",,,,,,,,,,,,,,,,,,,,,,,,,,,,"2007-05-17"
"72793024233","2017-12-03T01:53:00","FM-15","7",,,,,,,,,,,,,,,,,,,,,,,,,,,,,,,,,,,,,,"29.92","40","42","T",,,,"92","29.94","FEW:02 2 BKN:07 8 OVC:08 13","29.45","7.00","41","310",,"6",,,,,,,,,,,,,,,,,,,,,,,,,,,,,,,,,,,,,"MET12312/03/17 01:53:02 METAR KSEA 030953Z 31005KT 7SM FEW002 BKN008 OVC013 06/04 A2992 RMK AO2 RAE43 SLP138 P0000 T00560044 (LC)","FM-15","7",,,,,,,,,,,,,,,,,,,,,,,,,,,,"2007-05-17"
"72793024233","2017-12-03T02:15:00","FM-16","7",,,,,,,,,,,,,,,,,,,,,,,,,,,,,,,,,,,,,,"29.92","40","41",,,,,"96",,"SCT:04 11 BKN:07 28 OVC:08 100","29.45","10.00","41","320",,"6",,,,,,,,,,,,,,,,,,,,,,,,,,,,,,,,,,,,,"MET10512/03/17 02:15:02 SPECI KSEA 031015Z 32005KT 10SM SCT011 BKN028 OVC100 05/04 A2992 RMK AO2 T00500044 (LC)","FM-16","7",,,,,,,,,,,,,,,,,,,,,,,,,,,,"2007-05-17"
"72793024233","2017-12-03T02:51:00","FM-16","6",,,,,,,,,,,,,,,,,,,,,,,,,,,,,,,,,,,,,,"29.94","39","43",,"-RA:02 BR:1 |RA |",,,"87",,"SCT:04 7 BKN:07 11 OVC:08 28","29.47","5.00","41","330",,"7",,,,,,,,,,,,,,,,,,,,,,,,,,,,,,,,,,,,,"MET11812/03/17 02:51:02 SPECI KSEA 031051Z 33006KT 5SM -RA BR SCT007 BKN011 OVC028 06/04 A2994 RMK AO2 RAB48 P0000 FIBI (LC)","FM-16","6",,,,,,,,,,,,,,,,,,,,,,,,,,,,"2007-05-17"
"72793024233","2017-12-03T02:53:00","FM-15","7",,,,,,,,,,,,,,,,,,,,,,,,,,,,,,,,,,,,,,"29.94","40","42","T","-RA:02 BR:1 |RA |",,,"92","29.96","SCT:04 7 BKN:07 11 OVC:08 28","29.47","5.00","41","330",,"9",,,,,,,,,,,,,,,,,,,,,,,,,,,,,,,,,,,,,"MET13012/03/17 02:53:02 METAR KSEA 031053Z 33008KT 5SM -RA BR SCT007 BKN011 OVC028 06/04 A2994 RMK AO2 RAB48 SLP146 P0000 T00560044 (LC)","FM-15","7",,,,,,,,,,,,,,,,,,,,,,,,,,,,"2007-05-17"
"72793024233","2017-12-03T03:51:00","FM-16","6",,,,,,,,,,,,,,,,,,,,,,,,,,,,,,,,,,,,,,"29.97","39","41",,"-RA:02 |RA |",,,"93",,"FEW:02 17 BKN:07 27 OVC:08 35","29.50","7.00","40","330",,"9",,,,,,,,,,,,,,,,,,,,,,,,,,,,,,,,,,,,,"MET10912/03/17 03:51:02 SPECI KSEA 031151Z 33008KT 7SM -RA FEW017 BKN027 OVC035 05/04 A2997 RMK AO2 P0001 FIBI (LC)","FM-16","6",,,,,,,,,,,,,,,,,,,,,,,,,,,,"2007-05-17"
"72793024233","2017-12-03T03:53:00","FM-15","7",,,,,,,,,,,,,,,,,,,,,,,,,,,,,,,,,,,,,,"29.97","40","41","0.01","-RA:02 |RA |","-0.05","3","96","29.99","FEW:02 11 BKN:07 27 OVC:08 35","29.50","7.00","41","330",,"10",,,,,,,,,,,,,,,,,,,,,,,,,,,,,,,,,,,,,"MET15112/03/17 03:53:02 METAR KSEA 031153Z 33009KT 7SM -RA FEW011 BKN027 OVC035 05/04 A2997 RMK AO2 SLP156 P0001 60006 70082 T00500044 10056 20050 53017 (LC)","FM-15","7",,,,,,,,,,,,,,,,,,,,,,,,,,,,"2007-05-17"
"72793024233","2017-12-03T04:00:00","FM-12","4",,,,,,,,,,,,,,,,,,,,,,,,,,,,,,,,,,,,,,,"40","41",,"||RA","-0.05","3","96","29.99","15","29.49","6.84","41","330",,"10",,,,,,,,,,,,,,,,,,,,,,,,,,,,,,,,,,,,,"SYN09872793 11461 83309 10050 20044 39986 40156 53017 60021 761// 91153 333 10067 20050 70208 555 90312=","FM-12","4",,,,,,,,,,,,,,,,,,,,,,,,,,,,"2007-05-17"
"72793024233","2017-12-03T04:51:00","FM-16","6",,,,,,,,,,,,,,,,,,,,,,,,,,,,,,,,,,,,,,"29.99","39","41",,,,,"93",,"SCT:04 27 BKN:07 35 OVC:08 49","29.52","10.00","40","360",,"5",,,,,,,,,,,,,,,,,,,,,,,,,,,,,,,,,,,,,"MET11212/03/17 04:51:02 SPECI KSEA 031251Z 36004KT 10SM SCT027 BKN035 OVC049 05/04 A2999 RMK AO2 RAE33 P0001 FIBI (LC)","FM-16","6",,,,,,,,,,,,,,,,,,,,,,,,,,,,"2007-05-17"
"72793024233","2017-12-03T04:53:00","FM-15","7",,,,,,,,,,,,,,,,,,,,,,,,,,,,,,,,,,,,,,"29.99","39","41","0.01",,,,"93","30.01","FEW:02 27 BKN:07 35 OVC:08 49","29.52","10.00","40","360",,"5",,,,,,,,,,,,,,,,,,,,,,,,,,,,,,,,,,,,,"MET12412/03/17 04:53:02 METAR KSEA 031253Z 36004KT 10SM FEW027 BKN035 OVC049 05/04 A2999 RMK AO2 RAE33 SLP163 P0001 T00500039 (LC)","FM-15","7",,,,,,,,,,,,,,,,,,,,,,,,,,,,"2007-05-17"
"72793024233","2017-12-03T05:53:00","FM-15","7",,,,,,,,,,,,,,,,,,,,,,,,,,,,,,,,,,,,,,"30.02","38","40","0.01",,,,"93","30.04","FEW:02 30 BKN:07 35 OVC:08 44","29.55","10.00","39","360",,"3",,,,,,,,,,,,,,,,,,,,,,,,,,,,,,,,,,,,,"MET12712/03/17 05:53:02 METAR KSEA 031353Z 36003KT 10SM FEW030 BKN035 OVC044 04/03 A3002 RMK AO2 RAB14E26 SLP173 P0001 T00440033 (LZ)","FM-15","7",,,,,,,,,,,,,,,,,,,,,,,,,,,,"2007-05-17"
"72793024233","2017-12-03T06:53:00","FM-15","7",,,,,,,,,,,,,,,,,,,,,,,,,,,,,,,,,,,,,,"30.04","38","41","0.00",,"-0.08","3","89","30.07","SCT:04 25 BKN:07 35 OVC:08 46","29.57","10.00","40","020",,"7",,,,,,,,,,,,,,,,,,,,,,,,,,,,,,,,,,,,,"MET12412/03/17 06:53:02 METAR KSEA 031453Z 02006KT 10SM SCT025 BKN035 OVC046 05/03 A3004 RMK AO2 SLP182 60002 T00500033 53026 (LZ)","FM-15","7",,,,,,,,,,,,,,,,,,,,,,,,,,,,"2007-05-17"
"72793024233","2017-12-03T07:51:00","FM-16","6",,,,,,,,,,,,,,,,,,,,,,,,,,,,,,,,,,,,,,"30.07","39","41",,,,,"93",,"SCT:04 15 BKN:07 22 OVC:08 29","29.60","10.00","40","030",,"6",,,,,,,,,,,,,,,,,,,,,,,,,,,,,,,,,,,,,"MET10012/03/17 07:51:02 SPECI KSEA 031551Z 03005KT 10SM SCT015 BKN022 OVC029 05/04 A3007 RMK AO2 FIBI (LZ)","FM-16","6",,,,,,,,,,,,,,,,,,,,,,,,,,,,"2007-05-17"
"72793024233","2017-12-03T07:53:00","FM-15","7",,,,,,,,,,,,,,,,,,,,,,,,,,,,,,,,,,,,,,"30.07","39","42","0.00",,,,"89","30.09","BKN:07 18 OVC:08 25","29.60","10.00","41","030",,"7",,,,,,,,,,,,,,,,,,,,,,,,,,,,,,,,,,,,,"MET10512/03/17 07:53:02 METAR KSEA 031553Z 03006KT 10SM BKN018 OVC025 06/04 A3007 RMK AO2 SLP191 T00560039 (LZ)","FM-15","7",,,,,,,,,,,,,,,,,,,,,,,,,,,,"2007-05-17"
"72793024233","2017-12-03T08:51:00","FM-16","6",,,,,,,,,,,,,,,,,,,,,,,,,,,,,,,,,,,,,,"30.10","39","43",,,,,"87",,"SCT:04 15 BKN:07 37 OVC:08 50","29.63","10.00","41","020",,"3",,,,,,,,,,,,,,,,,,,,,,,,,,,,,,,,,,,,,"MET10012/03/17 08:51:02 SPECI KSEA 031651Z 02003KT 10SM SCT015 BKN037 OVC050 06/04 A3010 RMK AO2 FIBI (LZ)","FM-16","6",,,,,,,,,,,,,,,,,,,,,,,,,,,,"2007-05-17"
"72793024233","2017-12-03T08:53:00","FM-15","7",,,,,,,,,,,,,,,,,,,,,,,,,,,,,,,,,,,,,,"30.11","39","42","0.00",,,,"89","30.13","SCT:04 15 BKN:07 37 OVC:08 50","29.64","10.00","41","010",,"5",,,,,,,,,,,,,,,,,,,,,,,,,,,,,,,,,,,,,"MET11212/03/17 08:53:02 METAR KSEA 031653Z 01004KT 10SM SCT015 BKN037 OVC050 06/04 A3011 RMK AO2 SLP203 T00560039 (LZ)","FM-15","7",,,,,,,,,,,,,,,,,,,,,,,,,,,,"2007-05-17"
"72793024233","2017-12-03T09:53:00","FM-15","7",,,,,,,,,,,,,,,,,,,,,,,,,,,,,,,,,,,,,,"30.14","38","42","0.00",,"-0.09","3","85","30.16","SCT:04 15 OVC:08 33","29.67","10.00","40","350",,"3",,,,,,,,,,,,,,,,,,,,,,,,,,,,,,,,,,,,,"MET12912/03/17 09:53:02 METAR KSEA 031753Z 35003KT 10SM SCT015 OVC033 06/03 A3014 RMK AO2 SLP215 60002 T00560033 10056 20044 53032 (LZ)","FM-15","7",,,,,,,,,,,,,,,,,,,,,,,,,,,,"2007-05-17"
"72793024233","2017-12-03T10:00:00","FM-12","4",,,,,,,,,,,,,,,,,,,,,,,,,,,,,,,,,,,,,,,"38","42",,,"-0.09","3","85","30.16","15","29.66","9.94","40","350",,"3",,,,,,,,,,,,,,,,,,,,,,,,,,,,,,,,,,,,,"SYN08672793 12466 83503 10056 20033 30043 40215 53032 69951 91753 333 10056 20044 555 90318=","FM-12","4",,,,,,,,,,,,,,,,,,,,,,,,,,,,"2007-05-17"
"72793024233","2017-12-03T10:53:00","FM-15","7",,,,,,,,,,,,,,,,,,,,,,,,,,,,,,,,,,,,,,"30.16","39","43","0.00",,,,"86","30.19","SCT:04 15 OVC:08 47","29.69","10.00","41","290",,"3",,,,,,,,,,,,,,,,,,,,,,,,,,,,,,,,,,,,,"MET10512/03/17 10:53:02 METAR KSEA 031853Z 29003KT 10SM SCT015 OVC047 06/04 A3016 RMK AO2 SLP223 T00610039 (LZ)","FM-15","7",,,,,,,,,,,,,,,,,,,,,,,,,,,,"2007-05-17"
"72793024233","2017-12-03T11:14:00","FM-16","7",,,,,,,,,,,,,,,,,,,,,,,,,,,,,,,,,,,,,,"30.17","39","44",,,,,"83",,"SCT:04 13 BKN:07 17 OVC:08 48","29.70","10.00","42","290",,"3",,,,,,,,,,,,,,,,,,,,,,,,,,,,,,,,,,,,,"MET10512/03/17 11:14:02 SPECI KSEA 031914Z 29003KT 10SM SCT013 BKN017 OVC048 07/04 A3017 RMK AO2 T00670039 (LZ)","FM-16","7",,,,,,,,,,,,,,,,,,,,,,,,,,,,"2007-05-17"
"72793024233","2017-12-03T11:51:00","FM-16","6",,,,,,,,,,,,,,,,,,,,,,,,,,,,,,,,,,,,,,"30.18","39","43",,,,,"87",,"FEW:02 11 BKN:07 36 OVC:08 45","29.71","10.00","41","300",,"5",,,,,,,,,,,,,,,,,,,,,,,,,,,,,,,,,,,,,"MET10012/03/17 11:51:02 SPECI KSEA 031951Z 30004KT 10SM FEW011 BKN036 OVC045 06/04 A3018 RMK AO2 FIBI (LZ)","FM-16","6",,,,,,,,,,,,,,,,,,,,,,,,,,,,"2007-05-17"
"72793024233","2017-12-03T11:53:00","FM-15","7",,,,,,,,,,,,,,,,,,,,,,,,,,,,,,,,,,,,,,"30.18","39","43","0.00",,,,"86","30.21","SCT:04 11 BKN:07 34 OVC:08 45","29.71","10.00","41","290",,"6",,,,,,,,,,,,,,,,,,,,,,,,,,,,,,,,,,,,,"MET11212/03/17 11:53:02 METAR KSEA 031953Z 29005KT 10SM SCT011 BKN034 OVC045 06/04 A3018 RMK AO2 SLP230 T00610039 (LZ)","FM-15","7",,,,,,,,,,,,,,,,,,,,,,,,,,,,"2007-05-17"
"72793024233","2017-12-03T12:53:00","FM-15","7",,,,,,,,,,,,,,,,,,,,,,,,,,,,,,,,,,,,,,"30.21","37","44","0.00",,"-0.07","3","76","30.23","FEW:02 21 BKN:07 31 OVC:08 50","29.74","10.00","41","320",,"5",,,,,,,,,,,,,,,,,,,,,,,,,,,,,,,,,,,,,"MET11812/03/17 12:53:02 METAR KSEA 032053Z 32004KT 10SM FEW021 BKN031 OVC050 07/03 A3021 RMK AO2 SLP238 T00670028 53023 (LZ)","FM-15","7",,,,,,,,,,,,,,,,,,,,,,,,,,,,"2007-05-17"
"72793024233","2017-12-03T13:53:00","FM-15","7",,,,,,,,,,,,,,,,,,,,,,,,,,,,,,,,,,,,,,"30.21","37","46","0.00",,,,"71","30.24","SCT:04 22 SCT:04 27 BKN:07 48","29.74","10.00","42","000",,"0",,,,,,,,,,,,,,,,,,,,,,,,,,,,,,,,,,,,,"MET11212/03/17 13:53:02 METAR KSEA 032153Z 00000KT 10SM SCT022 SCT027 BKN048 08/03 A3021 RMK AO2 SLP239 T00780028 (LZ)","FM-15","7",,,,,,,,,,,,,,,,,,,,,,,,,,,,"2007-05-17"
"72793024233","2017-12-03T14:24:00","FM-16","7",,,,,,,,,,,,,,,,,,,,,,,,,,,,,,,,,,,,,,"30.21","39","44",,,,,"83",,"BKN:07 13 OVC:08 29","29.74","10.00","42","210",,"8",,,,,,,,,,,,,,,,,,,,,,,,,,,,,,,,,,,,,"MET09812/03/17 14:24:02 SPECI KSEA 032224Z 21007KT 10SM BKN013 OVC029 07/04 A3021 RMK AO2 T00670039 (LZ)","FM-16","7",,,,,,,,,,,,,,,,,,,,,,,,,,,,"2007-05-17"
"72793024233","2017-12-03T14:53:00","FM-15","7",,,,,,,,,,,,,,,,,,,,,,,,,,,,,,,,,,,,,,"30.23","39","44","0.00",,,,"83","30.26","BKN:07 14 BKN:07 29","29.76","10.00","42","000",,"0",,,,,,,,,,,,,,,,,,,,,,,,,,,,,,,,,,,,,"MET10512/03/17 14:53:02 METAR KSEA 032253Z 00000KT 10SM BKN014 BKN029 07/04 A3023 RMK AO2 SLP247 T00670039 (TL)","FM-15","7",,,,,,,,,,,,,,,,,,,,,,,,,,,,"2007-05-17"
"72793024233","2017-12-03T15:12:00","FM-16","7",,,,,,,,,,,,,,,,,,,,,,,,,,,,,,,,,,,,,,"30.25","38","44",,,,,"79",,"BKN:07 17 OVC:08 24","29.78","10.00","41","310",,"3",,,,,,,,,,,,,,,,,,,,,,,,,,,,,,,,,,,,,"MET09812/03/17 15:12:02 SPECI KSEA 032312Z 31003KT 10SM BKN017 OVC024 07/03 A3025 RMK AO2 T00670033 (TL)","FM-16","7",,,,,,,,,,,,,,,,,,,,,,,,,,,,"2007-05-17"
"72793024233","2017-12-03T15:53:00","FM-15","7",,,,,,,,,,,,,,,,,,,,,,,,,,,,,,,,,,,,,,"30.27","37","44","0.00",,"-0.06","3","76","30.30","SCT:04 21 OVC:08 26","29.80","10.00","41","040",,"7",,,,,,,,,,,,,,,,,,,,,,,,,,,,,,,,,,,,,"MET12312/03/17 15:53:02 METAR KSEA 032353Z 04006KT 10SM SCT021 OVC026 07/03 A3027 RMK AO2 SLP260 T00670028 10078 20056 53022 (TL)","FM-15","7",,,,,,,,,,,,,,,,,,,,,,,,,,,,"2007-05-17"
"72793024233","2017-12-03T16:00:00","FM-12","4",,,,,,,,,,,,,,,,,,,,,,,,,,,,,,,,,,,,,,,"37","44",,,"-0.06","3","76","30.30","26","29.78","9.94","41","040",,"7",,,,,,,,,,,,,,,,,,,,,,,,,,,,,,,,,,,,,"SYN08072793 32566 80406 10067 20028 30086 40260 53022 92353 333 10078 20050 555 90400=","FM-12","4",,,,,,,,,,,,,,,,,,,,,,,,,,,,"2007-05-17"
"72793024233","2017-12-03T16:53:00","FM-15","7",,,,,,,,,,,,,,,,,,,,,,,,,,,,,,,,,,,,,,"30.29","39","41","0.00",,,,"93","30.32","BKN:07 22 OVC:08 27","29.82","10.00","40","180",,"7",,,,,,,,,,,,,,,,,,,,,,,,,,,,,,,,,,,,,"MET10012/03/17 16:53:01 METAR KSEA 040053Z 18006KT 10SM BKN022 OVC027 05/04 A3029 RMK AO2 SLP267 T00500039","FM-15","7",,,,,,,,,,,,,,,,,,,,,,,,,,,,"2007-05-17"
"72793024233","2017-12-03T17:08:00","FM-16","7",,,,,,,,,,,,,,,,,,,,,,,,,,,,,,,,,,,,,,"30.30","39","42",,,,,"89",,"FEW:02 8 OVC:08 23","29.83","10.00","41","140",,"6",,,,,,,,,,,,,,,,,,,,,,,,,,,,,,,,,,,,,"MET09312/03/17 17:08:01 SPECI KSEA 040108Z 14005KT 10SM FEW008 OVC023 06/04 A3030 RMK AO2 T00560039","FM-16","7",,,,,,,,,,,,,,,,,,,,,,,,,,,,"2007-05-17"
"72793024233","2017-12-03T17:53:00","FM-15","7",,,,,,,,,,,,,,,,,,,,,,,,,,,,,,,,,,,,,,"30.30","39","41","0.00",,,,"93","30.33","FEW:02 25 OVC:08 35","29.83","10.00","40","200",,"5",,,,,,,,,,,,,,,,,,,,,,,,,,,,,,,,,,,,,"MET10012/03/17 17:53:01 METAR KSEA 040153Z 20004KT 10SM FEW025 OVC035 05/04 A3030 RMK AO2 SLP271 T00500039","FM-15","7",,,,,,,,,,,,,,,,,,,,,,,,,,,,"2007-05-17"
"72793024233","2017-12-03T18:22:00","FM-16","7",,,,,,,,,,,,,,,,,,,,,,,,,,,,,,,,,,,,,,"30.32","39","41",,,,,"93",,"BKN:07 17 OVC:08 34","29.85","10.00","40","000",,"0",,,,,,,,,,,,,,,,,,,,,,,,,,,,,,,,,,,,,"MET09312/03/17 18:22:01 SPECI KSEA 040222Z 00000KT 10SM BKN017 OVC034 05/04 A3032 RMK AO2 T00500039","FM-16","7",,,,,,,,,,,,,,,,,,,,,,,,,,,,"2007-05-17"
"72793024233","2017-12-03T18:53:00","FM-15","7",,,,,,,,,,,,,,,,,,,,,,,,,,,,,,,,,,,,,,"30.32","39","41","0.00",,"-0.05","1","93","30.35","SCT:04 17 BKN:07 24 OVC:08 36","29.85","10.00","40","000",,"0",,,,,,,,,,,,,,,,,,,,,,,,,,,,,,,,,,,,,"MET11312/03/17 18:53:02 METAR KSEA 040253Z 00000KT 10SM SCT017 BKN024 OVC036 05/04 A3032 RMK AO2 SLP277 T00500039 51016","FM-15","7",,,,,,,,,,,,,,,,,,,,,,,,,,,,"2007-05-17"
"72793024233","2017-12-03T19:00:00","FM-16","7",,,,,,,,,,,,,,,,,,,,,,,,,,,,,,,,,,,,,,"30.32","39","41",,,,,"93",,"SCT:04 15 OVC:08 36","29.85","10.00","40","000",,"0",,,,,,,,,,,,,,,,,,,,,,,,,,,,,,,,,,,,,"MET09312/03/17 19:00:02 SPECI KSEA 040300Z 00000KT 10SM SCT015 OVC036 05/04 A3032 RMK AO2 T00500039","FM-16","7",,,,,,,,,,,,,,,,,,,,,,,,,,,,"2007-05-17"
"72793024233","2017-12-03T19:43:00","FM-16","7",,,,,,,,,,,,,,,,,,,,,,,,,,,,,,,,,,,,,,"30.34","38","41",,,,,"89",,"BKN:07 19 OVC:08 43","29.87","10.00","40","000",,"0",,,,,,,,,,,,,,,,,,,,,,,,,,,,,,,,,,,,,"MET09312/03/17 19:43:02 SPECI KSEA 040343Z 00000KT 10SM BKN019 OVC043 05/03 A3034 RMK AO2 T00500033","FM-16","7",,,,,,,,,,,,,,,,,,,,,,,,,,,,"2007-05-17"
"72793024233","2017-12-03T19:53:00","FM-15","7",,,,,,,,,,,,,,,,,,,,,,,,,,,,,,,,,,,,,,"30.35","39","41","0.00",,,,"93","30.37","BKN:07 18 OVC:08 43","29.88","10.00","40","000",,"0",,,,,,,,,,,,,,,,,,,,,,,,,,,,,,,,,,,,,"MET10012/03/17 19:53:02 METAR KSEA 040353Z 00000KT 10SM BKN018 OVC043 05/04 A3035 RMK AO2 SLP284 T00500039","FM-15","7",,,,,,,,,,,,,,,,,,,,,,,,,,,,"2007-05-17"
"72793024233","2017-12-03T20:51:00","FM-16","6",,,,,,,,,,,,,,,,,,,,,,,,,,,,,,,,,,,,,,"30.37","39","41",,,,,"93",,"SCT:04 21 OVC:08 43","29.90","10.00","40","000",,"0",,,,,,,,,,,,,,,,,,,,,,,,,,,,,,,,,,,,,"MET09312/03/17 20:51:03 SPECI KSEA 040451Z 00000KT 10SM SCT021 OVC043 05/04 A3037 RMK AO2 FIBI (TL)","FM-16","6",,,,,,,,,,,,,,,,,,,,,,,,,,,,"2007-05-17"
"72793024233","2017-12-03T20:53:00","FM-15","7",,,,,,,,,,,,,,,,,,,,,,,,,,,,,,,,,,,,,,"30.37","39","41","0.00",,,,"93","30.40","SCT:04 21 OVC:08 43","29.90","10.00","40","000",,"0",,,,,,,,,,,,,,,,,,,,,,,,,,,,,,,,,,,,,"MET10012/03/17 20:53:02 METAR KSEA 040453Z 00000KT 10SM SCT021 OVC043 05/04 A3037 RMK AO2 SLP294 T00500039","FM-15","7",,,,,,,,,,,,,,,,,,,,,,,,,,,,"2007-05-17"
"72793024233","2017-12-03T21:53:00","FM-15","7",,,,,,,,,,,,,,,,,,,,,,,,,,,,,,,,,,,,,,"30.40","38","40","0.00",,"-0.07","2","93","30.42","BKN:07 44 BKN:07 50","29.93","10.00","39","000",,"0",,,,,,,,,,,,,,,,,,,,,,,,,,,,,,,,,,,,,"MET11812/03/17 21:53:02 METAR KSEA 040553Z 00000KT 10SM BKN044 BKN050 04/03 A3040 RMK AO2 SLP303 T00440033 10067 20044 52025","FM-15","7",,,,,,,,,,,,,,,,,,,,,,,,,,,,"2007-05-17"
"72793024233","2017-12-03T22:00:00","FM-12","4",,,,,,,,,,,,,,,,,,,,,,,,,,,,,,,,,,,,,,,"38","40",,,"-0.07","2","93","30.42","41","29.91","9.94","39","000",,"0",,,,,,,,,,,,,,,,,,,,,,,,,,,,,,,,,,,,,"SYN08072793 32666 60000 10044 20033 30130 40303 52025 90553 333 10067 20044 555 90406=","FM-12","4",,,,,,,,,,,,,,,,,,,,,,,,,,,,"2007-05-17"
"72793024233","2017-12-03T22:53:00","FM-15","7",,,,,,,,,,,,,,,,,,,,,,,,,,,,,,,,,,,,,,"30.42","38","41","0.00",,,,"89","30.45","BKN:07 39 BKN:07 47","29.95","7.00","40","120",,"5",,,,,,,,,,,,,,,,,,,,,,,,,,,,,,,,,,,,,"MET09912/03/17 22:53:02 METAR KSEA 040653Z 12004KT 7SM BKN039 BKN047 05/03 A3042 RMK AO2 SLP311 T00500033","FM-15","7",,,,,,,,,,,,,,,,,,,,,,,,,,,,"2007-05-17"
"72793024233","2017-12-03T23:53:00","FM-15","7",,,,,,,,,,,,,,,,,,,,,,,,,,,,,,,,,,,,,,"30.45","38","41","0.00",,,,"89","30.47","SCT:04 35 BKN:07 50","29.98","7.00","40","000",,"0",,,,,,,,,,,,,,,,,,,,,,,,,,,,,,,,,,,,,"MET10912/03/17 23:53:02 METAR KSEA 040753Z 00000KT 7SM SCT035 BKN050 05/03 A3045 RMK AO2 SLP319 T00500033 400780039","FM-15","7",,,,,,,,,,,,,,,,,,,,,,,,,,,,"2007-05-17"
"72793024233","2017-12-03T23:59:00","SOD  ","6",,,,,,,,,,,,,,,"39","43","88","30.20","29.72","41","3.8","0","1.1","22","46","39","320","15","0.05","0","0.0","020","12","RA BR",,,,,,,,,,,,,,,,,,,,,,,,,,,,,,,,,,,,,,,,,,,,,,,,,,,,,,,,"SOD78324 HR PRECIPITATION (IN): 0.05 SNOW DEPTH (IN):0     24 HR SNOWFALL (IN):0.0  WEATHER(CODE):1  24 HR MAX TEMP (F): 4624 HR MIN TEMP (F): 39AVERAGE STATION PRESSURE:29.720 MINIMUM SEA LEVEL PRESSURE:29.91 TIME OF OCCURRENCE:0034 PEAK WIND SPEED (MPH): 15 PEAK WIND DIR (DEG):320 PEAK WIND TIME (LST):      FASTEST 2MIN SPEED (MPH): 12FASTEST 2MIN DIR (DEG): 20 FASTEST 2MIN TIME (LST):     AVERAGE WIND SPEED (MPH): 3.8 24 HR AVG TEMP (F): 43DEPART FROM NORMAL:  1  SKY COVER SR-SS (TENTHS): 1HEATING DEGREE DAYS: 22 COOLING DEGREE DAYS:  0 LATEST DAY MAX TEMP (0700-1900 LST):46  LATEST NIGHT MIN TEMP(1900-0800 LST):40 HOURLY INCREMENTAL PRECIPITATION VALUES (IN):.02 T    T    0.01 0.01 0.01 0.00 0.00 0.00 0.00 0.00 0.00 0.00 0.00 0.00 0.00 0.00 0.00 0.00 0.00 0.00 0.00 0.00 0.00","SOD  ","6",,,,,,,,,,,,,,,,,,,,,,,,,"0738","1620",,"2007-05-17"
"72793024233","2017-12-04T00:53:00","FM-15","7",,,,,,,,,,,,,,,,,,,,,,,,,,,,,,,,,,,,,,"30.47","37","39","0.00",,"-0.07","1","93","30.49","BKN:07 45 OVC:08 55","30.00","8.00","38","000",,"0",,,,,,,,,,,,,,,,,,,,,,,,,,,,,,,,,,,,,"MET11012/04/17 00:53:02 METAR KSEA 040853Z 00000KT 8SM BKN045 OVC055 04/03 A3047 RMK AO2 SLP326 T00390028 51024 (LC)","FM-15","7",,,,,,,,,,,,,,,,,,,,,,,,,,,,"2007-05-17"
"72793024233","2017-12-04T01:41:00","FM-16","7",,,,,,,,,,,,,,,,,,,,,,,,,,,,,,,,,,,,,,"30.48","36","38",,,,,"93",,"FEW:02 5 FEW:02 23 BKN:07 41","30.01","7.00","37","120",,"5",,,,,,,,,,,,,,,,,,,,,,,,,,,,,,,,,,,,,"MET10412/04/17 01:41:02 SPECI KSEA 040941Z 12004KT 7SM FEW005 FEW023 BKN041 03/02 A3048 RMK AO2 T00330022 (LC)","FM-16","7",,,,,,,,,,,,,,,,,,,,,,,,,,,,"2007-05-17"
"72793024233","2017-12-04T01:53:00","FM-15","7",,,,,,,,,,,,,,,,,,,,,,,,,,,,,,,,,,,,,,"30.48","36","38","0.00",,,,"93","30.50","FEW:02 5 FEW:02 23 SCT:04 41","30.01","7.00","37","120",,"5",,,,,,,,,,,,,,,,,,,,,,,,,,,,,,,,,,,,,"MET11112/04/17 01:53:02 METAR KSEA 040953Z 12004KT 7SM FEW005 FEW023 SCT041 03/02 A3048 RMK AO2 SLP330 T00330022 (LC)","FM-15","7",,,,,,,,,,,,,,,,,,,,,,,,,,,,"2007-05-17"
"72793024233","2017-12-04T02:53:00","FM-15","7",,,,,,,,,,,,,,,,,,,,,,,,,,,,,,,,,,,,,,"30.50","36","37","0.00","BR:1 ||",,,"96","30.53","FEW:02 5 FEW:02 23 SCT:04 40","30.03","6.00","37","130",,"5",,,,,,,,,,,,,,,,,,,,,,,,,,,,,,,,,,,,,"MET11412/04/17 02:53:02 METAR KSEA 041053Z 13004KT 6SM BR FEW005 FEW023 SCT040 03/02 A3050 RMK AO2 SLP338 T00280022 (LC)","FM-15","7",,,,,,,,,,,,,,,,,,,,,,,,,,,,"2007-05-17"
"72793024233","2017-12-04T03:53:00","FM-15","7",,,,,,,,,,,,,,,,,,,,,,,,,,,,,,,,,,,,,,"30.51","36","37","0.00",,"-0.04","1","96","30.54","BKN:07 32","30.04","10.00","37","110",,"3",,,,,,,,,,,,,,,,,,,,,,,,,,,,,,,,,,,,,"MET12212/04/17 03:53:02 METAR KSEA 041153Z 11003KT 10SM BKN032 03/02 A3051 RMK AO2 SLP342 70002 T00280022 10050 20022 51014 (LC)","FM-15","7",,,,,,,,,,,,,,,,,,,,,,,,,,,,"2007-05-17"
"72793024233","2017-12-04T04:00:00","FM-12","4",,,,,,,,,,,,,,,,,,,,,,,,,,,,,,,,,,,,,,,"36","37",,,"-0.04","1","96","30.54","26","30.02","9.94","37","110",,"3",,,,,,,,,,,,,,,,,,,,,,,,,,,,,,,,,,,,,"SYN08672793 32566 61103 10028 20022 30166 40342 51014 91153 333 10078 20022 70005 555 90412=","FM-12","4",,,,,,,,,,,,,,,,,,,,,,,,,,,,"2007-05-17"
"72793024233","2017-12-04T04:45:00","FM-16","7",,,,,,,,,,,,,,,,,,,,,,,,,,,,,,,,,,,,,,"30.52","36","37",,"BR:1 ||",,,"96",,"OVC:08 38","30.05","1.25","37","000",,"0",,,,,,,,,,,,,,,,,,,,,,,,,,,,,,,,,,,,,"MET11512/04/17 04:45:02 SPECI KSEA 041245Z 00000KT 1 1/4SM R16L/2200VP6000FT BR OVC038 03/02 A3052 RMK AO2 T00280022 (LC)","FM-16","7",,,,,,,,,,,,,,,,,,,,,,,,,,,,"2007-05-17"
"72793024233","2017-12-04T04:47:00","FM-16","7",,,,,,,,,,,,,,,,,,,,,,,,,,,,,,,,,,,,,,"30.52","36","37",,"BR:1 ||",,,"93",,"FEW:02 1 BKN:07 38","30.05","1.00","37","000",,"0",,,,,,,,,,,,,,,,,,,,,,,,,,,,,,,,,,,,,"MET10812/04/17 04:47:02 SPECI KSEA 041247Z 00000KT 1SM R16L/1800VP6000FT BR FEW001 BKN038 03/02 A3052 RMK AO2 (LC)","FM-16","7",,,,,,,,,,,,,,,,,,,,,,,,,,,,"2007-05-17"
"72793024233","2017-12-04T04:53:00","FM-15","7",,,,,,,,,,,,,,,,,,,,,,,,,,,,,,,,,,,,,,"30.52","36","37","0.00","BR:1 ||",,,"96","30.54","FEW:02 1 BKN:07 38","30.05","1.00","37","120",,"5",,,,,,,,,,,,,,,,,,,,,,,,,,,,,,,,,,,,,"MET12412/04/17 04:53:02 METAR KSEA 041253Z 12004KT 1SM R16L/1800V2600FT BR FEW001 BKN038 03/02 A3052 RMK AO2 SLP343 T00280022 (LC)","FM-15","7",,,,,,,,,,,,,,,,,,,,,,,,,,,,"2007-05-17"
"72793024233","2017-12-04T05:10:00","FM-16","7",,,,,,,,,,,,,,,,,,,,,,,,,,,,,,,,,,,,,,"30.52","36","37",,"FG:2 |FG |",,,"96",,"BKN:07 1 BKN:07 38","30.05","0.50","37","140",,"6",,,,,,,,,,,,,,,,,,,,,,,,,,,,,,,,,,,,,"MET13012/04/17 05:10:02 SPECI KSEA 041310Z 14005KT 1/2SM R16L/1400V6000FT FG BKN001 BKN038 03/02 A3052 RMK AO2 VIS NW 1/4 T00280022 (LC)","FM-16","7",,,,,,,,,,,,,,,,,,,,,,,,,,,,"2007-05-17"
"72793024233","2017-12-04T05:53:00","FM-15","7",,,,,,,,,,,,,,,,,,,,,,,,,,,,,,,,,,,,,,"30.53","34","35","0.00","FG:2 |FG |",,,"96","30.55","BKN:07 1","30.06","0.25","35","000",,"0",,,,,,,,,,,,,,,,,,,,,,,,,,,,,,,,,,,,,"MET11912/04/17 05:53:02 METAR KSEA 041353Z 00000KT 1/4SM R16L/1400V3000FT FG BKN001 02/01 A3053 RMK AO2 SLP347 T00170011 (RT)","FM-15","7",,,,,,,,,,,,,,,,,,,,,,,,,,,,"2007-05-17"
"72793024233","2017-12-04T06:15:00","FM-16","7",,,,,,,,,,,,,,,,,,,,,,,,,,,,,,,,,,,,,,"30.52","33","34",,"BR:1 ||",,,"97",,"BKN:07 2 BKN:07 6 BKN:07 38","30.05","0.75","34","000",,"0",,,,,,,,,,,,,,,,,,,,,,,,,,,,,,,,,,,,,"MET12212/04/17 06:15:02 SPECI KSEA 041415Z 00000KT 3/4SM R16L/P6000FT BR BKN002 BKN006 BKN038 01/01 A3052 RMK AO2 T00110006 (RT)","FM-16","7",,,,,,,,,,,,,,,,,,,,,,,,,,,,"2007-05-17"
"72793024233","2017-12-04T06:35:00","FM-16","7",,,,,,,,,,,,,,,,,,,,,,,,,,,,,,,,,,,,,,"30.53","34","34",,"BR:1 ||",,,"100",,"X:10 0 SCT:04 2 BKN:07 5","30.06","0.75","34","000",,"0",,,,,,,,,,,,,,,,,,,,,,,,,,,,,,,,,,,,,"MET13212/04/17 06:35:02 SPECI KSEA 041435Z 00000KT 3/4SM R16L/P6000FT BR FEW000 SCT002 BKN005 01/01 A3053 RMK AO2 FG FEW000 T00110011 (RT)","FM-16","7",,,,,,,,,,,,,,,,,,,,,,,,,,,,"2007-05-17"
"72793024233","2017-12-04T06:51:00","FM-16","6",,,,,,,,,,,,,,,,,,,,,,,,,,,,,,,,,,,,,,"30.54","34","36",,,,,"93",,"FEW:02 2 SCT:04 8 BKN:07 34","30.07","2.00","35","000",,"0",,,,,,,,,,,,,,,,,,,,,,,,,,,,,,,,,,,,,"MET10212/04/17 06:51:02 SPECI KSEA 041451Z 00000KT 2SM BR FEW002 SCT008 BKN034 02/01 A3054 RMK AO2 FIBI (RT)","FM-16","6",,,,,,,,,,,,,,,,,,,,,,,,,,,,"2007-05-17"
"72793024233","2017-12-04T06:53:00","FM-15","7",,,,,,,,,,,,,,,,,,,,,,,,,,,,,,,,,,,,,,"30.54","34","36","0.00",,"-0.01","3","93","30.56","FEW:02 2 SCT:04 8 BKN:07 34","30.07","2.00","35","000",,"0",,,,,,,,,,,,,,,,,,,,,,,,,,,,,,,,,,,,,"MET12012/04/17 06:53:02 METAR KSEA 041453Z 00000KT 2SM BR FEW002 SCT008 BKN034 02/01 A3054 RMK AO2 SLP350 T00220011 53005 (RT)","FM-15","7",,,,,,,,,,,,,,,,,,,,,,,,,,,,"2007-05-17"
"72793024233","2017-12-04T07:05:00","FM-16","7",,,,,,,,,,,,,,,,,,,,,,,,,,,,,,,,,,,,,,"30.54","34","35",,,,,"96",,"FEW:02 2 SCT:04 8 BKN:07 34","30.07","3.00","35","000",,"0",,,,,,,,,,,,,,,,,,,,,,,,,,,,,,,,,,,,,"MET10712/04/17 07:05:02 SPECI KSEA 041505Z 00000KT 3SM BR FEW002 SCT008 BKN034 02/01 A3054 RMK AO2 T00170011 (RT)","FM-16","7",,,,,,,,,,,,,,,,,,,,,,,,,,,,"2007-05-17"
"72793024233","2017-12-04T07:51:00","FM-16","6",,,,,,,,,,,,,,,,,,,,,,,,,,,,,,,,,,,,,,"30.54","34","36",,,,,"93",,"SCT:04 1 SCT:04 8 BKN:07 34","30.07","1.00","35","110",,"7",,,,,,,,,,,,,,,,,,,,,,,,,,,,,,,,,,,,,"MET13112/04/17 07:51:02 SPECI KSEA 041551Z 11006KT 1SM R16L/0700V4500FT BR SCT001 SCT008 BKN034 02/01 A3054 RMK AO2 VIS N-E 1/2 FIBI (RT)","FM-16","6",,,,,,,,,,,,,,,,,,,,,,,,,,,,"2007-05-17"
"72793024233","2017-12-04T07:53:00","FM-15","7",,,,,,,,,,,,,,,,,,,,,,,,,,,,,,,,,,,,,,"30.54","34","35","0.00",,,,"96","30.57","SCT:04 1 SCT:04 8 BKN:07 34","30.07","1.00","35","110",,"6",,,,,,,,,,,,,,,,,,,,,,,,,,,,,,,,,,,,,"MET14312/04/17 07:53:02 METAR KSEA 041553Z 11005KT 1SM R16L/0700V5500FT BR SCT001 SCT008 BKN034 02/01 A3054 RMK AO2 SLP352 VIS N-E 1/2 T00170011 (RT)","FM-15","7",,,,,,,,,,,,,,,,,,,,,,,,,,,,"2007-05-17"
"72793024233","2017-12-04T07:56:00","FM-16","7",,,,,,,,,,,,,,,,,,,,,,,,,,,,,,,,,,,,,,"30.54","34","34",,,,,"100",,"SCT:04 1 SCT:04 8 BKN:07 34","30.07","1.00","34","110",,"6",,,,,,,,,,,,,,,,,,,,,,,,,,,,,,,,,,,,,"MET13712/04/17 07:56:02 SPECI KSEA 041556Z 11005KT 1SM R16L/0700VP6000FT BR SCT001 SCT008 BKN034 01/01 A3054 RMK AO2 T00110011 VIS N-E 1/2 (RT)","FM-16","7",,,,,,,,,,,,,,,,,,,,,,,,,,,,"2007-05-17"
"72793024233","2017-12-04T08:01:00","FM-16","7",,,,,,,,,,,,,,,,,,,,,,,,,,,,,,,,,,,,,,"30.55","34","34",,"|FG |",,,"100",,"SCT:04 1 BKN:07 8 BKN:07 34","30.08","0.50","34","080",,"5",,,,,,,,,,,,,,,,,,,,,,,,,,,,,,,,,,,,,"MET12712/04/17 08:01:02 SPECI KSEA 041601Z 08004KT 1/2SM R16L/2000VP6000FT FG SCT001 BKN008 BKN034 01/01 A3055 RMK AO2 T00110011 (RT)","FM-16","7",,,,,,,,,,,,,,,,,,,,,,,,,,,,"2007-05-17"
"72793024233","2017-12-04T08:31:00","FM-16","7",,,,,,,,,,,,,,,,,,,,,,,,,,,,,,,,,,,,,,"30.55","34","35",,,,,"96",,"SCT:04 4 BKN:07 10 BKN:07 34","30.08","0.75","35","120",,"7",,,,,,,,,,,,,,,,,,,,,,,,,,,,,,,,,,,,,"MET12712/04/17 08:31:02 SPECI KSEA 041631Z 12006KT 3/4SM R16L/6000VP6000FT BR SCT004 BKN010 BKN034 02/01 A3055 RMK AO2 T00170011 (RT)","FM-16","7",,,,,,,,,,,,,,,,,,,,,,,,,,,,"2007-05-17"
"72793024233","2017-12-04T08:51:00","FM-16","6",,,,,,,,,,,,,,,,,,,,,,,,,,,,,,,,,,,,,,"30.57","36","36",,,,,"100",,"SCT:04 4 BKN:07 10 BKN:07 38","30.10","1.00","36","090",,"5",,,,,,,,,,,,,,,,,,,,,,,,,,,,,,,,,,,,,"MET12012/04/17 08:51:02 SPECI KSEA 041651Z 09004KT 1SM R16L/2200VP6000FT BR SCT004 BKN010 BKN038 02/02 A3057 RMK AO2 FIBI (RT)","FM-16","6",,,,,,,,,,,,,,,,,,,,,,,,,,,,"2007-05-17"
"72793024233","2017-12-04T08:53:00","FM-15","7",,,,,,,,,,,,,,,,,,,,,,,,,,,,,,,,,,,,,,"30.57","35","35","0.00",,,,"100","30.59","SCT:04 4 BKN:07 10 BKN:07 38","30.10","0.75","35","090",,"5",,,,,,,,,,,,,,,,,,,,,,,,,,,,,,,,,,,,,"MET13412/04/17 08:53:02 METAR KSEA 041653Z 09004KT 3/4SM R16L/1200VP6000FT BR SCT004 BKN010 BKN038 02/02 A3057 RMK AO2 SLP360 T00170017 (RT)","FM-15","7",,,,,,,,,,,,,,,,,,,,,,,,,,,,"2007-05-17"
"72793024233","2017-12-04T09:11:00","FM-16","7",,,,,,,,,,,,,,,,,,,,,,,,,,,,,,,,,,,,,,"30.58","35","36",,"|FG |",,,"97",,"X:10 0 SCT:04 2 BKN:07 8","30.11","0.50","36","060",,"3",,,,,,,,,,,,,,,,,,,,,,,,,,,,,,,,,,,,,"MET13612/04/17 09:11:02 SPECI KSEA 041711Z 06003KT 1/2SM R16L/0700V1800FT FG FEW000 SCT002 BKN008 02/02 A3058 RMK AO2 FG FEW000 T00220017 (RT)","FM-16","7",,,,,,,,,,,,,,,,,,,,,,,,,,,,"2007-05-17"
"72793024233","2017-12-04T09:32:00","FM-16","7",,,,,,,,,,,,,,,,,,,,,,,,,,,,,,,,,,,,,,"30.58","36","38",,"FG:2 |FG |",,,"93",,"X:10 0 BKN:07 8 BKN:07 200","30.11","0.50","37","000",,"0",,,,,,,,,,,,,,,,,,,,,,,,,,,,,,,,,,,,,"MET13712/04/17 09:32:02 SPECI KSEA 041732Z 00000KT 1/2SM R16L/1000VP6000FT FG SCT000 BKN008 BKN200 03/02 A3058 RMK AO2 FG SCT000 T00330022 (RT)","FM-16","7",,,,,,,,,,,,,,,,,,,,,,,,,,,,"2007-05-17"
"72793024233","2017-12-04T09:51:00","FM-16","6",,,,,,,,,,,,,,,,,,,,,,,,,,,,,,,,,,,,,,"30.58","36","37",,"FG:2 |FG |",,,"93",,"X:10 0 BKN:07 3 BKN:07 200","30.11","0.25","37","140",,"6",,,,,,,,,,,,,,,,,,,,,,,,,,,,,,,,,,,,,"MET13212/04/17 09:51:02 SPECI KSEA 041751Z 14005KT 1/4SM R16L/2000VP6000FT FG SCT000 BKN003 BKN200 03/02 A3058 RMK AO2 FG SCT000 FIBI (RT)","FM-16","6",,,,,,,,,,,,,,,,,,,,,,,,,,,,"2007-05-17"
"72793024233","2017-12-04T09:53:00","FM-15","7",,,,,,,,,,,,,,,,,,,,,,,,,,,,,,,,,,,,,,"30.58","35","37","0.00","FG:2 |FG |","-0.04","3","93","30.61","X:10 0 BKN:07 3 BKN:07 200","30.11","0.25","36","130",,"6",,,,,,,,,,,,,,,,,,,,,,,,,,,,,,,,,,,,,"MET16212/04/17 09:53:02 METAR KSEA 041753Z 13005KT 1/4SM R16L/2000VP6000FT FG SCT000 BKN003 BKN200 03/02 A3058 RMK AO2 SLP366 FG SCT000 T00280017 10033 20011 53015 (RT)","FM-15","7",,,,,,,,,,,,,,,,,,,,,,,,,,,,"2007-05-17"
"72793024233","2017-12-04T10:00:00","FM-12","4",,,,,,,,,,,,,,,,,,,,,,,,,,,,,,,,,,,,,,,"35","37",,"||FG","-0.04","3","93","30.61","2","30.09","0.25","36","130",,"6",,,,,,,,,,,,,,,,,,,,,,,,,,,,,,,,,,,,,"SYN08672793 31104 61305 10028 20017 30190 40366 53015 741// 91753 333 10050 20011 555 90418=","FM-12","4",,,,,,,,,,,,,,,,,,,,,,,,,,,,"2007-05-17"
"72793024233","2017-12-04T10:31:00","FM-16","7",,,,,,,,,,,,,,,,,,,,,,,,,,,,,,,,,,,,,,"30.58","36","38",,,,,"93",,"X:10 0 BKN:07 8 BKN:07 38","30.11","1.00","37","080",,"5",,,,,,,,,,,,,,,,,,,,,,,,,,,,,,,,,,,,,"MET13012/04/17 10:31:02 SPECI KSEA 041831Z 08004KT 1SM R16L/P6000FT BR FEW000 BKN008 BKN038 03/02 A3058 RMK AO2 FG FEW000 T00330022 (RT)","FM-16","7",,,,,,,,,,,,,,,,,,,,,,,,,,,,"2007-05-17"
"72793024233","2017-12-04T10:51:00","FM-16","6",,,,,,,,,,,,,,,,,,,,,,,,,,,,,,,,,,,,,,"30.58","37","39",,,,,"93",,"X:10 0 BKN:07 11 BKN:07 38","30.11","1.50","38","070",,"5",,,,,,,,,,,,,,,,,,,,,,,,,,,,,,,,,,,,,"MET11612/04/17 10:51:02 SPECI KSEA 041851Z 07004KT 1 1/2SM BR FEW000 BKN011 BKN038 04/03 A3058 RMK AO2 FG FEW000 FIBI (RT)","FM-16","6",,,,,,,,,,,,,,,,,,,,,,,,,,,,"2007-05-17"
"72793024233","2017-12-04T10:53:00","FM-15","7",,,,,,,,,,,,,,,,,,,,,,,,,,,,,,,,,,,,,,"30.58","37","39","0.00",,,,"93","30.61","X:10 0 BKN:07 11 BKN:07 38","30.11","1.50","38","080",,"3",,,,,,,,,,,,,,,,,,,,,,,,,,,,,,,,,,,,,"MET12812/04/17 10:53:02 METAR KSEA 041853Z 08003KT 1 1/2SM BR FEW000 BKN011 BKN038 04/03 A3058 RMK AO2 SLP366 FG FEW000 T00390028 (RT)","FM-15","7",,,,,,,,,,,,,,,,,,,,,,,,,,,,"2007-05-17"
"72793024233","2017-12-04T11:01:00","FM-16","7",,,,,,,,,,,,,,,,,,,,,,,,,,,,,,,,,,,,,,"30.58","37","39",,"BR:1 ||",,,"93",,"SCT:04 6 BKN:07 38 BKN:07 180","30.11","3.00","38","000",,"0",,,,,,,,,,,,,,,,,,,,,,,,,,,,,,,,,,,,,"MET10712/04/17 11:01:02 SPECI KSEA 041901Z 00000KT 3SM BR SCT006 BKN038 BKN180 04/03 A3058 RMK AO2 T00390028 (RT)","FM-16","7",,,,,,,,,,,,,,,,,,,,,,,,,,,,"2007-05-17"
"72793024233","2017-12-04T11:53:00","FM-15","7",,,,,,,,,,,,,,,,,,,,,,,,,,,,,,,,,,,,,,"30.57","37","41","0.00","BC:3 FG:2 |FG |",,,"86","30.60","SCT:04 2 SCT:04 40 BKN:07 170","30.10","7.00","39","010",,"3",,,,,,,,,,,,,,,,,,,,,,,,,,,,,,,,,,,,,"MET11612/04/17 11:53:02 METAR KSEA 041953Z 01003KT 7SM BCFG SCT002 SCT040 BKN170 05/03 A3057 RMK AO2 SLP363 T00500028 (RT)","FM-15","7",,,,,,,,,,,,,,,,,,,,,,,,,,,,"2007-05-17"
"72793024233","2017-12-04T12:53:00","FM-15","7",,,,,,,,,,,,,,,,,,,,,,,,,,,,,,,,,,,,,,"30.56","38","44","0.00",,"+0.02","8","79","30.59","FEW:02 5 SCT:04 10 BKN:07 220","30.09","9.00","41","310",,"3",,,,,,,,,,,,,,,,,,,,,,,,,,,,,,,,,,,,,"MET11712/04/17 12:53:02 METAR KSEA 042053Z 31003KT 9SM FEW005 SCT010 BKN220 07/03 A3056 RMK AO2 SLP359 T00670033 58006 (RT)","FM-15","7",,,,,,,,,,,,,,,,,,,,,,,,,,,,"2007-05-17"
"72793024233","2017-12-04T13:53:00","FM-15","7",,,,,,,,,,,,,,,,,,,,,,,,,,,,,,,,,,,,,,"30.57","38","43","0.00",,,,"82","30.60","FEW:02 6 SCT:04 12 BKN:07 220","30.10","10.00","41","320",,"7",,,,,,,,,,,,,,,,,,,,,,,,,,,,,,,,,,,,,"MET11212/04/17 13:53:02 METAR KSEA 042153Z 32006KT 10SM FEW006 SCT012 BKN220 06/03 A3057 RMK AO2 SLP361 T00610033 (RS)","FM-15","7",,,,,,,,,,,,,,,,,,,,,,,,,,,,"2007-05-17"
"72793024233","2017-12-04T14:53:00","FM-15","7",,,,,,,,,,,,,,,,,,,,,,,,,,,,,,,,,,,,,,"30.57","37","42","0.00",,,,"82","30.60","FEW:02 10 SCT:04 120 BKN:07 250","30.10","7.00","40","360",,"5",,,,,,,,,,,,,,,,,,,,,,,,,,,,,,,,,,,,,"MET11112/04/17 14:53:02 METAR KSEA 042253Z 36004KT 7SM FEW010 SCT120 BKN250 06/03 A3057 RMK AO2 SLP362 T00560028 (RS)","FM-15","7",,,,,,,,,,,,,,,,,,,,,,,,,,,,"2007-05-17"
"72793024233","2017-12-04T15:53:00","FM-15","7",,,,,,,,,,,,,,,,,,,,,,,,,,,,,,,,,,,,,,"30.57","38","41","0.00",,"-0.01","1","89","30.60","FEW:02 10 BKN:07 110 BKN:07 250","30.10","7.00","40","350",,"5",,,,,,,,,,,,,,,,,,,,,,,,,,,,,,,,,,,,,"MET12912/04/17 15:53:02 METAR KSEA 042353Z 35004KT 7SM FEW010 BKN110 BKN250 05/03 A3057 RMK AO2 SLP362 T00500033 10072 20028 51003 (RS)","FM-15","7",,,,,,,,,,,,,,,,,,,,,,,,,,,,"2007-05-17"
"72793024233","2017-12-04T16:00:00","FM-12","4",,,,,,,,,,,,,,,,,,,,,,,,,,,,,,,,,,,,,,,"38","41",,,"-0.01","1","89","30.60","15","30.08","6.84","40","350",,"5",,,,,,,,,,,,,,,,,,,,,,,,,,,,,,,,,,,,,"SYN08072793 32461 63504 10050 20033 30187 40362 51003 92353 333 10072 20022 555 90500=","FM-12","4",,,,,,,,,,,,,,,,,,,,,,,,,,,,"2007-05-17"
"72793024233","2017-12-04T16:53:00","FM-15","7",,,,,,,,,,,,,,,,,,,,,,,,,,,,,,,,,,,,,,"30.57","37","40","0.00",,,,"89","30.60","FEW:02 10 BKN:07 100","30.10","9.00","39","350",,"5",,,,,,,,,,,,,,,,,,,,,,,,,,,,,,,,,,,,,"MET09912/04/17 16:53:01 METAR KSEA 050053Z 35004KT 9SM FEW010 BKN100 04/03 A3057 RMK AO2 SLP362 T00440028","FM-15","7",,,,,,,,,,,,,,,,,,,,,,,,,,,,"2007-05-17"
"72793024233","2017-12-04T17:53:00","FM-15","7",,,,,,,,,,,,,,,,,,,,,,,,,,,,,,,,,,,,,,"30.57","36","39","0.00",,,,"89","30.59","SCT:04 100","30.10","9.00","38","360",,"6",,,,,,,,,,,,,,,,,,,,,,,,,,,,,,,,,,,,,"MET09212/04/17 17:53:01 METAR KSEA 050153Z 36005KT 9SM SCT100 04/02 A3057 RMK AO2 SLP360 T00390022","FM-15","7",,,,,,,,,,,,,,,,,,,,,,,,,,,,"2007-05-17"
"72793024233","2017-12-04T18:53:00","FM-15","7",,,,,,,,,,,,,,,,,,,,,,,,,,,,,,,,,,,,,,"30.55","36","38","0.00",,"+0.02","8","93","30.58","FEW:02 110 SCT:04 250","30.08","7.00","37","360",,"7",,,,,,,,,,,,,,,,,,,,,,,,,,,,,,,,,,,,,"MET10512/04/17 18:53:02 METAR KSEA 050253Z 36006KT 7SM FEW110 SCT250 03/02 A3055 RMK AO2 SLP356 T00330022 58006","FM-15","7",,,,,,,,,,,,,,,,,,,,,,,,,,,,"2007-05-17"
"72793024233","2017-12-04T19:53:00","FM-15","7",,,,,,,,,,,,,,,,,,,,,,,,,,,,,,,,,,,,,,"30.56","37","39","0.00",,,,"93","30.59","FEW:02 110 BKN:07 250","30.09","7.00","38","020",,"8",,,,,,,,,,,,,,,,,,,,,,,,,,,,,,,,,,,,,"MET09912/04/17 19:53:02 METAR KSEA 050353Z 02007KT 7SM FEW110 BKN250 04/03 A3056 RMK AO2 SLP358 T00390028","FM-15","7",,,,,,,,,,,,,,,,,,,,,,,,,,,,"2007-05-17"
"72793024233","2017-12-04T20:21:00","FM-16","7",,,,,,,,,,,,,,,,,,,,,,,,,,,,,,,,,,,,,,"30.56","37","39",,,,,"93",,"SCT:04 4 BKN:07 250","30.09","7.00","38","040",,"9",,,,,,,,,,,,,,,,,,,,,,,,,,,,,,,,,,,,,"MET09212/04/17 20:21:02 SPECI KSEA 050421Z 04008KT 7SM SCT004 BKN250 04/03 A3056 RMK AO2 T00390028","FM-16","7",,,,,,,,,,,,,,,,,,,,,,,,,,,,"2007-05-17"
"72793024233","2017-12-04T20:38:00","FM-16","7",,,,,,,,,,,,,,,,,,,,,,,,,,,,,,,,,,,,,,"30.57","37","39",,,,,"93",,"BKN:07 4","30.10","7.00","38","020",,"8",,,,,,,,,,,,,,,,,,,,,,,,,,,,,,,,,,,,,"MET09712/04/17 20:38:02 SPECI KSEA 050438Z 02007KT 7SM BKN004 04/03 A3057 RMK AO2 CIG 003V008 T00390028","FM-16","7",,,,,,,,,,,,,,,,,,,,,,,,,,,,"2007-05-17"
"72793024233","2017-12-04T20:51:00","FM-16","6",,,,,,,,,,,,,,,,,,,,,,,,,,,,,,,,,,,,,,"30.56","37","39",,,,,"93",,"BKN:07 5","30.09","8.00","38","020",,"8",,,,,,,,,,,,,,,,,,,,,,,,,,,,,,,,,,,,,"MET08512/04/17 20:51:03 SPECI KSEA 050451Z 02007KT 8SM BKN005 04/03 A3056 RMK AO2 FIBI (RS)","FM-16","6",,,,,,,,,,,,,,,,,,,,,,,,,,,,"2007-05-17"
"72793024233","2017-12-04T20:53:00","FM-15","7",,,,,,,,,,,,,,,,,,,,,,,,,,,,,,,,,,,,,,"30.56","37","39","0.00",,,,"93","30.59","BKN:07 5","30.09","8.00","38","020",,"7",,,,,,,,,,,,,,,,,,,,,,,,,,,,,,,,,,,,,"MET09212/04/17 20:53:02 METAR KSEA 050453Z 02006KT 8SM BKN005 04/03 A3056 RMK AO2 SLP360 T00390028","FM-15","7",,,,,,,,,,,,,,,,,,,,,,,,,,,,"2007-05-17"
"72793024233","2017-12-04T21:28:00","FM-16","7",,,,,,,,,,,,,,,,,,,,,,,,,,,,,,,,,,,,,,"30.57","37","38",,,,,"97",,"SCT:04 5 BKN:07 250","30.10","7.00","38","010",,"8",,,,,,,,,,,,,,,,,,,,,,,,,,,,,,,,,,,,,"MET09212/04/17 21:28:02 SPECI KSEA 050528Z 01007KT 7SM SCT005 BKN250 03/03 A3057 RMK AO2 T00330028","FM-16","7",,,,,,,,,,,,,,,,,,,,,,,,,,,,"2007-05-17"
"72793024233","2017-12-04T21:53:00","FM-15","7",,,,,,,,,,,,,,,,,,,,,,,,,,,,,,,,,,,,,,"30.57","37","38","0.00",,"-0.02","3","97","30.60","FEW:02 6 BKN:07 250","30.10","7.00","38","010",,"8",,,,,,,,,,,,,,,,,,,,,,,,,,,,,,,,,,,,,"MET11712/04/17 21:53:02 METAR KSEA 050553Z 01007KT 7SM FEW006 BKN250 03/03 A3057 RMK AO2 SLP363 T00330028 10050 20028 53006","FM-15","7",,,,,,,,,,,,,,,,,,,,,,,,,,,,"2007-05-17"
"72793024233","2017-12-04T22:00:00","FM-12","4",,,,,,,,,,,,,,,,,,,,,,,,,,,,,,,,,,,,,,,"37","38",,,"-0.02","3","97","30.60","5","30.08","6.84","38","010",,"8",,,,,,,,,,,,,,,,,,,,,,,,,,,,,,,,,,,,,"SYN08072793 32261 60107 10033 20028 30187 40363 53006 90553 333 10050 20022 555 90506=","FM-12","4",,,,,,,,,,,,,,,,,,,,,,,,,,,,"2007-05-17"
"72793024233","2017-12-04T22:53:00","FM-15","7",,,,,,,,,,,,,,,,,,,,,,,,,,,,,,,,,,,,,,"30.58","35","37","0.00","BR:1 ||",,,"93","30.61","FEW:02 6 BKN:07 200","30.11","6.00","36","020",,"5",,,,,,,,,,,,,,,,,,,,,,,,,,,,,,,,,,,,,"MET10212/04/17 22:53:02 METAR KSEA 050653Z 02004KT 6SM BR FEW006 BKN200 03/02 A3058 RMK AO2 SLP365 T00280017","FM-15","7",,,,,,,,,,,,,,,,,,,,,,,,,,,,"2007-05-17"
"72793024233","2017-12-04T23:53:00","FM-15","7",,,,,,,,,,,,,,,,,,,,,,,,,,,,,,,,,,,,,,"30.59","35","37","0.00",,,,"93","30.62","FEW:02 5 BKN:07 200","30.11","8.00","36","020",,"7",,,,,,,,,,,,,,,,,,,,,,,,,,,,,,,,,,,,,"MET10912/04/17 23:53:02 METAR KSEA 050753Z 02006KT 8SM FEW005 BKN200 03/02 A3059 RMK AO2 SLP368 T00280017 400720011","FM-15","7",,,,,,,,,,,,,,,,,,,,,,,,,,,,"2007-05-17"
"72793024233","2017-12-04T23:59:00","SOD  ","6",,,,,,,,,,,,,,,"36","40","92","30.58","30.08","38","4.6","0","-1.7","25","45","34","040","13","0.00","0","0.0","040","10","FG BR",,,,,,,,,,,,,,,,,,,,,,,,,,,,,,,,,,,,,,,,,,,,,,,,,,,,,,,,"SOD75724 HR PRECIPITATION (IN): 0.00 SNOW DEPTH (IN):0     24 HR SNOWFALL (IN):0.0  WEATHER(CODE):12  24 HR MAX TEMP (F): 4524 HR MIN TEMP (F): 34AVERAGE STATION PRESSURE:30.080 MINIMUM SEA LEVEL PRESSURE:30.47 TIME OF OCCURRENCE:0007 PEAK WIND SPEED (MPH): 13 PEAK WIND DIR (DEG): 40 PEAK WIND TIME (LST):      FASTEST 2MIN SPEED (MPH): 10FASTEST 2MIN DIR (DEG): 40 FASTEST 2MIN TIME (LST):     AVERAGE WIND SPEED (MPH): 4.6 24 HR AVG TEMP (F): 40DEPART FROM NORMAL: -2  HEATING DEGREE DAYS: 25 COOLING DEGREE DAYS:  0 LATEST DAY MAX TEMP (0700-1900 LST):45  LATEST NIGHT MIN TEMP(1900-0800 LST):34 HOURLY INCREMENTAL PRECIPITATION VALUES (IN):.00 0.00 0.00 0.00 0.00 0.00 0.00 0.00 0.00 0.00 0.00 0.00 0.00 0.00 0.00 0.00 0.00 0.00 0.00 0.00 0.00 0.00 0.00 0.00","SOD  ","6",,,,,,,,,,,,,,,,,,,,,,,,,"0739","1619",,"2007-05-17"
"72793024233","2017-12-05T00:53:00","FM-15","7",,,,,,,,,,,,,,,,,,,,,,,,,,,,,,,,,,,,,,"30.59","34","35","0.00","BR:1 ||","-0.01","0","96","30.61","FEW:02 5 BKN:07 200","30.11","5.00","35","010",,"6",,,,,,,,,,,,,,,,,,,,,,,,,,,,,,,,,,,,,"MET11312/05/17 00:53:02 METAR KSEA 050853Z 01005KT 5SM BR FEW005 BKN200 02/01 A3059 RMK AO2 SLP367 T00170011 50004 (LC)","FM-15","7",,,,,,,,,,,,,,,,,,,,,,,,,,,,"2007-05-17"
"72793024233","2017-12-05T01:43:00","FM-16","7",,,,,,,,,,,,,,,,,,,,,,,,,,,,,,,,,,,,,,"30.59","34","35",,"BR:1 ||",,,"96",,"BKN:07 5 BKN:07 200","30.11","6.00","35","040",,"8",,,,,,,,,,,,,,,,,,,,,,,,,,,,,,,,,,,,,"MET10012/05/17 01:43:02 SPECI KSEA 050943Z 04007KT 6SM BR BKN005 BKN200 02/01 A3059 RMK AO2 T00170011 (LC)","FM-16","7",,,,,,,,,,,,,,,,,,,,,,,,,,,,"2007-05-17"
"72793024233","2017-12-05T01:53:00","FM-15","7",,,,,,,,,,,,,,,,,,,,,,,,,,,,,,,,,,,,,,"30.59","34","35","0.00","BR:1 ||",,,"96","30.62","BKN:07 5 BKN:07 200","30.11","5.00","35","050",,"9",,,,,,,,,,,,,,,,,,,,,,,,,,,,,,,,,,,,,"MET10712/05/17 01:53:02 METAR KSEA 050953Z 05008KT 5SM BR BKN005 BKN200 02/01 A3059 RMK AO2 SLP369 T00170011 (LC)","FM-15","7",,,,,,,,,,,,,,,,,,,,,,,,,,,,"2007-05-17"
"72793024233","2017-12-05T02:06:00","FM-16","7",,,,,,,,,,,,,,,,,,,,,,,,,,,,,,,,,,,,,,"30.60","34","35",,"FG:2 |FG |",,,"96",,"BKN:07 1","30.13","0.50","35","040",,"8",,,,,,,,,,,,,,,,,,,,,,,,,,,,,,,,,,,,,"MET11312/05/17 02:06:02 SPECI KSEA 051006Z 04007KT 1/2SM R16L/4000VP6000FT FG BKN001 02/01 A3060 RMK AO2 T00170011 (LC)","FM-16","7",,,,,,,,,,,,,,,,,,,,,,,,,,,,"2007-05-17"
"72793024233","2017-12-05T02:30:00","FM-16","7",,,,,,,,,,,,,,,,,,,,,,,,,,,,,,,,,,,,,,"30.60","35","35",,"FG:2 |FG |",,,"100",,"VV:09 1","30.13","0.25","35","030",,"8",,,,,,,,,,,,,,,,,,,,,,,,,,,,,,,,,,,,,"MET11112/05/17 02:30:02 SPECI KSEA 051030Z 03007KT 1/4SM R16L/1600V2200FT FG VV001 02/02 A3060 RMK AO2 T00170017 (LC)","FM-16","7",,,,,,,,,,,,,,,,,,,,,,,,,,,,"2007-05-17"
"72793024233","2017-12-05T02:53:00","FM-15","7",,,,,,,,,,,,,,,,,,,,,,,,,,,,,,,,,,,,,,"30.60","34","34","0.00","FG:2 |FG |",,,"100","30.63","VV:09 1","30.13","0.25","34","360",,"8",,,,,,,,,,,,,,,,,,,,,,,,,,,,,,,,,,,,,"MET11812/05/17 02:53:02 METAR KSEA 051053Z 36007KT 1/4SM R16L/1200V1600FT FG VV001 01/01 A3060 RMK AO2 SLP372 T00110011 (LC)","FM-15","7",,,,,,,,,,,,,,,,,,,,,,,,,,,,"2007-05-17"
"72793024233","2017-12-05T03:53:00","FM-15","7",,,,,,,,,,,,,,,,,,,,,,,,,,,,,,,,,,,,,,"30.60","34","34","0.00","FG:2 |FG |","-0.01","0","100","30.63","VV:09 1","30.13","0.25","34","030",,"8",,,,,,,,,,,,,,,,,,,,,,,,,,,,,,,,,,,,,"MET13612/05/17 03:53:02 METAR KSEA 051153Z 03007KT 1/4SM R16L/1000V1800FT FG VV001 01/01 A3060 RMK AO2 SLP371 T00110011 10033 20006 50004 (LC)","FM-15","7",,,,,,,,,,,,,,,,,,,,,,,,,,,,"2007-05-17"
"72793024233","2017-12-05T04:00:00","FM-12","4",,,,,,,,,,,,,,,,,,,,,,,,,,,,,,,,,,,,,,,"34","34",,"||FG","0.01","9","100","30.63","1","30.11","0.25","34","030",,"8",,,,,,,,,,,,,,,,,,,,,,,,,,,,,,,,,,,,,"SYN08672793 31004 90307 10011 20011 30197 40371 50004 741// 91153 333 10072 20006 555 90512=","FM-12","4",,,,,,,,,,,,,,,,,,,,,,,,,,,,"2007-05-17"
"72793024233","2017-12-05T04:02:00","FM-16","7",,,,,,,,,,,,,,,,,,,,,,,,,,,,,,,,,,,,,,"30.60","33","34",,"FG:2 |FG |",,,"97",,"VV:09 1","30.13","0.25","34","040",,"6",,,,,,,,,,,,,,,,,,,,,,,,,,,,,,,,,,,,,"MET11212/05/17 04:02:02 SPECI KSEA 051202Z 04005KT 1/4SM R16L/1600VP6000FT FG VV001 01/01 A3060 RMK AO2 T00110006 (LC)","FM-16","7",,,,,,,,,,,,,,,,,,,,,,,,,,,,"2007-05-17"
"72793024233","2017-12-05T04:26:00","FM-16","7",,,,,,,,,,,,,,,,,,,,,,,,,,,,,,,,,,,,,,"30.59","33","33",,"FG:2 |FG |",,,"100",,"VV:09 1","30.11","0.25","33","070",,"8",,,,,,,,,,,,,,,,,,,,,,,,,,,,,,,,,,,,,"MET11112/05/17 04:26:02 SPECI KSEA 051226Z 07007KT 1/4SM R16L/1200V1600FT FG VV001 01/01 A3059 RMK AO2 T00060006 (LC)","FM-16","7",,,,,,,,,,,,,,,,,,,,,,,,,,,,"2007-05-17"
"72793024233","2017-12-05T04:53:00","FM-15","7",,,,,,,,,,,,,,,,,,,,,,,,,,,,,,,,,,,,,,"30.60","33","33","0.00","FG:2 |FG |",,,"100","30.63","VV:09 1","30.13","0.25","33","050",,"6",,,,,,,,,,,,,,,,,,,,,,,,,,,,,,,,,,,,,"MET11812/05/17 04:53:02 METAR KSEA 051253Z 05005KT 1/4SM R16L/1000V1200FT FG VV001 01/01 A3060 RMK AO2 SLP371 T00060006 (LC)","FM-15","7",,,,,,,,,,,,,,,,,,,,,,,,,,,,"2007-05-17"
"72793024233","2017-12-05T05:30:00","FM-16","7",,,,,,,,,,,,,,,,,,,,,,,,,,,,,,,,,,,,,,"30.60","34","34",,"FG:2 |FG |",,,"100",,"VV:09 1","30.13","0.00","34","070",,"5",,,,,,,,,,,,,,,,,,,,,,,,,,,,,,,,,,,,,"MET12112/05/17 05:30:02 SPECI KSEA 051330Z 07004KT 0SM R16L/1000V1800FT FG VV001 01/01 A3060 RMK AO2 SFC VIS 1/8 T00110011 (LC)","FM-16","7",,,,,,,,,,,,,,,,,,,,,,,,,,,,"2007-05-17"
"72793024233","2017-12-05T05:53:00","FM-15","7",,,,,,,,,,,,,,,,,,,,,,,,,,,,,,,,,,,,,,"30.60","33","34","0.00","FG:2 |FG |",,,"97","30.63","VV:09 1","30.13","0.00","34","060",,"5",,,,,,,,,,,,,,,,,,,,,,,,,,,,,,,,,,,,,"MET12812/05/17 05:53:02 METAR KSEA 051353Z 06004KT 0SM R16L/1000V1600FT FG VV001 01/01 A3060 RMK AO2 SFC VIS 1/4 SLP371 T00110006 (JC)","FM-15","7",,,,,,,,,,,,,,,,,,,,,,,,,,,,"2007-05-17"
"72793024233","2017-12-05T06:13:00","FM-16","7",,,,,,,,,,,,,,,,,,,,,,,,,,,,,,,,,,,,,,"30.60","33","33",,"FG:2 |FG |",,,"100",,"VV:09 1","30.13","0.25","33","060",,"6",,,,,,,,,,,,,,,,,,,,,,,,,,,,,,,,,,,,,"MET11112/05/17 06:13:02 SPECI KSEA 051413Z 06005KT 1/4SM R16L/1000V1600FT FG VV001 01/01 A3060 RMK AO2 T00060006 (JC)","FM-16","7",,,,,,,,,,,,,,,,,,,,,,,,,,,,"2007-05-17"
"72793024233","2017-12-05T06:25:00","FM-16","7",,,,,,,,,,,,,,,,,,,,,,,,,,,,,,,,,,,,,,"30.60","33","33",,"FG:2 |FG |",,,"100",,"VV:09 1","30.13","0.25","33","050",,"7",,,,,,,,,,,,,,,,,,,,,,,,,,,,,,,,,,,,,"MET11112/05/17 06:25:02 SPECI KSEA 051425Z 05006KT 1/4SM R16L/1000V2600FT FG VV001 01/01 A3060 RMK AO2 T00060006 (JC)","FM-16","7",,,,,,,,,,,,,,,,,,,,,,,,,,,,"2007-05-17"
"72793024233","2017-12-05T06:35:00","FM-16","7",,,,,,,,,,,,,,,,,,,,,,,,,,,,,,,,,,,,,,"30.60","33","33",,"FG:2 |FG |",,,"100",,"VV:09 1","30.13","0.25","33","040",,"7",,,,,,,,,,,,,,,,,,,,,,,,,,,,,,,,,,,,,"MET11112/05/17 06:35:02 SPECI KSEA 051435Z 04006KT 1/4SM R16L/1000V1800FT FG VV001 01/01 A3060 RMK AO2 T00060006 (JC)","FM-16","7",,,,,,,,,,,,,,,,,,,,,,,,,,,,"2007-05-17"
"72793024233","2017-12-05T06:44:00","FM-16","7",,,,,,,,,,,,,,,,,,,,,,,,,,,,,,,,,,,,,,"30.60","33","33",,"FG:2 |FG |",,,"100",,"VV:09 1","30.13","0.25","33","040",,"7",,,,,,,,,,,,,,,,,,,,,,,,,,,,,,,,,,,,,"MET11112/05/17 06:44:02 SPECI KSEA 051444Z 04006KT 1/4SM R16L/1400V3500FT FG VV001 01/01 A3060 RMK AO2 T00060006 (JC)","FM-16","7",,,,,,,,,,,,,,,,,,,,,,,,,,,,"2007-05-17"
"72793024233","2017-12-05T06:53:00","FM-15","7",,,,,,,,,,,,,,,,,,,,,,,,,,,,,,,,,,,,,,"30.60","33","33","0.00","FG:2 |FG |","+0.00","5","100","30.63","VV:09 1","30.13","0.25","33","040",,"8",,,,,,,,,,,,,,,,,,,,,,,,,,,,,,,,,,,,,"MET12412/05/17 06:53:02 METAR KSEA 051453Z 04007KT 1/4SM R16L/1400V2800FT FG VV001 01/01 A3060 RMK AO2 SLP373 T00060006 55000 (JC)","FM-15","7",,,,,,,,,,,,,,,,,,,,,,,,,,,,"2007-05-17"
"72793024233","2017-12-05T07:08:00","FM-16","7",,,,,,,,,,,,,,,,,,,,,,,,,,,,,,,,,,,,,,"30.60","32","33",,"FG:2 |FG |",,,"96",,"VV:09 1","30.13","0.25","33","030",,"7",,,,,,,,,,,,,,,,,,,,,,,,,,,,,,,,,,,,,"MET11112/05/17 07:08:02 SPECI KSEA 051508Z 03006KT 1/4SM R16L/1000V2000FT FG VV001 01/00 A3060 RMK AO2 T00060000 (JC)","FM-16","7",,,,,,,,,,,,,,,,,,,,,,,,,,,,"2007-05-17"
"72793024233","2017-12-05T07:30:00","FM-16","7",,,,,,,,,,,,,,,,,,,,,,,,,,,,,,,,,,,,,,"30.60","32","33",,"FG:2 |FG |",,,"96",,"VV:09 1","30.13","0.25","33","010",,"6",,,,,,,,,,,,,,,,,,,,,,,,,,,,,,,,,,,,,"MET11112/05/17 07:30:02 SPECI KSEA 051530Z 01005KT 1/4SM R16L/1200V3500FT FG VV001 01/00 A3060 RMK AO2 T00060000 (JC)","FM-16","7",,,,,,,,,,,,,,,,,,,,,,,,,,,,"2007-05-17"
"72793024233","2017-12-05T07:53:00","FM-15","7",,,,,,,,,,,,,,,,,,,,,,,,,,,,,,,,,,,,,,"30.61","32","33","0.00","FG:2 |FG |",,,"96","30.64","BKN:07 1 OVC:08 6","30.14","0.25","33","030",,"8",,,,,,,,,,,,,,,,,,,,,,,,,,,,,,,,,,,,,"MET13412/05/17 07:53:02 METAR KSEA 051553Z 03007KT 1/4SM R16L/P6000FT FG BKN001 OVC006 01/00 A3061 RMK AO2 SFC VIS 1/2 SLP375 T00060000 (JC)","FM-15","7",,,,,,,,,,,,,,,,,,,,,,,,,,,,"2007-05-17"
"72793024233","2017-12-05T08:18:00","FM-16","7",,,,,,,,,,,,,,,,,,,,,,,,,,,,,,,,,,,,,,"30.61","33","34",,"BR:1 ||",,,"97",,"SCT:04 1 BKN:07 250","30.14","2.00","34","030",,"8",,,,,,,,,,,,,,,,,,,,,,,,,,,,,,,,,,,,,"MET11012/05/17 08:18:02 SPECI KSEA 051618Z 03007KT 2SM BR SCT001 BKN250 01/01 A3061 RMK AO2 SFC VIS 3 T00110006 (JC)","FM-16","7",,,,,,,,,,,,,,,,,,,,,,,,,,,,"2007-05-17"
"72793024233","2017-12-05T08:26:00","FM-16","7",,,,,,,,,,,,,,,,,,,,,,,,,,,,,,,,,,,,,,"30.61","33","34",,,,,"97",,"FEW:02 1 BKN:07 250","30.14","10.00","34","030",,"9",,,,,,,,,,,,,,,,,,,,,,,,,,,,,,,,,,,,,"MET09812/05/17 08:26:02 SPECI KSEA 051626Z 03008KT 10SM FEW001 BKN250 01/01 A3061 RMK AO2 T00110006 (JC)","FM-16","7",,,,,,,,,,,,,,,,,,,,,,,,,,,,"2007-05-17"
"72793024233","2017-12-05T08:53:00","FM-15","7",,,,,,,,,,,,,,,,,,,,,,,,,,,,,,,,,,,,,,"30.62","33","35","0.00",,,,"93","30.65","FEW:02 4 SCT:04 250","30.14","10.00","34","010",,"9",,,,,,,,,,,,,,,,,,,,,,,,,,,,,,,,,,,,,"MET10512/05/17 08:53:02 METAR KSEA 051653Z 01008KT 10SM FEW004 SCT250 02/01 A3062 RMK AO2 SLP378 T00170006 (JC)","FM-15","7",,,,,,,,,,,,,,,,,,,,,,,,,,,,"2007-05-17"
"72793024233","2017-12-05T09:53:00","FM-15","7",,,,,,,,,,,,,,,,,,,,,,,,,,,,,,,,,,,,,,"30.63","34","38","0.00",,"-0.03","3","86","30.66","FEW:02 8 FEW:02 250","30.16","10.00","36","020",,"9",,,,,,,,,,,,,,,,,,,,,,,,,,,,,,,,,,,,,"MET12312/05/17 09:53:02 METAR KSEA 051753Z 02008KT 10SM FEW008 FEW250 03/01 A3063 RMK AO2 SLP381 T00330011 10033 20006 53009 (JC)","FM-15","7",,,,,,,,,,,,,,,,,,,,,,,,,,,,"2007-05-17"
"72793024233","2017-12-05T10:00:00","FM-12","4",,,,,,,,,,,,,,,,,,,,,,,,,,,,,,,,,,,,,,,"34","38",,,"-0.03","3","86","30.66","8","30.14","9.94","36","020",,"9",,,,,,,,,,,,,,,,,,,,,,,,,,,,,,,,,,,,,"SYN08072793 32366 20208 10033 20011 30207 40381 53009 91753 333 10033 20006 555 90518=","FM-12","4",,,,,,,,,,,,,,,,,,,,,,,,,,,,"2007-05-17"
"72793024233","2017-12-05T10:53:00","FM-15","7",,,,,,,,,,,,,,,,,,,,,,,,,,,,,,,,,,,,,,"30.64","34","40","0.00",,,,"79","30.66","FEW:02 12 FEW:02 250","30.16","10.00","37","360",,"11",,,,,,,,,,,,,,,,,,,,,,,,,,,,,,,,,,,,,"MET10512/05/17 10:53:02 METAR KSEA 051853Z 36010KT 10SM FEW012 FEW250 04/01 A3064 RMK AO2 SLP384 T00440011 (JC)","FM-15","7",,,,,,,,,,,,,,,,,,,,,,,,,,,,"2007-05-17"
"72793024233","2017-12-05T11:53:00","FM-15","7",,,,,,,,,,,,,,,,,,,,,,,,,,,,,,,,,,,,,,"30.62","32","41","0.00",,,,"70","30.65","FEW:02 250","30.14","10.00","37","010",,"15",,,,,,,,,,,,,,,,,,,,,,,,,,,,,,,,,,,,,"MET09812/05/17 11:53:02 METAR KSEA 051953Z 01013KT 10SM FEW250 05/00 A3062 RMK AO2 SLP380 T00500000 (JC)","FM-15","7",,,,,,,,,,,,,,,,,,,,,,,,,,,,"2007-05-17"
"72793024233","2017-12-05T12:53:00","FM-15","7",,,,,,,,,,,,,,,,,,,,,,,,,,,,,,,,,,,,,,"30.61","33","42","0.00",,"+0.01","8","71","30.64","FEW:02 250","30.14","10.00","38","010",,"14",,,,,,,,,,,,,,,,,,,,,,,,,,,,,,,,,,,,,"MET10412/05/17 12:53:02 METAR KSEA 052053Z 01012KT 10SM FEW250 06/01 A3061 RMK AO2 SLP376 T00560006 58005 (JC)","FM-15","7",,,,,,,,,,,,,,,,,,,,,,,,,,,,"2007-05-17"
"72793024233","2017-12-05T13:53:00","FM-15","7",,,,,,,,,,,,,,,,,,,,,,,,,,,,,,,,,,,,,,"30.60","33","44","0.00",,,,"65","30.63","CLR:00","30.13","10.00","39","010",,"11",,,,,,,,,,,,,,,,,,,,,,,,,,,,,,,,,,,,,"MET09512/05/17 13:53:02 METAR KSEA 052153Z 01010KT 10SM CLR 07/01 A3060 RMK AO2 SLP372 T00670006 (RS)","FM-15","7",,,,,,,,,,,,,,,,,,,,,,,,,,,,"2007-05-17"
"72793024233","2017-12-05T14:53:00","FM-15","7",,,,,,,,,,,,,,,,,,,,,,,,,,,,,,,,,,,,,,"30.60","33","44","0.00",,,,"65","30.63","CLR:00","30.13","10.00","39","020",,"15",,,,,,,,,,,,,,,,,,,,,,,,,,,,,,,,,,,,,"MET09512/05/17 14:53:02 METAR KSEA 052253Z 02013KT 10SM CLR 07/01 A3060 RMK AO2 SLP373 T00670006 (RS)","FM-15","7",,,,,,,,,,,,,,,,,,,,,,,,,,,,"2007-05-17"
"72793024233","2017-12-05T15:53:00","FM-15","7",,,,,,,,,,,,,,,,,,,,,,,,,,,,,,,,,,,,,,"30.59","34","43","0.00",,"+0.02","8","71","30.62","CLR:00","30.11","10.00","39","020",,"11",,,,,,,,,,,,,,,,,,,,,,,,,,,,,,,,,,,,,"MET11312/05/17 15:53:02 METAR KSEA 052353Z 02010KT 10SM CLR 06/01 A3059 RMK AO2 SLP369 T00610011 10072 20033 58007 (RS)","FM-15","7",,,,,,,,,,,,,,,,,,,,,,,,,,,,"2007-05-17"
"72793024233","2017-12-05T16:00:00","FM-12","4",,,,,,,,,,,,,,,,,,,,,,,,,,,,,,,,,,,,,,,"34","43",,,"+0.02","8","71","30.62",,"30.10","9.94","39","020",,"11",,,,,,,,,,,,,,,,,,,,,,,,,,,,,,,,,,,,,"SYN08072793 32966 00210 10061 20011 30193 40369 58007 92353 333 10072 20006 555 90600=","FM-12","4",,,,,,,,,,,,,,,,,,,,,,,,,,,,"2007-05-17"
"72793024233","2017-12-05T16:53:00","FM-15","7",,,,,,,,,,,,,,,,,,,,,,,,,,,,,,,,,,,,,,"30.59","33","40","0.00",,,,"77","30.62","CLR:00","30.11","10.00","37","360",,"10",,,,,,,,,,,,,,,,,,,,,,,,,,,,,,,,,,,,,"MET09012/05/17 16:53:01 METAR KSEA 060053Z 36009KT 10SM CLR 04/01 A3059 RMK AO2 SLP368 T00440006","FM-15","7",,,,,,,,,,,,,,,,,,,,,,,,,,,,"2007-05-17"
"72793024233","2017-12-05T17:53:00","FM-15","7",,,,,,,,,,,,,,,,,,,,,,,,,,,,,,,,,,,,,,"30.59","33","40","0.00",,,,"77","30.62","CLR:00","30.11","10.00","37","010",,"20",,,,,,,,,,,,,,,,,,,,,,,,,,,,,,,,,,,,,"MET09012/05/17 17:53:02 METAR KSEA 060153Z 01017KT 10SM CLR 04/01 A3059 RMK AO2 SLP369 T00440006","FM-15","7",,,,,,,,,,,,,,,,,,,,,,,,,,,,"2007-05-17"
"72793024233","2017-12-05T18:53:00","FM-15","7",,,,,,,,,,,,,,,,,,,,,,,,,,,,,,,,,,,,,,"30.60","34","40","0.00",,"-0.01","3","79","30.63","CLR:00","30.13","10.00","37","010",,"17",,,,,,,,,,,,,,,,,,,,,,,,,,,,,,,,,,,,,"MET09612/05/17 18:53:02 METAR KSEA 060253Z 01015KT 10SM CLR 04/01 A3060 RMK AO2 SLP371 T00440011 53002","FM-15","7",,,,,,,,,,,,,,,,,,,,,,,,,,,,"2007-05-17"
"72793024233","2017-12-05T19:53:00","FM-15","7",,,,,,,,,,,,,,,,,,,,,,,,,,,,,,,,,,,,,,"30.60","34","39","0.00",,,,"82","30.63","CLR:00","30.13","10.00","37","010",,"14",,,,,,,,,,,,,,,,,,,,,,,,,,,,,,,,,,,,,"MET09012/05/17 19:53:02 METAR KSEA 060353Z 01012KT 10SM CLR 04/01 A3060 RMK AO2 SLP374 T00390011","FM-15","7",,,,,,,,,,,,,,,,,,,,,,,,,,,,"2007-05-17"
"72793024233","2017-12-05T20:53:00","FM-15","7",,,,,,,,,,,,,,,,,,,,,,,,,,,,,,,,,,,,,,"30.61","35","39","0.00",,,,"86","30.64","CLR:00","30.14","10.00","37","020",,"17",,,,,,,,,,,,,,,,,,,,,,,,,,,,,,,,,,,,,"MET09012/05/17 20:53:02 METAR KSEA 060453Z 02015KT 10SM CLR 04/02 A3061 RMK AO2 SLP375 T00390017","FM-15","7",,,,,,,,,,,,,,,,,,,,,,,,,,,,"2007-05-17"
"72793024233","2017-12-05T21:53:00","FM-15","7",,,,,,,,,,,,,,,,,,,,,,,,,,,,,,,,,,,,,,"30.61","35","38","0.00",,"-0.01","1","89","30.64","CLR:00","30.14","10.00","37","010",,"16",,,,,,,,,,,,,,,,,,,,,,,,,,,,,,,,,,,,,"MET10812/05/17 21:53:02 METAR KSEA 060553Z 01014KT 10SM CLR 03/02 A3061 RMK AO2 SLP375 T00330017 10061 20033 51004","FM-15","7",,,,,,,,,,,,,,,,,,,,,,,,,,,,"2007-05-17"
"72793024233","2017-12-05T22:00:00","FM-12","4",,,,,,,,,,,,,,,,,,,,,,,,,,,,,,,,,,,,,,,"35","38",,,"-0.01","1","89","30.64",,"30.12","9.94","37","010",,"16",,,,,,,,,,,,,,,,,,,,,,,,,,,,,,,,,,,,,"SYN08072793 32966 00114 10033 20017 30200 40375 51004 90553 333 10061 20006 555 90606=","FM-12","4",,,,,,,,,,,,,,,,,,,,,,,,,,,,"2007-05-17"
"72793024233","2017-12-05T22:53:00","FM-15","7",,,,,,,,,,,,,,,,,,,,,,,,,,,,,,,,,,,,,,"30.61","35","39","0.00",,,,"86","30.64","CLR:00","30.14","10.00","37","020",,"21",,,,,,,,,,,,,,,,,,,,,,,,,,,,,,,,,,,,,"MET09012/05/17 22:53:02 METAR KSEA 060653Z 02018KT 10SM CLR 04/02 A3061 RMK AO2 SLP375 T00390017","FM-15","7",,,,,,,,,,,,,,,,,,,,,,,,,,,,"2007-05-17"
"72793024233","2017-12-05T23:53:00","FM-15","7",,,,,,,,,,,,,,,,,,,,,,,,,,,,,,,,,,,,,,"30.61","35","38","0.00",,,,"89","30.64","CLR:00","30.14","10.00","37","020",,"15",,,,,,,,,,,,,,,,,,,,,,,,,,,,,,,,,,,,,"MET10012/05/17 23:53:02 METAR KSEA 060753Z 02013KT 10SM CLR 03/02 A3061 RMK AO2 SLP375 T00330017 400720006","FM-15","7",,,,,,,,,,,,,,,,,,,,,,,,,,,,"2007-05-17"
"72793024233","2017-12-05T23:59:00","SOD  ","6",,,,,,,,,,,,,,,"34","39","85","30.63","30.12","36","11.8","0","-2.5","26","45","33","020","27","0.00","0","0.0","020","23","FG BR",,,,,,,,,,,,,,,,,,,,,,,,,,,,,,,,,,,,,,,,,,,,,,,,,,,,,,,,"SOD75724 HR PRECIPITATION (IN): 0.00 SNOW DEPTH (IN):0     24 HR SNOWFALL (IN):0.0  WEATHER(CODE):12  24 HR MAX TEMP (F): 4524 HR MIN TEMP (F): 33AVERAGE STATION PRESSURE:30.125 MINIMUM SEA LEVEL PRESSURE:30.61 TIME OF OCCURRENCE:1734 PEAK WIND SPEED (MPH): 27 PEAK WIND DIR (DEG): 20 PEAK WIND TIME (LST):      FASTEST 2MIN SPEED (MPH): 23FASTEST 2MIN DIR (DEG): 20 FASTEST 2MIN TIME (LST):     AVERAGE WIND SPEED (MPH):11.8 24 HR AVG TEMP (F): 39DEPART FROM NORMAL: -2  HEATING DEGREE DAYS: 26 COOLING DEGREE DAYS:  0 LATEST DAY MAX TEMP (0700-1900 LST):45  LATEST NIGHT MIN TEMP(1900-0800 LST):33 HOURLY INCREMENTAL PRECIPITATION VALUES (IN):.00 0.00 0.00 0.00 0.00 0.00 0.00 0.00 0.00 0.00 0.00 0.00 0.00 0.00 0.00 0.00 0.00 0.00 0.00 0.00 0.00 0.00 0.00 0.00","SOD  ","6",,,,,,,,,,,,,,,,,,,,,,,,,"0741","1619",,"2007-05-17"
"72793024233","2017-12-06T00:53:00","FM-15","7",,,,,,,,,,,,,,,,,,,,,,,,,,,,,,,,,,,,,,"30.62","35","37","0.00",,"-0.01","3","93","30.65","CLR:00","30.14","10.00","36","010",,"18",,,,,,,,,,,,,,,,,,,,,,,,,,,,,,,,,,,,,"MET10112/06/17 00:53:02 METAR KSEA 060853Z 01016KT 10SM CLR 03/02 A3062 RMK AO2 SLP378 T00280017 53003 (TL)","FM-15","7",,,,,,,,,,,,,,,,,,,,,,,,,,,,"2007-05-17"
"72793024233","2017-12-06T01:53:00","FM-15","7",,,,,,,,,,,,,,,,,,,,,,,,,,,,,,,,,,,,,,"30.61","35","37","0.00",,,,"93","30.64","CLR:00","30.14","10.00","36","010",,"15",,,,,,,,,,,,,,,,,,,,,,,,,,,,,,,,,,,,,"MET09512/06/17 01:53:02 METAR KSEA 060953Z 01013KT 10SM CLR 03/02 A3061 RMK AO2 SLP375 T00280017 (TL)","FM-15","7",,,,,,,,,,,,,,,,,,,,,,,,,,,,"2007-05-17"
"72793024233","2017-12-06T02:53:00","FM-15","7",,,,,,,,,,,,,,,,,,,,,,,,,,,,,,,,,,,,,,"30.60","34","36","0.00",,,,"93","30.63","CLR:00","30.13","10.00","35","010",,"16",,,,,,,,,,,,,,,,,,,,,,,,,,,,,,,,,,,,,"MET09512/06/17 02:53:02 METAR KSEA 061053Z 01014KT 10SM CLR 02/01 A3060 RMK AO2 SLP373 T00220011 (TL)","FM-15","7",,,,,,,,,,,,,,,,,,,,,,,,,,,,"2007-05-17"
"72793024233","2017-12-06T03:51:00","FM-16","6",,,,,,,,,,,,,,,,,,,,,,,,,,,,,,,,,,,,,,"30.60","36","37",,,,,"93",,"SCT:04 2","30.13","10.00","37","010",,"17",,,,,,,,,,,,,,,,,,,,,,,,,,,,,,,,,,,,,"MET08612/06/17 03:51:02 SPECI KSEA 061151Z 01015KT 10SM SCT002 03/02 A3060 RMK AO2 FIBI (TL)","FM-16","6",,,,,,,,,,,,,,,,,,,,,,,,,,,,"2007-05-17"
"72793024233","2017-12-06T03:53:00","FM-15","7",,,,,,,,,,,,,,,,,,,,,,,,,,,,,,,,,,,,,,"30.60","35","37","0.00",,"+0.01","6","93","30.63","FEW:02 2","30.13","10.00","36","010",,"16",,,,,,,,,,,,,,,,,,,,,,,,,,,,,,,,,,,,,"MET11612/06/17 03:53:02 METAR KSEA 061153Z 01014KT 10SM FEW002 03/02 A3060 RMK AO2 SLP372 T00280017 10039 20022 56005 (TL)","FM-15","7",,,,,,,,,,,,,,,,,,,,,,,,,,,,"2007-05-17"
"72793024233","2017-12-06T04:00:00","FM-12","4",,,,,,,,,,,,,,,,,,,,,,,,,,,,,,,,,,,,,,,"35","37",,,"+0.01","6","93","30.63","2","30.11","9.94","36","010",,"16",,,,,,,,,,,,,,,,,,,,,,,,,,,,,,,,,,,,,"SYN08072793 32166 20114 10028 20017 30197 40372 56005 91153 333 10072 20022 555 90612=","FM-12","4",,,,,,,,,,,,,,,,,,,,,,,,,,,,"2007-05-17"
"72793024233","2017-12-06T04:53:00","FM-15","7",,,,,,,,,,,,,,,,,,,,,,,,,,,,,,,,,,,,,,"30.60","35","37","0.00",,,,"93","30.63","CLR:00","30.13","10.00","36","010",,"14",,,,,,,,,,,,,,,,,,,,,,,,,,,,,,,,,,,,,"MET09512/06/17 04:53:02 METAR KSEA 061253Z 01012KT 10SM CLR 03/02 A3060 RMK AO2 SLP373 T00280017 (TL)","FM-15","7",,,,,,,,,,,,,,,,,,,,,,,,,,,,"2007-05-17"
"72793024233","2017-12-06T05:53:00","FM-15","7",,,,,,,,,,,,,,,,,,,,,,,,,,,,,,,,,,,,,,"30.60","35","38","0.00",,,,"89","30.63","CLR:00","30.13","10.00","37","010",,"17",,,,,,,,,,,,,,,,,,,,,,,,,,,,,,,,,,,,,"MET09512/06/17 05:53:02 METAR KSEA 061353Z 01015KT 10SM CLR 03/02 A3060 RMK AO2 SLP372 T00330017 (JC)","FM-15","7",,,,,,,,,,,,,,,,,,,,,,,,,,,,"2007-05-17"
"72793024233","2017-12-06T06:53:00","FM-15","7",,,,,,,,,,,,,,,,,,,,,,,,,,,,,,,,,,,,,,"30.61","35","37","0.00",,"-0.01","3","93","30.64","CLR:00","30.14","10.00","36","010",,"17",,,,,,,,,,,,,,,,,,,,,,,,,,,,,,,,,,,,,"MET10112/06/17 06:53:02 METAR KSEA 061453Z 01015KT 10SM CLR 03/02 A3061 RMK AO2 SLP376 T00280017 53003 (JC)","FM-15","7",,,,,,,,,,,,,,,,,,,,,,,,,,,,"2007-05-17"
"72793024233","2017-12-06T07:51:00","FM-16","6",,,,,,,,,,,,,,,,,,,,,,,,,,,,,,,,,,,,,,"30.62","36","37",,,,,"93",,"FEW:02 6","30.14","10.00","37","020",,"18",,,,,,,,,,,,,,,,,,,,,,,,,,,,,,,,,,,,,"MET08612/06/17 07:51:02 SPECI KSEA 061551Z 02016KT 10SM FEW006 03/02 A3062 RMK AO2 FIBI (JC)","FM-16","6",,,,,,,,,,,,,,,,,,,,,,,,,,,,"2007-05-17"
"72793024233","2017-12-06T07:53:00","FM-15","7",,,,,,,,,,,,,,,,,,,,,,,,,,,,,,,,,,,,,,"30.62","35","37","0.00",,,,"93","30.65","FEW:02 6","30.14","10.00","36","020",,"18",,,,,,,,,,,,,,,,,,,,,,,,,,,,,,,,,,,,,"MET09812/06/17 07:53:02 METAR KSEA 061553Z 02016KT 10SM FEW006 03/02 A3062 RMK AO2 SLP378 T00280017 (JC)","FM-15","7",,,,,,,,,,,,,,,,,,,,,,,,,,,,"2007-05-17"
"72793024233","2017-12-06T08:53:00","FM-15","7",,,,,,,,,,,,,,,,,,,,,,,,,,,,,,,,,,,,,,"30.63","36","39","0.00",,,,"89","30.66","FEW:02 9","30.16","10.00","38","010",,"15",,,,,,,,,,,,,,,,,,,,,,,,,,,,,,,,,,,,,"MET09812/06/17 08:53:02 METAR KSEA 061653Z 01013KT 10SM FEW009 04/02 A3063 RMK AO2 SLP383 T00390022 (JC)","FM-15","7",,,,,,,,,,,,,,,,,,,,,,,,,,,,"2007-05-17"
"72793024233","2017-12-06T09:53:00","FM-15","7",,,,,,,,,,,,,,,,,,,,,,,,,,,,,,,,,,,,,,"30.63","37","42","0.00",,"-0.02","1","82","30.66","FEW:02 15","30.16","10.00","40","010",,"14",,,,,,,,,,,,,,,,,,,,,,,,,,,,,,,,,,,,,"MET11612/06/17 09:53:02 METAR KSEA 061753Z 01012KT 10SM FEW015 06/03 A3063 RMK AO2 SLP384 T00560028 10056 20028 51008 (JC)","FM-15","7",,,,,,,,,,,,,,,,,,,,,,,,,,,,"2007-05-17"
"72793024233","2017-12-06T10:00:00","FM-12","4",,,,,,,,,,,,,,,,,,,,,,,,,,,,,,,,,,,,,,,"37","42",,,"-0.02","1","82","30.66","15","30.14","9.94","40","010",,"14",,,,,,,,,,,,,,,,,,,,,,,,,,,,,,,,,,,,,"SYN08072793 32466 20112 10056 20028 30207 40384 51008 91753 333 10056 20028 555 90618=","FM-12","4",,,,,,,,,,,,,,,,,,,,,,,,,,,,"2007-05-17"
"72793024233","2017-12-06T10:53:00","FM-15","7",,,,,,,,,,,,,,,,,,,,,,,,,,,,,,,,,,,,,,"30.63","37","45","0.00",,,,"74","30.66","CLR:00","30.16","10.00","41","010",,"16",,,,,,,,,,,,,,,,,,,,,,,,,,,,,,,,,,,,,"MET09512/06/17 10:53:02 METAR KSEA 061853Z 01014KT 10SM CLR 07/03 A3063 RMK AO2 SLP381 T00720028 (JC)","FM-15","7",,,,,,,,,,,,,,,,,,,,,,,,,,,,"2007-05-17"
"72793024233","2017-12-06T11:53:00","FM-15","7",,,,,,,,,,,,,,,,,,,,,,,,,,,,,,,,,,,,,,"30.61","37","47","0.00",,,,"69","30.64","CLR:00","30.14","10.00","43","010",,"15",,,,,,,,,,,,,,,,,,,,,,,,,,,,,,,,,,,,,"MET09512/06/17 11:53:02 METAR KSEA 061953Z 01013KT 10SM CLR 08/03 A3061 RMK AO2 SLP375 T00830028 (JC)","FM-15","7",,,,,,,,,,,,,,,,,,,,,,,,,,,,"2007-05-17"
"72793024233","2017-12-06T12:53:00","FM-15","7",,,,,,,,,,,,,,,,,,,,,,,,,,,,,,,,,,,,,,"30.59","37","50","0.00",,"+0.04","8","61","30.62","CLR:00","30.11","10.00","44","350",,"10",,,,,,,,,,,,,,,,,,,,,,,,,,,,,,,,,,,,,"MET10112/06/17 12:53:02 METAR KSEA 062053Z 35009KT 10SM CLR 10/03 A3059 RMK AO2 SLP368 T01000028 58015 (JC)","FM-15","7",,,,,,,,,,,,,,,,,,,,,,,,,,,,"2007-05-17"
"72793024233","2017-12-06T13:53:00","FM-15","7",,,,,,,,,,,,,,,,,,,,,,,,,,,,,,,,,,,,,,"30.57","38","52","0.00",,,,"59","30.60","CLR:00","30.10","10.00","45","010",,"13",,,,,,,,,,,,,,,,,,,,,,,,,,,,,,,,,,,,,"MET09512/06/17 13:53:02 METAR KSEA 062153Z 01011KT 10SM CLR 11/03 A3057 RMK AO2 SLP362 T01110033 (RS)","FM-15","7",,,,,,,,,,,,,,,,,,,,,,,,,,,,"2007-05-17"
"72793024233","2017-12-06T14:53:00","FM-15","7",,,,,,,,,,,,,,,,,,,,,,,,,,,,,,,,,,,,,,"30.56","38","52","0.00",,,,"59","30.58","CLR:00","30.09","10.00","45","360",,"11",,,,,,,,,,,,,,,,,,,,,,,,,,,,,,,,,,,,,"MET09512/06/17 14:53:02 METAR KSEA 062253Z 36010KT 10SM CLR 11/03 A3056 RMK AO2 SLP357 T01110033 (RS)","FM-15","7",,,,,,,,,,,,,,,,,,,,,,,,,,,,"2007-05-17"
"72793024233","2017-12-06T15:53:00","FM-15","7",,,,,,,,,,,,,,,,,,,,,,,,,,,,,,,,,,,,,,"30.56","40","48","0.00",,"+0.03","5","74","30.59","CLR:00","30.09","10.00","44","330",,"6",,,,,,,,,,,,,,,,,,,,,,,,,,,,,,,,,,,,,"MET11312/06/17 15:53:02 METAR KSEA 062353Z 33005KT 10SM CLR 09/04 A3056 RMK AO2 SLP358 T00890044 10111 20056 55009 (RS)","FM-15","7",,,,,,,,,,,,,,,,,,,,,,,,,,,,"2007-05-17"
"72793024233","2017-12-06T16:00:00","FM-12","4",,,,,,,,,,,,,,,,,,,,,,,,,,,,,,,,,,,,,,,"40","48",,,"+0.03","5","74","30.59",,"30.07","9.94","44","330",,"6",,,,,,,,,,,,,,,,,,,,,,,,,,,,,,,,,,,,,"SYN08072793 32966 03305 10089 20044 30183 40358 55009 92353 333 10111 20022 555 90700=","FM-12","4",,,,,,,,,,,,,,,,,,,,,,,,,,,,"2007-05-17"
"72793024233","2017-12-06T16:53:00","FM-15","7",,,,,,,,,,,,,,,,,,,,,,,,,,,,,,,,,,,,,,"30.57","37","45","0.00",,,,"74","30.60","CLR:00","30.10","10.00","41","010",,"10",,,,,,,,,,,,,,,,,,,,,,,,,,,,,,,,,,,,,"MET09012/06/17 16:53:01 METAR KSEA 070053Z 01009KT 10SM CLR 07/03 A3057 RMK AO2 SLP362 T00720028","FM-15","7",,,,,,,,,,,,,,,,,,,,,,,,,,,,"2007-05-17"
"72793024233","2017-12-06T17:53:00","FM-15","7",,,,,,,,,,,,,,,,,,,,,,,,,,,,,,,,,,,,,,"30.56","37","45","0.00",,,,"74","30.59","CLR:00","30.09","10.00","41","010",,"11",,,,,,,,,,,,,,,,,,,,,,,,,,,,,,,,,,,,,"MET09012/06/17 17:53:01 METAR KSEA 070153Z 01010KT 10SM CLR 07/03 A3056 RMK AO2 SLP358 T00720028","FM-15","7",,,,,,,,,,,,,,,,,,,,,,,,,,,,"2007-05-17"
"72793024233","2017-12-06T18:53:00","FM-15","7",,,,,,,,,,,,,,,,,,,,,,,,,,,,,,,,,,,,,,"30.56","37","44","0.00",,"+0.00","8","76","30.59","CLR:00","30.09","10.00","41","360",,"10",,,,,,,,,,,,,,,,,,,,,,,,,,,,,,,,,,,,,"MET09612/06/17 18:53:02 METAR KSEA 070253Z 36009KT 10SM CLR 07/03 A3056 RMK AO2 SLP359 T00670028 58001","FM-15","7",,,,,,,,,,,,,,,,,,,,,,,,,,,,"2007-05-17"
"72793024233","2017-12-06T19:53:00","FM-15","7",,,,,,,,,,,,,,,,,,,,,,,,,,,,,,,,,,,,,,"30.56","37","42","0.00",,,,"82","30.59","CLR:00","30.09","10.00","40","010",,"8",,,,,,,,,,,,,,,,,,,,,,,,,,,,,,,,,,,,,"MET09012/06/17 19:53:02 METAR KSEA 070353Z 01007KT 10SM CLR 06/03 A3056 RMK AO2 SLP359 T00560028","FM-15","7",,,,,,,,,,,,,,,,,,,,,,,,,,,,"2007-05-17"
"72793024233","2017-12-06T20:53:00","FM-15","7",,,,,,,,,,,,,,,,,,,,,,,,,,,,,,,,,,,,,,"30.56","37","42","0.00",,,,"82","30.58","CLR:00","30.09","10.00","40","020",,"11",,,,,,,,,,,,,,,,,,,,,,,,,,,,,,,,,,,,,"MET09012/06/17 20:53:02 METAR KSEA 070453Z 02010KT 10SM CLR 06/03 A3056 RMK AO2 SLP357 T00560028","FM-15","7",,,,,,,,,,,,,,,,,,,,,,,,,,,,"2007-05-17"
"72793024233","2017-12-06T21:53:00","FM-15","7",,,,,,,,,,,,,,,,,,,,,,,,,,,,,,,,,,,,,,"30.55","37","41","0.00",,"+0.01","8","86","30.58","CLR:00","30.08","10.00","39","020",,"10",,,,,,,,,,,,,,,,,,,,,,,,,,,,,,,,,,,,,"MET10812/06/17 21:53:02 METAR KSEA 070553Z 02009KT 10SM CLR 05/03 A3055 RMK AO2 SLP356 T00500028 10094 20044 58002","FM-15","7",,,,,,,,,,,,,,,,,,,,,,,,,,,,"2007-05-17"
"72793024233","2017-12-06T22:00:00","FM-12","4",,,,,,,,,,,,,,,,,,,,,,,,,,,,,,,,,,,,,,,"37","41",,,"+0.01","8","86","30.58",,"30.06","9.94","39","020",,"10",,,,,,,,,,,,,,,,,,,,,,,,,,,,,,,,,,,,,"SYN08072793 32966 00209 10050 20028 30180 40356 58002 90553 333 10094 20022 555 90706=","FM-12","4",,,,,,,,,,,,,,,,,,,,,,,,,,,,"2007-05-17"
"72793024233","2017-12-06T22:53:00","FM-15","7",,,,,,,,,,,,,,,,,,,,,,,,,,,,,,,,,,,,,,"30.55","37","41","0.00",,,,"86","30.57","CLR:00","30.08","10.00","39","020",,"9",,,,,,,,,,,,,,,,,,,,,,,,,,,,,,,,,,,,,"MET09012/06/17 22:53:02 METAR KSEA 070653Z 02008KT 10SM CLR 05/03 A3055 RMK AO2 SLP353 T00500028","FM-15","7",,,,,,,,,,,,,,,,,,,,,,,,,,,,"2007-05-17"
"72793024233","2017-12-06T23:53:00","FM-15","7",,,,,,,,,,,,,,,,,,,,,,,,,,,,,,,,,,,,,,"30.54","36","40","0.00",,,,"86","30.56","CLR:00","30.07","10.00","38","020",,"10",,,,,,,,,,,,,,,,,,,,,,,,,,,,,,,,,,,,,"MET10012/06/17 23:53:02 METAR KSEA 070753Z 02009KT 10SM CLR 04/02 A3054 RMK AO2 SLP350 T00440022 401110022","FM-15","7",,,,,,,,,,,,,,,,,,,,,,,,,,,,"2007-05-17"
"72793024233","2017-12-06T23:59:00","SOD  ","6",,,,,,,,,,,,,,,"36","44","81","30.62","30.11","39","13.1","0","2.6","21","52","36","010","24","0.00","0","0.0","020","20",,,,,,,,,,,,,,,,,,,,,,,,,,,,,,,,,,,,,,,,,,,,,,,,,,,,,,,,,"SOD73924 HR PRECIPITATION (IN): 0.00 SNOW DEPTH (IN):0     24 HR SNOWFALL (IN):0.0  24 HR MAX TEMP (F): 5224 HR MIN TEMP (F): 36AVERAGE STATION PRESSURE:30.110 MINIMUM SEA LEVEL PRESSURE:30.56 TIME OF OCCURRENCE:2359 PEAK WIND SPEED (MPH): 24 PEAK WIND DIR (DEG): 10 PEAK WIND TIME (LST):      FASTEST 2MIN SPEED (MPH): 20FASTEST 2MIN DIR (DEG): 20 FASTEST 2MIN TIME (LST):     AVERAGE WIND SPEED (MPH):13.1 24 HR AVG TEMP (F): 44DEPART FROM NORMAL:  3  HEATING DEGREE DAYS: 21 COOLING DEGREE DAYS:  0 LATEST DAY MAX TEMP (0700-1900 LST):52  LATEST NIGHT MIN TEMP(1900-0800 LST):36 HOURLY INCREMENTAL PRECIPITATION VALUES (IN):.00 0.00 0.00 0.00 0.00 0.00 0.00 0.00 0.00 0.00 0.00 0.00 0.00 0.00 0.00 0.00 0.00 0.00 0.00 0.00 0.00 0.00 0.00 0.00","SOD  ","6",,,,,,,,,,,,,,,,,,,,,,,,,"0742","1619",,"2007-05-17"
"72793024233","2017-12-07T00:53:00","FM-15","7",,,,,,,,,,,,,,,,,,,,,,,,,,,,,,,,,,,,,,"30.53","35","38","0.00",,"+0.03","8","89","30.55","CLR:00","30.06","10.00","37","010",,"9",,,,,,,,,,,,,,,,,,,,,,,,,,,,,,,,,,,,,"MET10112/07/17 00:53:02 METAR KSEA 070853Z 01008KT 10SM CLR 03/02 A3053 RMK AO2 SLP346 T00330017 58009 (TL)","FM-15","7",,,,,,,,,,,,,,,,,,,,,,,,,,,,"2007-05-17"
"72793024233","2017-12-07T01:53:00","FM-15","7",,,,,,,,,,,,,,,,,,,,,,,,,,,,,,,,,,,,,,"30.52","35","39","0.00",,,,"86","30.55","CLR:00","30.05","10.00","37","020",,"10",,,,,,,,,,,,,,,,,,,,,,,,,,,,,,,,,,,,,"MET09512/07/17 01:53:02 METAR KSEA 070953Z 02009KT 10SM CLR 04/02 A3052 RMK AO2 SLP344 T00390017 (TL)","FM-15","7",,,,,,,,,,,,,,,,,,,,,,,,,,,,"2007-05-17"
"72793024233","2017-12-07T02:53:00","FM-15","7",,,,,,,,,,,,,,,,,,,,,,,,,,,,,,,,,,,,,,"30.52","34","38","0.00",,,,"86","30.54","CLR:00","30.05","10.00","36","020",,"9",,,,,,,,,,,,,,,,,,,,,,,,,,,,,,,,,,,,,"MET09512/07/17 02:53:02 METAR KSEA 071053Z 02008KT 10SM CLR 03/01 A3052 RMK AO2 SLP342 T00330011 (TL)","FM-15","7",,,,,,,,,,,,,,,,,,,,,,,,,,,,"2007-05-17"
"72793024233","2017-12-07T03:53:00","FM-15","7",,,,,,,,,,,,,,,,,,,,,,,,,,,,,,,,,,,,,,"30.51","33","35","0.00",,"+0.02","6","93","30.53","CLR:00","30.04","10.00","34","360",,"7",,,,,,,,,,,,,,,,,,,,,,,,,,,,,,,,,,,,,"MET11312/07/17 03:53:02 METAR KSEA 071153Z 36006KT 10SM CLR 02/01 A3051 RMK AO2 SLP340 T00170006 10050 20017 56006 (TL)","FM-15","7",,,,,,,,,,,,,,,,,,,,,,,,,,,,"2007-05-17"
"72793024233","2017-12-07T04:00:00","FM-12","4",,,,,,,,,,,,,,,,,,,,,,,,,,,,,,,,,,,,,,,"33","35",,,"+0.02","6","93","30.53",,"30.02","9.94","34","360",,"7",,,,,,,,,,,,,,,,,,,,,,,,,,,,,,,,,,,,,"SYN08072793 32966 03606 10017 20006 30166 40340 56006 91153 333 10111 20017 555 90712=","FM-12","4",,,,,,,,,,,,,,,,,,,,,,,,,,,,"2007-05-17"
"72793024233","2017-12-07T04:51:00","FM-16","6",,,,,,,,,,,,,,,,,,,,,,,,,,,,,,,,,,,,,,"30.51","36","37",,,,,"93",,"FEW:02 2","30.04","9.00","37","030",,"8",,,,,,,,,,,,,,,,,,,,,,,,,,,,,,,,,,,,,"MET08512/07/17 04:51:02 SPECI KSEA 071251Z 03007KT 9SM FEW002 03/02 A3051 RMK AO2 FIBI (TL)","FM-16","6",,,,,,,,,,,,,,,,,,,,,,,,,,,,"2007-05-17"
"72793024233","2017-12-07T04:53:00","FM-15","7",,,,,,,,,,,,,,,,,,,,,,,,,,,,,,,,,,,,,,"30.51","35","37","0.00",,,,"93","30.54","FEW:02 2","30.04","9.00","36","030",,"7",,,,,,,,,,,,,,,,,,,,,,,,,,,,,,,,,,,,,"MET09712/07/17 04:53:02 METAR KSEA 071253Z 03006KT 9SM FEW002 03/02 A3051 RMK AO2 SLP341 T00280017 (TL)","FM-15","7",,,,,,,,,,,,,,,,,,,,,,,,,,,,"2007-05-17"
"72793024233","2017-12-07T05:53:00","FM-15","7",,,,,,,,,,,,,,,,,,,,,,,,,,,,,,,,,,,,,,"30.52","34","35","0.00",,,,"96","30.55","CLR:00","30.05","10.00","35","360",,"7",,,,,,,,,,,,,,,,,,,,,,,,,,,,,,,,,,,,,"MET09512/07/17 05:53:02 METAR KSEA 071353Z 36006KT 10SM CLR 02/01 A3052 RMK AO2 SLP344 T00170011 (JC)","FM-15","7",,,,,,,,,,,,,,,,,,,,,,,,,,,,"2007-05-17"
"72793024233","2017-12-07T06:53:00","FM-15","7",,,,,,,,,,,,,,,,,,,,,,,,,,,,,,,,,,,,,,"30.51","34","36","0.00",,"-0.00","0","93","30.54","CLR:00","30.04","10.00","35","040",,"7",,,,,,,,,,,,,,,,,,,,,,,,,,,,,,,,,,,,,"MET10112/07/17 06:53:02 METAR KSEA 071453Z 04006KT 10SM CLR 02/01 A3051 RMK AO2 SLP342 T00220011 50001 (JC)","FM-15","7",,,,,,,,,,,,,,,,,,,,,,,,,,,,"2007-05-17"
"72793024233","2017-12-07T07:51:00","FM-16","6",,,,,,,,,,,,,,,,,,,,,,,,,,,,,,,,,,,,,,"30.51","34","36",,,,,"93",,"FEW:02 2","30.04","10.00","35","020",,"7",,,,,,,,,,,,,,,,,,,,,,,,,,,,,,,,,,,,,"MET08612/07/17 07:51:02 SPECI KSEA 071551Z 02006KT 10SM FEW002 02/01 A3051 RMK AO2 FIBI (JC)","FM-16","6",,,,,,,,,,,,,,,,,,,,,,,,,,,,"2007-05-17"
"72793024233","2017-12-07T07:53:00","FM-15","7",,,,,,,,,,,,,,,,,,,,,,,,,,,,,,,,,,,,,,"30.51","34","36","0.00",,,,"93","30.54","FEW:02 2","30.04","10.00","35","020",,"8",,,,,,,,,,,,,,,,,,,,,,,,,,,,,,,,,,,,,"MET09812/07/17 07:53:02 METAR KSEA 071553Z 02007KT 10SM FEW002 02/01 A3051 RMK AO2 SLP343 T00220011 (JC)","FM-15","7",,,,,,,,,,,,,,,,,,,,,,,,,,,,"2007-05-17"
"72793024233","2017-12-07T08:53:00","FM-15","7",,,,,,,,,,,,,,,,,,,,,,,,,,,,,,,,,,,,,,"30.51","36","40","0.00",,,,"86","30.54","FEW:02 5","30.04","10.00","38","040",,"5",,,,,,,,,,,,,,,,,,,,,,,,,,,,,,,,,,,,,"MET09812/07/17 08:53:02 METAR KSEA 071653Z 04004KT 10SM FEW005 04/02 A3051 RMK AO2 SLP343 T00440022 (JC)","FM-15","7",,,,,,,,,,,,,,,,,,,,,,,,,,,,"2007-05-17"
"72793024233","2017-12-07T09:53:00","FM-15","7",,,,,,,,,,,,,,,,,,,,,,,,,,,,,,,,,,,,,,"30.51","37","43","0.00",,"-0.00","2","80","30.54","FEW:02 5","30.04","10.00","40","340",,"3",,,,,,,,,,,,,,,,,,,,,,,,,,,,,,,,,,,,,"MET11812/07/17 09:53:02 METAR KSEA 071753Z 34003KT 10SM FEW005 06/03 A3051 RMK AO2 SLP342 T00610028 10067 20017 52001 $ (JC)","FM-15","7",,,,,,,,,,,,,,,,,,,,,,,,,,,,"2007-05-17"
"72793024233","2017-12-07T10:00:00","FM-12","4",,,,,,,,,,,,,,,,,,,,,,,,,,,,,,,,,,,,,,,"37","43",,,"-0.00","2","80","30.54","5","30.02","9.94","40","340",,"3",,,,,,,,,,,,,,,,,,,,,,,,,,,,,,,,,,,,,"SYN08072793 32266 23403 10061 20028 30166 40342 52001 91753 333 10067 20017 555 90718=","FM-12","4",,,,,,,,,,,,,,,,,,,,,,,,,,,,"2007-05-17"
"72793024233","2017-12-07T10:53:00","FM-15","7",,,,,,,,,,,,,,,,,,,,,,,,,,,,,,,,,,,,,,"30.51","36","47","0.00",,,,"66","30.53","FEW:02 5","30.04","10.00","42","290",,"3",,,,,,,,,,,,,,,,,,,,,,,,,,,,,,,,,,,,,"MET09812/07/17 10:53:02 METAR KSEA 071853Z 29003KT 10SM FEW005 08/02 A3051 RMK AO2 SLP340 T00830022 (JC)","FM-15","7",,,,,,,,,,,,,,,,,,,,,,,,,,,,"2007-05-17"
"72793024233","2017-12-07T11:53:00","FM-15","7",,,,,,,,,,,,,,,,,,,,,,,,,,,,,,,,,,,,,,"30.50","40","49","0.00",,,,"71","30.53","FEW:02 3","30.03","10.00","45","280",,"5",,,,,,,,,,,,,,,,,,,,,,,,,,,,,,,,,,,,,"MET10812/07/17 11:53:02 METAR KSEA 071953Z 28004KT 10SM FEW003 09/04 A3050 RMK AO2 SLP337 FG BANK S T00940044 (JC)","FM-15","7",,,,,,,,,,,,,,,,,,,,,,,,,,,,"2007-05-17"
"72793024233","2017-12-07T12:53:00","FM-15","7",,,,,,,,,,,,,,,,,,,,,,,,,,,,,,,,,,,,,,"30.48","40","51","0.00",,"+0.03","8","66","30.51","FEW:02 3","30.01","10.00","46","VRB",,"3",,,,,,,,,,,,,,,,,,,,,,,,,,,,,,,,,,,,,"MET11612/07/17 12:53:02 METAR KSEA 072053Z VRB03KT 10SM FEW003 11/04 A3048 RMK AO2 SLP331 FG BANK S T01060044 58010 $ (JC)","FM-15","7",,,,,,,,,,,,,,,,,,,,,,,,,,,,"2007-05-17"
"72793024233","2017-12-07T13:53:00","FM-15","7",,,,,,,,,,,,,,,,,,,,,,,,,,,,,,,,,,,,,,"30.48","40","50","0.00",,,,"68","30.50","CLR:00","30.01","10.00","45","280",,"3",,,,,,,,,,,,,,,,,,,,,,,,,,,,,,,,,,,,,"MET09512/07/17 13:53:02 METAR KSEA 072153Z 28003KT 10SM CLR 10/04 A3048 RMK AO2 SLP329 T01000044 (RS)","FM-15","7",,,,,,,,,,,,,,,,,,,,,,,,,,,,"2007-05-17"
"72793024233","2017-12-07T14:53:00","FM-15","7",,,,,,,,,,,,,,,,,,,,,,,,,,,,,,,,,,,,,,"30.48","38","48","0.00",,,,"68","30.50","CLR:00","30.01","10.00","43","270",,"6",,,,,,,,,,,,,,,,,,,,,,,,,,,,,,,,,,,,,"MET09512/07/17 14:53:02 METAR KSEA 072253Z 27005KT 10SM CLR 09/03 A3048 RMK AO2 SLP330 T00890033 (RS)","FM-15","7",,,,,,,,,,,,,,,,,,,,,,,,,,,,"2007-05-17"
"72793024233","2017-12-07T15:53:00","FM-15","7",,,,,,,,,,,,,,,,,,,,,,,,,,,,,,,,,,,,,,"30.48","36","48","0.00",,"-0.00","3","63","30.51","CLR:00","30.01","10.00","43","000",,"0",,,,,,,,,,,,,,,,,,,,,,,,,,,,,,,,,,,,,"MET11312/07/17 15:53:02 METAR KSEA 072353Z 00000KT 10SM CLR 09/02 A3048 RMK AO2 SLP332 T00890022 10111 20061 53001 (RS)","FM-15","7",,,,,,,,,,,,,,,,,,,,,,,,,,,,"2007-05-17"
"72793024233","2017-12-07T16:00:00","FM-12","4",,,,,,,,,,,,,,,,,,,,,,,,,,,,,,,,,,,,,,,"36","48",,,"-0.00","3","63","30.51",,"29.99","9.94","43","000",,"0",,,,,,,,,,,,,,,,,,,,,,,,,,,,,,,,,,,,,"SYN08072793 32966 00000 10089 20022 30156 40332 53001 92353 333 10111 20017 555 90800=","FM-12","4",,,,,,,,,,,,,,,,,,,,,,,,,,,,"2007-05-17"
"72793024233","2017-12-07T16:53:00","FM-15","7",,,,,,,,,,,,,,,,,,,,,,,,,,,,,,,,,,,,,,"30.49","38","42","0.00",,,,"85","30.52","CLR:00","30.02","10.00","40","000",,"0",,,,,,,,,,,,,,,,,,,,,,,,,,,,,,,,,,,,,"MET09012/07/17 16:53:01 METAR KSEA 080053Z 00000KT 10SM CLR 06/03 A3049 RMK AO2 SLP334 T00560033","FM-15","7",,,,,,,,,,,,,,,,,,,,,,,,,,,,"2007-05-17"
"72793024233","2017-12-07T17:53:00","FM-15","7",,,,,,,,,,,,,,,,,,,,,,,,,,,,,,,,,,,,,,"30.50","39","42","0.00",,,,"89","30.53","CLR:00","30.03","10.00","41","310",,"3",,,,,,,,,,,,,,,,,,,,,,,,,,,,,,,,,,,,,"MET09012/07/17 17:53:02 METAR KSEA 080153Z 31003KT 10SM CLR 06/04 A3050 RMK AO2 SLP338 T00560039","FM-15","7",,,,,,,,,,,,,,,,,,,,,,,,,,,,"2007-05-17"
"72793024233","2017-12-07T18:53:00","FM-15","7",,,,,,,,,,,,,,,,,,,,,,,,,,,,,,,,,,,,,,"30.50","40","42","0.00",,"-0.02","3","92","30.53","CLR:00","30.03","10.00","41","310",,"3",,,,,,,,,,,,,,,,,,,,,,,,,,,,,,,,,,,,,"MET09612/07/17 18:53:02 METAR KSEA 080253Z 31003KT 10SM CLR 06/04 A3050 RMK AO2 SLP340 T00560044 53006","FM-15","7",,,,,,,,,,,,,,,,,,,,,,,,,,,,"2007-05-17"
"72793024233","2017-12-07T19:53:00","FM-15","7",,,,,,,,,,,,,,,,,,,,,,,,,,,,,,,,,,,,,,"30.51","38","41","0.00",,,,"89","30.53","CLR:00","30.04","10.00","40","000",,"0",,,,,,,,,,,,,,,,,,,,,,,,,,,,,,,,,,,,,"MET09012/07/17 19:53:02 METAR KSEA 080353Z 00000KT 10SM CLR 05/03 A3051 RMK AO2 SLP340 T00500033","FM-15","7",,,,,,,,,,,,,,,,,,,,,,,,,,,,"2007-05-17"
"72793024233","2017-12-07T20:53:00","FM-15","7",,,,,,,,,,,,,,,,,,,,,,,,,,,,,,,,,,,,,,"30.51","33","41","0.00",,,,"73","30.53","CLR:00","30.04","10.00","38","000",,"0",,,,,,,,,,,,,,,,,,,,,,,,,,,,,,,,,,,,,"MET09012/07/17 20:53:02 METAR KSEA 080453Z 00000KT 10SM CLR 05/01 A3051 RMK AO2 SLP340 T00500006","FM-15","7",,,,,,,,,,,,,,,,,,,,,,,,,,,,"2007-05-17"
"72793024233","2017-12-07T21:53:00","FM-15","7",,,,,,,,,,,,,,,,,,,,,,,,,,,,,,,,,,,,,,"30.52","33","39","0.00",,"-0.01","3","79","30.55","CLR:00","30.05","10.00","37","290",,"3",,,,,,,,,,,,,,,,,,,,,,,,,,,,,,,,,,,,,"MET10812/07/17 21:53:02 METAR KSEA 080553Z 29003KT 10SM CLR 04/01 A3052 RMK AO2 SLP344 T00390006 10089 20028 53004","FM-15","7",,,,,,,,,,,,,,,,,,,,,,,,,,,,"2007-05-17"
"72793024233","2017-12-07T22:00:00","FM-12","4",,,,,,,,,,,,,,,,,,,,,,,,,,,,,,,,,,,,,,,"33","39",,,"-0.01","3","79","30.55",,"30.03","9.94","37","290",,"3",,,,,,,,,,,,,,,,,,,,,,,,,,,,,,,,,,,,,"SYN08072793 32966 02903 10039 20006 30170 40344 53004 90553 333 10089 20017 555 90806=","FM-12","4",,,,,,,,,,,,,,,,,,,,,,,,,,,,"2007-05-17"
"72793024233","2017-12-07T22:53:00","FM-15","7",,,,,,,,,,,,,,,,,,,,,,,,,,,,,,,,,,,,,,"30.52","32","34","0.00",,,,"92","30.55","CLR:00","30.05","10.00","33","000",,"0",,,,,,,,,,,,,,,,,,,,,,,,,,,,,,,,,,,,,"MET09012/07/17 22:53:02 METAR KSEA 080653Z 00000KT 10SM CLR 01/00 A3052 RMK AO2 SLP345 T00110000","FM-15","7",,,,,,,,,,,,,,,,,,,,,,,,,,,,"2007-05-17"
"72793024233","2017-12-07T23:53:00","FM-15","7",,,,,,,,,,,,,,,,,,,,,,,,,,,,,,,,,,,,,,"30.52","31","36","0.00",,,,"82","30.54","CLR:00","30.05","10.00","34","000",,"0",,,,,,,,,,,,,,,,,,,,,,,,,,,,,,,,,,,,,"MET10112/07/17 23:53:02 METAR KSEA 080753Z 00000KT 10SM CLR 02/M01 A3052 RMK AO2 SLP343 T00221006 401110011","FM-15","7",,,,,,,,,,,,,,,,,,,,,,,,,,,,"2007-05-17"
"72793024233","2017-12-07T23:59:00","SOD  ","6",,,,,,,,,,,,,,,"36","43","82","30.53","30.03","39","4.3","0","1.8","22","52","34","020","13","0.00","0","0.0","020","13",,,,,,,,,,,,,,,,,,,,,,,,,,,,,,,,,,,,,,,,,,,,,,,,,,,,,,,,,"SOD75624 HR PRECIPITATION (IN): 0.00 SNOW DEPTH (IN):0     24 HR SNOWFALL (IN):0.0  WEATHER(CODE):1  24 HR MAX TEMP (F): 5224 HR MIN TEMP (F): 34AVERAGE STATION PRESSURE:30.030 MINIMUM SEA LEVEL PRESSURE:30.50 TIME OF OCCURRENCE:1521 PEAK WIND SPEED (MPH): 13 PEAK WIND DIR (DEG): 20 PEAK WIND TIME (LST):      FASTEST 2MIN SPEED (MPH): 13FASTEST 2MIN DIR (DEG): 20 FASTEST 2MIN TIME (LST):     AVERAGE WIND SPEED (MPH): 4.3 24 HR AVG TEMP (F): 43DEPART FROM NORMAL:  2  HEATING DEGREE DAYS: 22 COOLING DEGREE DAYS:  0 LATEST DAY MAX TEMP (0700-1900 LST):52  LATEST NIGHT MIN TEMP(1900-0800 LST):35 HOURLY INCREMENTAL PRECIPITATION VALUES (IN):.00 0.00 0.00 0.00 0.00 0.00 0.00 0.00 0.00 0.00 0.00 0.00 0.00 0.00 0.00 0.00 0.00 0.00 0.00 0.00 0.00 0.00 0.00 0.00","SOD  ","6",,,,,,,,,,,,,,,,,,,,,,,,,"0743","1619",,"2007-05-17"
"72793024233","2017-12-08T00:53:00","FM-15","7",,,,,,,,,,,,,,,,,,,,,,,,,,,,,,,,,,,,,,"30.52","32","33","0.00",,"+0.00","8","96","30.54","CLR:00","30.05","10.00","33","190",,"3",,,,,,,,,,,,,,,,,,,,,,,,,,,,,,,,,,,,,"MET10112/08/17 00:53:02 METAR KSEA 080853Z 19003KT 10SM CLR 01/00 A3052 RMK AO2 SLP342 T00060000 58000 (TL)","FM-15","7",,,,,,,,,,,,,,,,,,,,,,,,,,,,"2007-05-17"
"72793024233","2017-12-08T01:53:00","FM-15","7",,,,,,,,,,,,,,,,,,,,,,,,,,,,,,,,,,,,,,"30.52","30","31","0.00",,,,"96","30.55","CLR:00","30.05","10.00","31","260",,"3",,,,,,,,,,,,,,,,,,,,,,,,,,,,,,,,,,,,,"MET09712/08/17 01:53:02 METAR KSEA 080953Z 26003KT 10SM CLR M01/M01 A3052 RMK AO2 SLP344 T10061011 (TL)","FM-15","7",,,,,,,,,,,,,,,,,,,,,,,,,,,,"2007-05-17"
"72793024233","2017-12-08T02:44:00","FM-16","7",,,,,,,,,,,,,,,,,,,,,,,,,,,,,,,,,,,,,,"30.53","29","31",,"BC:3 FG:2 |FG |",,,"92",,"BKN:07 1","30.06","0.75","30","000",,"0",,,,,,,,,,,,,,,,,,,,,,,,,,,,,,,,,,,,,"MET12712/08/17 02:44:02 SPECI KSEA 081044Z 00000KT 3/4SM R16L/1800VP6000FT BCFG BKN001 M01/M02 A3053 RMK AO2 TWR VIS 7 T10061017 (TL)","FM-16","7",,,,,,,,,,,,,,,,,,,,,,,,,,,,"2007-05-17"
"72793024233","2017-12-08T02:53:00","FM-15","7",,,,,,,,,,,,,,,,,,,,,,,,,,,,,,,,,,,,,,"30.53","30","31","0.00","FZ:8 FG:2 |FG |",,,"96","30.56","BKN:07 1","30.06","0.50","31","000",,"0",,,,,,,,,,,,,,,,,,,,,,,,,,,,,,,,,,,,,"MET13312/08/17 02:53:02 METAR KSEA 081053Z 00000KT 1/2SM R16L/2000V4000FT FZFG BKN001 M01/M01 A3053 RMK AO2 TWR VIS 7 SLP348 T10061011 (TL)","FM-15","7",,,,,,,,,,,,,,,,,,,,,,,,,,,,"2007-05-17"
"72793024233","2017-12-08T03:07:00","FM-16","7",,,,,,,,,,,,,,,,,,,,,,,,,,,,,,,,,,,,,,"30.53","31","32",,"BC:3 FG:2 |FG |",,,"96",,"SCT:04 1","30.06","1.50","32","000",,"0",,,,,,,,,,,,,,,,,,,,,,,,,,,,,,,,,,,,,"MET12712/08/17 03:07:02 SPECI KSEA 081107Z 00000KT 1 1/2SM R16L/1600V2400FT BCFG SCT001 00/M01 A3053 RMK AO2 TWR VIS 7 T00001006 (TL)","FM-16","7",,,,,,,,,,,,,,,,,,,,,,,,,,,,"2007-05-17"
"72793024233","2017-12-08T03:15:00","FM-16","7",,,,,,,,,,,,,,,,,,,,,,,,,,,,,,,,,,,,,,"30.53","31","32",,"FG:2 |FG |",,,"96",,"BKN:07 1","30.06","0.50","32","000",,"0",,,,,,,,,,,,,,,,,,,,,,,,,,,,,,,,,,,,,"MET12312/08/17 03:15:02 SPECI KSEA 081115Z 00000KT 1/2SM R16L/1600V2800FT FG BKN001 00/M01 A3053 RMK AO2 TWR VIS 7 T00001006 (TL)","FM-16","7",,,,,,,,,,,,,,,,,,,,,,,,,,,,"2007-05-17"
"72793024233","2017-12-08T03:39:00","FM-16","7",,,,,,,,,,,,,,,,,,,,,,,,,,,,,,,,,,,,,,"30.52","30","30",,"BC:3 FG:2 |FG |",,,"100",,"SCT:04 1","30.05","0.75","30","000",,"0",,,,,,,,,,,,,,,,,,,,,,,,,,,,,,,,,,,,,"MET12712/08/17 03:39:02 SPECI KSEA 081139Z 00000KT 3/4SM R16L/3000VP6000FT BCFG SCT001 M01/M01 A3052 RMK AO2 TWR VIS 7 T10111011 (TL)","FM-16","7",,,,,,,,,,,,,,,,,,,,,,,,,,,,"2007-05-17"
"72793024233","2017-12-08T03:51:00","FM-16","6",,,,,,,,,,,,,,,,,,,,,,,,,,,,,,,,,,,,,,"30.52","28","30",,"BC:3 FG:2 |FG |",,,"93",,"FEW:02 1","30.05","3.00","29","000",,"0",,,,,,,,,,,,,,,,,,,,,,,,,,,,,,,,,,,,,"MET10312/08/17 03:51:02 SPECI KSEA 081151Z 00000KT 3SM BCFG FEW001 M01/M02 A3052 RMK AO2 TWR VIS 10 FIBI (TL)","FM-16","6",,,,,,,,,,,,,,,,,,,,,,,,,,,,"2007-05-17"
"72793024233","2017-12-08T03:53:00","FM-15","7",,,,,,,,,,,,,,,,,,,,,,,,,,,,,,,,,,,,,,"30.52","30","30","0.00","BC:3 FG:2 |FG |","-0.01","0","100","30.55","FEW:02 1","30.05","3.00","30","000",,"0",,,,,,,,,,,,,,,,,,,,,,,,,,,,,,,,,,,,,"MET13312/08/17 03:53:02 METAR KSEA 081153Z 00000KT 3SM BCFG FEW001 M01/M01 A3052 RMK AO2 TWR VIS 10 SLP345 T10111011 10050 21011 50002 (TL)","FM-15","7",,,,,,,,,,,,,,,,,,,,,,,,,,,,"2007-05-17"
"72793024233","2017-12-08T04:00:00","FM-12","4",,,,,,,,,,,,,,,,,,,,,,,,,,,,,,,,,,,,,,,"30","30",,,"0.01","9","100","30.55","1","30.03","2.98","30","000",,"0",,,,,,,,,,,,,,,,,,,,,,,,,,,,,,,,,,,,,"SYN08072793 31048 20000 11011 21011 30170 40345 50002 91153 333 10111 21011 555 90812=","FM-12","4",,,,,,,,,,,,,,,,,,,,,,,,,,,,"2007-05-17"
"72793024233","2017-12-08T04:53:00","FM-15","7",,,,,,,,,,,,,,,,,,,,,,,,,,,,,,,,,,,,,,"30.52","30","31","0.00",,,,"96","30.55","FEW:02 1","30.05","8.00","31","310",,"3",,,,,,,,,,,,,,,,,,,,,,,,,,,,,,,,,,,,,"MET09912/08/17 04:53:02 METAR KSEA 081253Z 31003KT 8SM FEW001 M01/M01 A3052 RMK AO2 SLP345 T10061011 (TL)","FM-15","7",,,,,,,,,,,,,,,,,,,,,,,,,,,,"2007-05-17"
"72793024233","2017-12-08T05:53:00","FM-15","7",,,,,,,,,,,,,,,,,,,,,,,,,,,,,,,,,,,,,,"30.51","29","30","0.00","BR:1 ||",,,"96","30.54","SCT:04 1","30.04","0.75","30","050",,"7",,,,,,,,,,,,,,,,,,,,,,,,,,,,,,,,,,,,,"MET13212/08/17 05:53:02 METAR KSEA 081353Z 05006KT 3/4SM R16L/5500VP6000FT BR SCT001 M01/M02 A3051 RMK AO2 TWR VIS 7 SLP343 T10111017 (JC)","FM-15","7",,,,,,,,,,,,,,,,,,,,,,,,,,,,"2007-05-17"
"72793024233","2017-12-08T06:26:00","FM-16","7",,,,,,,,,,,,,,,,,,,,,,,,,,,,,,,,,,,,,,"30.50","29","30",,"BC:3 FG:2 |FG |",,,"96",,"FEW:02 1","30.03","4.00","30","040",,"6",,,,,,,,,,,,,,,,,,,,,,,,,,,,,,,,,,,,,"MET11712/08/17 06:26:02 SPECI KSEA 081426Z 04005KT 4SM R16L/5000VP6000FT BCFG FEW001 M01/M02 A3050 RMK AO2 T10111017 $ (JC)","FM-16","7",,,,,,,,,,,,,,,,,,,,,,,,,,,,"2007-05-17"
"72793024233","2017-12-08T06:53:00","FM-15","7",,,,,,,,,,,,,,,,,,,,,,,,,,,,,,,,,,,,,,"30.50","29","31","0.00","BC:3 FG:2 |FG |","+0.02","8","92","30.53","FEW:02 1 FEW:02 200","30.03","5.00","30","030",,"5",,,,,,,,,,,,,,,,,,,,,,,,,,,,,,,,,,,,,"MET11912/08/17 06:53:02 METAR KSEA 081453Z 03004KT 5SM BCFG FEW001 FEW200 M01/M02 A3050 RMK AO2 SLP337 T10061017 58007 $ (JC)","FM-15","7",,,,,,,,,,,,,,,,,,,,,,,,,,,,"2007-05-17"
"72793024233","2017-12-08T07:53:00","FM-15","7",,,,,,,,,,,,,,,,,,,,,,,,,,,,,,,,,,,,,,"30.49","30","31","0.00","BC:3 FG:2 |FG |",,,"96","30.53","FEW:02 2 SCT:04 200","30.02","8.00","31","330",,"5",,,,,,,,,,,,,,,,,,,,,,,,,,,,,,,,,,,,,"MET11112/08/17 07:53:02 METAR KSEA 081553Z 33004KT 8SM BCFG FEW002 SCT200 M01/M01 A3049 RMK AO2 SLP337 T10061011 (JC)","FM-15","7",,,,,,,,,,,,,,,,,,,,,,,,,,,,"2007-05-17"
"72793024233","2017-12-08T08:43:00","FM-16","7",,,,,,,,,,,,,,,,,,,,,,,,,,,,,,,,,,,,,,"30.50","32","32",,"FG:2 |FG |",,,"100",,"BKN:07 1","30.03","0.50","32","030",,"3",,,,,,,,,,,,,,,,,,,,,,,,,,,,,,,,,,,,,"MET12312/08/17 08:43:02 SPECI KSEA 081643Z 03003KT 1/2SM R16L/5000VP6000FT FG BKN001 00/00 A3050 RMK AO2 TWR VIS 7 T00000000 (JC)","FM-16","7",,,,,,,,,,,,,,,,,,,,,,,,,,,,"2007-05-17"
"72793024233","2017-12-08T08:53:00","FM-15","7",,,,,,,,,,,,,,,,,,,,,,,,,,,,,,,,,,,,,,"30.50","31","32","0.00","FG:2 |FG |",,,"96","30.53","BKN:07 1 BKN:07 250","30.03","0.25","32","050",,"6",,,,,,,,,,,,,,,,,,,,,,,,,,,,,,,,,,,,,"MET13712/08/17 08:53:02 METAR KSEA 081653Z 05005KT 1/4SM R16L/1400V4000FT FG BKN001 BKN250 00/M01 A3050 RMK AO2 TWR VIS 7 SLP338 T00001006 (JC)","FM-15","7",,,,,,,,,,,,,,,,,,,,,,,,,,,,"2007-05-17"
"72793024233","2017-12-08T09:05:00","FM-16","7",,,,,,,,,,,,,,,,,,,,,,,,,,,,,,,,,,,,,,"30.50","32","32",,"FG:2 |FG |",,,"100",,"OVC:08 1","30.03","0.25","32","050",,"5",,,,,,,,,,,,,,,,,,,,,,,,,,,,,,,,,,,,,"MET12212/08/17 09:05:02 SPECI KSEA 081705Z 05004KT 1/4SM R16L/0600V1000FT FG OVC001 00/00 A3050 RMK AO2 TWR VIS 7 T00000000 (JC)","FM-16","7",,,,,,,,,,,,,,,,,,,,,,,,,,,,"2007-05-17"
"72793024233","2017-12-08T09:51:00","FM-16","6",,,,,,,,,,,,,,,,,,,,,,,,,,,,,,,,,,,,,,"30.51","32","32",,"FG:2 |FG |",,,"100",,"OVC:08 1","30.04","0.25","32","000",,"0",,,,,,,,,,,,,,,,,,,,,,,,,,,,,,,,,,,,,"MET11712/08/17 09:51:02 SPECI KSEA 081751Z 00000KT 1/4SM R16L/1000V3000FT FG OVC001 00/00 A3051 RMK AO2 TWR VIS 7 FIBI (JC)","FM-16","6",,,,,,,,,,,,,,,,,,,,,,,,,,,,"2007-05-17"
"72793024233","2017-12-08T09:53:00","FM-15","7",,,,,,,,,,,,,,,,,,,,,,,,,,,,,,,,,,,,,,"30.51","32","32","0.00","FG:2 |FG |","-0.01","3","100","30.54","OVC:08 1","30.04","0.25","32","000",,"0",,,,,,,,,,,,,,,,,,,,,,,,,,,,,,,,,,,,,"MET14712/08/17 09:53:02 METAR KSEA 081753Z 00000KT 1/4SM R16L/1000V3000FT FG OVC001 00/00 A3051 RMK AO2 TWR VIS 7 SLP341 T00000000 10000 21017 53002 (JC)","FM-15","7",,,,,,,,,,,,,,,,,,,,,,,,,,,,"2007-05-17"
"72793024233","2017-12-08T10:00:00","FM-12","4",,,,,,,,,,,,,,,,,,,,,,,,,,,,,,,,,,,,,,,"32","32",,"||FG","-0.01","3","100","30.54","1","30.02","0.25","32","000",,"0",,,,,,,,,,,,,,,,,,,,,,,,,,,,,,,,,,,,,"SYN08672793 31004 80000 10000 20000 30166 40341 53002 741// 91753 333 10050 21017 555 90818=","FM-12","4",,,,,,,,,,,,,,,,,,,,,,,,,,,,"2007-05-17"
"72793024233","2017-12-08T10:02:00","FM-16","7",,,,,,,,,,,,,,,,,,,,,,,,,,,,,,,,,,,,,,"30.51","32","32",,"FG:2 |FG |",,,"100",,"OVC:08 1","30.04","0.25","32","000",,"0",,,,,,,,,,,,,,,,,,,,,,,,,,,,,,,,,,,,,"MET12212/08/17 10:02:02 SPECI KSEA 081802Z 00000KT 1/4SM R16L/1000V5000FT FG OVC001 00/00 A3051 RMK AO2 TWR VIS 7 T00000000 (JC)","FM-16","7",,,,,,,,,,,,,,,,,,,,,,,,,,,,"2007-05-17"
"72793024233","2017-12-08T10:07:00","FM-16","7",,,,,,,,,,,,,,,,,,,,,,,,,,,,,,,,,,,,,,"30.51","33","33",,"FG:2 |FG |",,,"100",,"OVC:08 1","30.04","0.25","33","000",,"0",,,,,,,,,,,,,,,,,,,,,,,,,,,,,,,,,,,,,"MET12212/08/17 10:07:02 SPECI KSEA 081807Z 00000KT 1/4SM R16L/1200V1600FT FG OVC001 01/01 A3051 RMK AO2 TWR VIS 7 T00060006 (JC)","FM-16","7",,,,,,,,,,,,,,,,,,,,,,,,,,,,"2007-05-17"
"72793024233","2017-12-08T10:53:00","FM-15","7",,,,,,,,,,,,,,,,,,,,,,,,,,,,,,,,,,,,,,"30.50","35","36","0.00","FG:2 |FG |",,,"97","30.53","VV:09 1","30.03","0.25","36","000",,"0",,,,,,,,,,,,,,,,,,,,,,,,,,,,,,,,,,,,,"MET11812/08/17 10:53:02 METAR KSEA 081853Z 00000KT 1/4SM R16L/0800V1800FT FG VV001 02/02 A3050 RMK AO2 SLP339 T00220017 (JC)","FM-15","7",,,,,,,,,,,,,,,,,,,,,,,,,,,,"2007-05-17"
"72793024233","2017-12-08T11:09:00","FM-16","7",,,,,,,,,,,,,,,,,,,,,,,,,,,,,,,,,,,,,,"30.50","35","36",,"FG:2 |FG |",,,"97",,"VV:09 1","30.03","0.25","36","340",,"5",,,,,,,,,,,,,,,,,,,,,,,,,,,,,,,,,,,,,"MET11112/08/17 11:09:02 SPECI KSEA 081909Z 34004KT 1/4SM R16L/1000V4000FT FG VV001 02/02 A3050 RMK AO2 T00220017 (JC)","FM-16","7",,,,,,,,,,,,,,,,,,,,,,,,,,,,"2007-05-17"
"72793024233","2017-12-08T11:44:00","FM-16","7",,,,,,,,,,,,,,,,,,,,,,,,,,,,,,,,,,,,,,"30.49","36","36",,"BR:1 ||",,,"100",,"OVC:08 2","30.02","0.75","36","270",,"3",,,,,,,,,,,,,,,,,,,,,,,,,,,,,,,,,,,,,"MET11212/08/17 11:44:02 SPECI KSEA 081944Z 27003KT 3/4SM R16L/1800V4500FT BR OVC002 02/02 A3049 RMK AO2 T00220022 (JC)","FM-16","7",,,,,,,,,,,,,,,,,,,,,,,,,,,,"2007-05-17"
"72793024233","2017-12-08T11:53:00","FM-15","7",,,,,,,,,,,,,,,,,,,,,,,,,,,,,,,,,,,,,,"30.49","36","36","0.00","BR:1 ||",,,"100","30.52","BKN:07 2 OVC:08 7","30.02","0.75","36","000",,"0",,,,,,,,,,,,,,,,,,,,,,,,,,,,,,,,,,,,,"MET12612/08/17 11:53:02 METAR KSEA 081953Z 00000KT 3/4SM R16L/2600V5500FT BR BKN002 OVC007 02/02 A3049 RMK AO2 SLP335 T00220022 (JC)","FM-15","7",,,,,,,,,,,,,,,,,,,,,,,,,,,,"2007-05-17"
"72793024233","2017-12-08T12:25:00","FM-16","7",,,,,,,,,,,,,,,,,,,,,,,,,,,,,,,,,,,,,,"30.48","37","39",,"BR:1 ||",,,"93",,"SCT:04 2 SCT:04 250","30.01","1.00","38","000",,"0",,,,,,,,,,,,,,,,,,,,,,,,,,,,,,,,,,,,,"MET11312/08/17 12:25:02 SPECI KSEA 082025Z 00000KT 1SM R16L/P6000FT BR SCT002 SCT250 04/03 A3048 RMK AO2 T00390028 (JC)","FM-16","7",,,,,,,,,,,,,,,,,,,,,,,,,,,,"2007-05-17"
"72793024233","2017-12-08T12:53:00","FM-15","7",,,,,,,,,,,,,,,,,,,,,,,,,,,,,,,,,,,,,,"30.47","36","42","0.00","HZ:7 |FU |HZ","+0.03","8","79","30.50","FEW:02 2 BKN:07 250","30.00","2.50","39","000",,"0",,,,,,,,,,,,,,,,,,,,,,,,,,,,,,,,,,,,,"MET11712/08/17 12:53:02 METAR KSEA 082053Z 00000KT 2 1/2SM HZ FEW002 BKN250 06/02 A3047 RMK AO2 SLP329 T00560022 58010 (JC)","FM-15","7",,,,,,,,,,,,,,,,,,,,,,,,,,,,"2007-05-17"
"72793024233","2017-12-08T13:08:00","FM-16","7",,,,,,,,,,,,,,,,,,,,,,,,,,,,,,,,,,,,,,"30.46","36","43",,,,,"76",,"FEW:02 2 BKN:07 250","29.99","7.00","40","000",,"0",,,,,,,,,,,,,,,,,,,,,,,,,,,,,,,,,,,,,"MET09712/08/17 13:08:02 SPECI KSEA 082108Z 00000KT 7SM FEW002 BKN250 06/02 A3046 RMK AO2 T00610022 (JC)","FM-16","7",,,,,,,,,,,,,,,,,,,,,,,,,,,,"2007-05-17"
"72793024233","2017-12-08T13:53:00","FM-15","7",,,,,,,,,,,,,,,,,,,,,,,,,,,,,,,,,,,,,,"30.46","37","41","0.00","BR:1 ||",,,"86","30.49","FEW:02 2 SCT:04 250","29.99","6.00","39","260",,"5",,,,,,,,,,,,,,,,,,,,,,,,,,,,,,,,,,,,,"MET10712/08/17 13:53:02 METAR KSEA 082153Z 26004KT 6SM BR FEW002 SCT250 05/03 A3046 RMK AO2 SLP324 T00500028 (RS)","FM-15","7",,,,,,,,,,,,,,,,,,,,,,,,,,,,"2007-05-17"
"72793024233","2017-12-08T14:53:00","FM-15","7",,,,,,,,,,,,,,,,,,,,,,,,,,,,,,,,,,,,,,"30.46","37","41","0.00",,,,"86","30.49","FEW:02 5 SCT:04 250","29.99","7.00","39","000",,"0",,,,,,,,,,,,,,,,,,,,,,,,,,,,,,,,,,,,,"MET10412/08/17 14:53:02 METAR KSEA 082253Z 00000KT 7SM FEW005 SCT250 05/03 A3046 RMK AO2 SLP324 T00500028 (RS)","FM-15","7",,,,,,,,,,,,,,,,,,,,,,,,,,,,"2007-05-17"
"72793024233","2017-12-08T15:53:00","FM-15","7",,,,,,,,,,,,,,,,,,,,,,,,,,,,,,,,,,,,,,"30.45","36","40","0.00",,"+0.02","6","86","30.48","FEW:02 5 SCT:04 200 BKN:07 250","29.98","10.00","38","280",,"3",,,,,,,,,,,,,,,,,,,,,,,,,,,,,,,,,,,,,"MET13012/08/17 15:53:02 METAR KSEA 082353Z 28003KT 10SM FEW005 SCT200 BKN250 04/02 A3045 RMK AO2 SLP322 T00440022 10061 20000 56007 (RS)","FM-15","7",,,,,,,,,,,,,,,,,,,,,,,,,,,,"2007-05-17"
"72793024233","2017-12-08T16:00:00","FM-12","4",,,,,,,,,,,,,,,,,,,,,,,,,,,,,,,,,,,,,,,"36","40",,,"+0.02","6","86","30.48","5","29.96","9.94","38","280",,"3",,,,,,,,,,,,,,,,,,,,,,,,,,,,,,,,,,,,,"SYN08072793 32266 62803 10044 20022 30146 40322 56007 92353 333 10061 21010 555 90900=","FM-12","4",,,,,,,,,,,,,,,,,,,,,,,,,,,,"2007-05-17"
"72793024233","2017-12-08T16:53:00","FM-15","7",,,,,,,,,,,,,,,,,,,,,,,,,,,,,,,,,,,,,,"30.45","36","38","0.00","BR:1 ||",,,"93","30.48","FEW:02 3 FEW:02 200 SCT:04 250","29.98","6.00","37","000",,"0",,,,,,,,,,,,,,,,,,,,,,,,,,,,,,,,,,,,,"MET10912/08/17 16:53:01 METAR KSEA 090053Z 00000KT 6SM BR FEW003 FEW200 SCT250 03/02 A3045 RMK AO2 SLP321 T00330022","FM-15","7",,,,,,,,,,,,,,,,,,,,,,,,,,,,"2007-05-17"
"72793024233","2017-12-08T17:53:00","FM-15","7",,,,,,,,,,,,,,,,,,,,,,,,,,,,,,,,,,,,,,"30.45","36","37","0.00","BR:1 ||",,,"96","30.48","X:10 0","29.98","1.00","37","200",,"5",,,,,,,,,,,,,,,,,,,,,,,,,,,,,,,,,,,,,"MET12212/08/17 17:53:01 METAR KSEA 090153Z 20004KT 1SM R16L/0700V2800FT BR BKN000 03/02 A3045 RMK AO2 SLP323 BR BKN000 T00280022","FM-15","7",,,,,,,,,,,,,,,,,,,,,,,,,,,,"2007-05-17"
"72793024233","2017-12-08T18:00:00","FM-16","7",,,,,,,,,,,,,,,,,,,,,,,,,,,,,,,,,,,,,,"30.45","37","37",,"FG:2 |FG |",,,"100",,"X:10 0","29.98","0.50","37","180",,"5",,,,,,,,,,,,,,,,,,,,,,,,,,,,,,,,,,,,,"MET11712/08/17 18:00:01 SPECI KSEA 090200Z 18004KT 1/2SM R16L/0600V0800FT FG BKN000 03/03 A3045 RMK AO2 FG BKN000 T00280028","FM-16","7",,,,,,,,,,,,,,,,,,,,,,,,,,,,"2007-05-17"
"72793024233","2017-12-08T18:08:00","FM-16","7",,,,,,,,,,,,,,,,,,,,,,,,,,,,,,,,,,,,,,"30.45","36","36",,"FG:2 |FG |",,,"100",,"VV:09 1","29.98","0.25","36","160",,"5",,,,,,,,,,,,,,,,,,,,,,,,,,,,,,,,,,,,,"MET10612/08/17 18:08:01 SPECI KSEA 090208Z 16004KT 1/4SM R16L/0600V0700FT FG VV001 02/02 A3045 RMK AO2 T00220022","FM-16","7",,,,,,,,,,,,,,,,,,,,,,,,,,,,"2007-05-17"
"72793024233","2017-12-08T18:15:00","FM-16","7",,,,,,,,,,,,,,,,,,,,,,,,,,,,,,,,,,,,,,"30.45","36","36",,"FG:2 |FG s |",,,"100",,"VV:09 1","29.98","0.12","36","160",,"5",,,,,,,,,,,,,,,,,,,,,,,,,,,,,,,,,,,,,"MET10112/08/17 18:15:01 SPECI KSEA 090215Z 16004KT 1/8SM R16L/0600FT FG VV001 02/02 A3045 RMK AO2 T00220022","FM-16","7",,,,,,,,,,,,,,,,,,,,,,,,,,,,"2007-05-17"
"72793024233","2017-12-08T18:53:00","FM-15","7",,,,,,,,,,,,,,,,,,,,,,,,,,,,,,,,,,,,,,"30.44","36","36","0.00","FG:2 |FG s |","+0.01","8","100","30.47","VV:09 1","29.97","0.12","36","160",,"5",,,,,,,,,,,,,,,,,,,,,,,,,,,,,,,,,,,,,"MET12112/08/17 18:53:02 METAR KSEA 090253Z 16004KT 1/8SM R16L/0600V0700FT FG VV001 02/02 A3044 RMK AO2 SLP320 T00220022 58002 $","FM-15","7",,,,,,,,,,,,,,,,,,,,,,,,,,,,"2007-05-17"
"72793024233","2017-12-08T19:10:00","FM-16","7",,,,,,,,,,,,,,,,,,,,,,,,,,,,,,,,,,,,,,"30.44","35","35",,"FG:2 |FG |",,,"100",,"VV:09 1","29.97","0.25","35","130",,"6",,,,,,,,,,,,,,,,,,,,,,,,,,,,,,,,,,,,,"MET10812/08/17 19:10:02 SPECI KSEA 090310Z 13005KT 1/4SM R16L/1000V1600FT FG VV001 02/02 A3044 RMK AO2 T00170017 $","FM-16","7",,,,,,,,,,,,,,,,,,,,,,,,,,,,"2007-05-17"
"72793024233","2017-12-08T19:22:00","FM-16","7",,,,,,,,,,,,,,,,,,,,,,,,,,,,,,,,,,,,,,"30.45","34","34",,"FG:2 |FG |",,,"100",,"VV:09 1","29.98","0.25","34","000",,"0",,,,,,,,,,,,,,,,,,,,,,,,,,,,,,,,,,,,,"MET10912/08/17 19:22:02 SPECI KSEA 090322Z 00000KT 1/4SM R16L/1800VP6000FT FG VV001 01/01 A3045 RMK AO2 T00110011 $","FM-16","7",,,,,,,,,,,,,,,,,,,,,,,,,,,,"2007-05-17"
"72793024233","2017-12-08T19:35:00","FM-16","7",,,,,,,,,,,,,,,,,,,,,,,,,,,,,,,,,,,,,,"30.45","33","33",,"BR:1 ||",,,"100",,"X:10 0","29.98","2.00","33","150",,"3",,,,,,,,,,,,,,,,,,,,,,,,,,,,,,,,,,,,,"MET11812/08/17 19:35:02 SPECI KSEA 090335Z 15003KT 2SM R16L/6000VP6000FT BR BKN000 01/01 A3045 RMK AO2 BR BKN000 T00060006 $","FM-16","7",,,,,,,,,,,,,,,,,,,,,,,,,,,,"2007-05-17"
"72793024233","2017-12-08T19:40:00","FM-16","7",,,,,,,,,,,,,,,,,,,,,,,,,,,,,,,,,,,,,,"30.45","33","33",,"BR:1 ||",,,"100",,"X:10 0","29.98","2.00","33","130",,"5",,,,,,,,,,,,,,,,,,,,,,,,,,,,,,,,,,,,,"MET11812/08/17 19:40:02 SPECI KSEA 090340Z 13004KT 2SM R16L/6000VP6000FT BR SCT000 01/01 A3045 RMK AO2 BR SCT000 T00060006 $","FM-16","7",,,,,,,,,,,,,,,,,,,,,,,,,,,,"2007-05-17"
"72793024233","2017-12-08T19:51:00","FM-16","6",,,,,,,,,,,,,,,,,,,,,,,,,,,,,,,,,,,,,,"30.45","34","34",,"BR:1 ||",,,"100",,"X:10 0","29.98","3.00","34","000",,"0",,,,,,,,,,,,,,,,,,,,,,,,,,,,,,,,,,,,,"MET10012/08/17 19:51:03 SPECI KSEA 090351Z 00000KT 3SM BR SCT000 01/01 A3045 RMK AO2 BR SCT000 $ FIBI (RS)","FM-16","6",,,,,,,,,,,,,,,,,,,,,,,,,,,,"2007-05-17"
"72793024233","2017-12-08T19:53:00","FM-15","7",,,,,,,,,,,,,,,,,,,,,,,,,,,,,,,,,,,,,,"30.45","33","33","0.00","BR:1 ||",,,"100","30.48","X:10 0","29.98","3.00","33","000",,"0",,,,,,,,,,,,,,,,,,,,,,,,,,,,,,,,,,,,,"MET10712/08/17 19:53:02 METAR KSEA 090353Z 00000KT 3SM BR FEW000 01/01 A3045 RMK AO2 SLP321 BR FEW000 T00060006 $","FM-15","7",,,,,,,,,,,,,,,,,,,,,,,,,,,,"2007-05-17"
"72793024233","2017-12-08T20:26:00","FM-16","7",,,,,,,,,,,,,,,,,,,,,,,,,,,,,,,,,,,,,,"30.45","33","34",,"BR:1 ||",,,"97",,"X:10 0","29.98","2.00","34","000",,"0",,,,,,,,,,,,,,,,,,,,,,,,,,,,,,,,,,,,,"MET11812/08/17 20:26:02 SPECI KSEA 090426Z 00000KT 2SM R16L/0400VP6000FT BR SCT000 01/01 A3045 RMK AO2 BR SCT000 T00110006 $","FM-16","7",,,,,,,,,,,,,,,,,,,,,,,,,,,,"2007-05-17"
"72793024233","2017-12-08T20:34:00","FM-16","7",,,,,,,,,,,,,,,,,,,,,,,,,,,,,,,,,,,,,,"30.45","33","34",,"BR:1 ||",,,"97",,"X:10 0","29.98","2.00","34","000",,"0",,,,,,,,,,,,,,,,,,,,,,,,,,,,,,,,,,,,,"MET12712/08/17 20:34:02 SPECI KSEA 090434Z 00000KT 2SM R16L/0400V0500FT BR SCT000 01/01 A3045 RMK AO2 VIS N 1/2 BR SCT000 T00110006 $","FM-16","7",,,,,,,,,,,,,,,,,,,,,,,,,,,,"2007-05-17"
"72793024233","2017-12-08T20:53:00","FM-15","7",,,,,,,,,,,,,,,,,,,,,,,,,,,,,,,,,,,,,,"30.45","32","33","0.00","BR:1 ||",,,"96","30.48","X:10 0","29.98","2.00","33","000",,"0",,,,,,,,,,,,,,,,,,,,,,,,,,,,,,,,,,,,,"MET13612/08/17 20:53:02 METAR KSEA 090453Z 00000KT 2SM R16L/1200V3500FT BR SCT000 01/00 A3045 RMK AO2 SLP323 VIS W-N 1/2 BR SCT000 T00060000 $","FM-15","7",,,,,,,,,,,,,,,,,,,,,,,,,,,,"2007-05-17"
"72793024233","2017-12-08T21:19:00","FM-16","7",,,,,,,,,,,,,,,,,,,,,,,,,,,,,,,,,,,,,,"30.45","32","33",,"BR:1 ||",,,"96",,"X:10 0","29.98","3.00","33","150",,"5",,,,,,,,,,,,,,,,,,,,,,,,,,,,,,,,,,,,,"MET11012/08/17 21:19:02 SPECI KSEA 090519Z 15004KT 3SM BR SCT000 01/00 A3045 RMK AO2 VIS W-N 2 BR SCT000 T00060000 $","FM-16","7",,,,,,,,,,,,,,,,,,,,,,,,,,,,"2007-05-17"
"72793024233","2017-12-08T21:53:00","FM-15","7",,,,,,,,,,,,,,,,,,,,,,,,,,,,,,,,,,,,,,"30.45","33","34","0.00",,"-0.01","0","97","30.48","SCT:04 250","29.98","7.00","34","140",,"3",,,,,,,,,,,,,,,,,,,,,,,,,,,,,,,,,,,,,"MET11212/08/17 21:53:02 METAR KSEA 090553Z 14003KT 7SM SCT250 01/01 A3045 RMK AO2 SLP322 T00110006 10044 20000 50002 $","FM-15","7",,,,,,,,,,,,,,,,,,,,,,,,,,,,"2007-05-17"
"72793024233","2017-12-08T22:00:00","FM-12","4",,,,,,,,,,,,,,,,,,,,,,,,,,,,,,,,,,,,,,,"33","34",,,"0.01","9","97","30.48",,"29.96","6.84","34","140",,"3",,,,,,,,,,,,,,,,,,,,,,,,,,,,,,,,,,,,,"SYN08072793 32961 41403 10011 20006 30146 40322 50002 90553 333 10050 21010 555 90906=","FM-12","4",,,,,,,,,,,,,,,,,,,,,,,,,,,,"2007-05-17"
"72793024233","2017-12-08T22:53:00","FM-15","7",,,,,,,,,,,,,,,,,,,,,,,,,,,,,,,,,,,,,,"30.45","30","36","0.00",,,,"79","30.47","SCT:04 250","29.98","10.00","34","120",,"6",,,,,,,,,,,,,,,,,,,,,,,,,,,,,,,,,,,,,"MET09612/08/17 22:53:02 METAR KSEA 090653Z 12005KT 10SM SCT250 02/M01 A3045 RMK AO2 SLP320 T00221011 $","FM-15","7",,,,,,,,,,,,,,,,,,,,,,,,,,,,"2007-05-17"
"72793024233","2017-12-08T23:53:00","FM-15","7",,,,,,,,,,,,,,,,,,,,,,,,,,,,,,,,,,,,,,"30.43","29","35","0.00",,,,"78","30.47","SCT:04 250","29.96","10.00","33","000",,"0",,,,,,,,,,,,,,,,,,,,,,,,,,,,,,,,,,,,,"MET10612/08/17 23:53:02 METAR KSEA 090753Z 00000KT 10SM SCT250 02/M02 A3043 RMK AO2 SLP317 T00171017 400611017 $","FM-15","7",,,,,,,,,,,,,,,,,,,,,,,,,,,,"2007-05-17"
"72793024233","2017-12-08T23:59:00","SOD  ","6",,,,,,,,,,,,,,,"33","36","93","30.51","30.01","34","2.4","0","-5.1","29","43","29","100","11","0.00","0","0.0","120","9","FG FZFG BR HZ",,,,,,,,,,,,,,,,,,,,,,,,,,,,,,,,,,,,,,,,,,,,,,,,,,,,,,,,"SOD73024 HR PRECIPITATION (IN):0.00  24 HR MAX TEMP (F):43 24 HR MAX TEMP TIME (LST):1331 24 HR MIN TEMP (F):29 24 HR MIN TEMP TIME (LST):0739 AVERAGE STATION PRESSURE:30.005 MINIMUM SEA LEVEL PRESSURE:30.46 TIME OF OCCURRENCE:2348 PEAK WIND SPEED (MPH):11  PEAK WIND DIR (DEG):100 PEAK WIND TIME (LST):2234  FASTEST 2MIN SPEED (MPH):9  FASTEST 2MIN DIR (DEG):120 FASTEST 2MIN TIME (LST):2235 AVERAGE WIND SPEED (MPH):2.4  24 HR AVG TEMP (F):36 HEATING DEGREE DAYS:29  COOLING DEGREE DAYS:0   LATEST DAY MAX TEMP (0700-1900 LST):43  LATEST NIGHT MIN TEMP(1900-0800 LST):29 HOURLY INCREMENTAL PRECIPITATION VALUES (IN):.00 0.00 0.00 0.00 0.00 0.00 0.00 0.00 0.00 0.00 0.00 0.00 0.00 0.00 0.00 0.00 0.00 0.00 0.00 0.00 0.00 0.00 0.00 0.00","SOD  ","6",,,,,,,,,,,,,,,,,,,,,,,,,"0744","1618",,"2007-05-17"
"72793024233","2017-12-09T00:53:00","FM-15","7",,,,,,,,,,,,,,,,,,,,,,,,,,,,,,,,,,,,,,"30.43","28","32","0.00",,"+0.02","6","85","30.46","SCT:04 250","29.96","10.00","31","000",,"0",,,,,,,,,,,,,,,,,,,,,,,,,,,,,,,,,,,,,"MET10712/09/17 00:53:02 METAR KSEA 090853Z 00000KT 10SM SCT250 00/M02 A3043 RMK AO2 SLP315 T00001022 56006 $ (LC)","FM-15","7",,,,,,,,,,,,,,,,,,,,,,,,,,,,"2007-05-17"
"72793024233","2017-12-09T01:53:00","FM-15","7",,,,,,,,,,,,,,,,,,,,,,,,,,,,,,,,,,,,,,"30.43","29","32","0.00",,,,"88","30.46","SCT:04 250","29.96","10.00","31","000",,"0",,,,,,,,,,,,,,,,,,,,,,,,,,,,,,,,,,,,,"MET10112/09/17 01:53:02 METAR KSEA 090953Z 00000KT 10SM SCT250 00/M02 A3043 RMK AO2 SLP314 T00001017 $ (LC)","FM-15","7",,,,,,,,,,,,,,,,,,,,,,,,,,,,"2007-05-17"
"72793024233","2017-12-09T02:23:00","FM-16","7",,,,,,,,,,,,,,,,,,,,,,,,,,,,,,,,,,,,,,"30.44","31","32",,"FG:2 |FG |",,,"96",,"BKN:07 1","29.97","0.50","32","000",,"0",,,,,,,,,,,,,,,,,,,,,,,,,,,,,,,,,,,,,"MET11112/09/17 02:23:02 SPECI KSEA 091023Z 00000KT 1/2SM R16L/P6000FT FG BKN001 00/M01 A3044 RMK AO2 T00001006 $ (LC)","FM-16","7",,,,,,,,,,,,,,,,,,,,,,,,,,,,"2007-05-17"
"72793024233","2017-12-09T02:44:00","FM-16","7",,,,,,,,,,,,,,,,,,,,,,,,,,,,,,,,,,,,,,"30.44","32","33",,"FG:2 |FG |",,,"96",,"VV:09 1","29.97","0.25","33","000",,"0",,,,,,,,,,,,,,,,,,,,,,,,,,,,,,,,,,,,,"MET12312/09/17 02:44:02 SPECI KSEA 091044Z 00000KT 1/4SM R16L/0800V1800FT FG VV001 01/00 A3044 RMK AO2 TWR VIS 7 T00060000 $ (LC)","FM-16","7",,,,,,,,,,,,,,,,,,,,,,,,,,,,"2007-05-17"
"72793024233","2017-12-09T02:53:00","FM-15","7",,,,,,,,,,,,,,,,,,,,,,,,,,,,,,,,,,,,,,"30.44","32","32","0.00","FG:2 |FG |",,,"100","30.47","VV:09 1","29.97","0.25","32","000",,"0",,,,,,,,,,,,,,,,,,,,,,,,,,,,,,,,,,,,,"MET13012/09/17 02:53:02 METAR KSEA 091053Z 00000KT 1/4SM R16L/0800V1000FT FG VV001 00/00 A3044 RMK AO2 TWR VIS 7 SLP317 T00000000 $ (LC)","FM-15","7",,,,,,,,,,,,,,,,,,,,,,,,,,,,"2007-05-17"
"72793024233","2017-12-09T03:51:00","FM-16","6",,,,,,,,,,,,,,,,,,,,,,,,,,,,,,,,,,,,,,"30.43","34","34",,"FG:2 |FG s |",,,"100",,"VV:09 1","29.96","0.12","34","000",,"0",,,,,,,,,,,,,,,,,,,,,,,,,,,,,,,,,,,,,"MET11812/09/17 03:51:02 SPECI KSEA 091151Z 00000KT 1/8SM R16L/0500V0700FT FG VV001 01/01 A3043 RMK AO2 TWR VIS 7 $ FIBI (LC)","FM-16","6",,,,,,,,,,,,,,,,,,,,,,,,,,,,"2007-05-17"
"72793024233","2017-12-09T03:53:00","FM-15","7",,,,,,,,,,,,,,,,,,,,,,,,,,,,,,,,,,,,,,"30.43","34","34","0.00","FG:2 |FG s |","-0.00","0","100","30.46","VV:09 1","29.96","0.12","34","140",,"3",,,,,,,,,,,,,,,,,,,,,,,,,,,,,,,,,,,,,"MET14812/09/17 03:53:02 METAR KSEA 091153Z 14003KT 1/8SM R16L/0500V0700FT FG VV001 01/01 A3043 RMK AO2 TWR VIS 7 SLP316 T00110011 10033 21006 50001 $ (LC)","FM-15","7",,,,,,,,,,,,,,,,,,,,,,,,,,,,"2007-05-17"
"72793024233","2017-12-09T04:00:00","FM-12","4",,,,,,,,,,,,,,,,,,,,,,,,,,,,,,,,,,,,,,,"34","34",,"||FG","0.00","9","100","30.46","1","29.94","0.12","34","140",,"3",,,,,,,,,,,,,,,,,,,,,,,,,,,,,,,,,,,,,"SYN08672793 31002 91403 10011 20011 30140 40316 50001 741// 91153 333 10061 21006 555 90912=","FM-12","4",,,,,,,,,,,,,,,,,,,,,,,,,,,,"2007-05-17"
"72793024233","2017-12-09T04:17:00","FM-16","7",,,,,,,,,,,,,,,,,,,,,,,,,,,,,,,,,,,,,,"30.42","33","33",,"FG:2 |FG s |",,,"100",,"VV:09 1","29.95","0.12","33","140",,"6",,,,,,,,,,,,,,,,,,,,,,,,,,,,,,,,,,,,,"MET12412/09/17 04:17:02 SPECI KSEA 091217Z 14005KT 1/8SM R16L/1600VP6000FT FG VV001 01/01 A3042 RMK AO2 TWR VIS 7 T00060006 $ (LC)","FM-16","7",,,,,,,,,,,,,,,,,,,,,,,,,,,,"2007-05-17"
"72793024233","2017-12-09T04:51:00","FM-16","6",,,,,,,,,,,,,,,,,,,,,,,,,,,,,,,,,,,,,,"30.43","30","30",,"BR:1 ||",,,"100",,"SCT:04 1 BKN:07 250","29.96","5.00","30","000",,"0",,,,,,,,,,,,,,,,,,,,,,,,,,,,,,,,,,,,,"MET11612/09/17 04:51:02 SPECI KSEA 091251Z 00000KT 5SM R16L/2400V3500FT BR SCT001 BKN250 M01/M01 A3043 RMK AO2 $ FIBI (LC)","FM-16","6",,,,,,,,,,,,,,,,,,,,,,,,,,,,"2007-05-17"
"72793024233","2017-12-09T04:53:00","FM-15","7",,,,,,,,,,,,,,,,,,,,,,,,,,,,,,,,,,,,,,"30.43","31","31","0.00","BR:1 ||",,,"100","30.46","SCT:04 1 BKN:07 230","29.96","5.00","31","000",,"0",,,,,,,,,,,,,,,,,,,,,,,,,,,,,,,,,,,,,"MET13712/09/17 04:53:02 METAR KSEA 091253Z 00000KT 5SM R16L/2400VP6000FT BR SCT001 BKN230 M01/M01 A3043 RMK AO2 SLP315 VIS W 1 T10061006 $ (LC)","FM-15","7",,,,,,,,,,,,,,,,,,,,,,,,,,,,"2007-05-17"
"72793024233","2017-12-09T05:53:00","FM-15","7",,,,,,,,,,,,,,,,,,,,,,,,,,,,,,,,,,,,,,"30.43","30","31","0.00","BR:1 ||",,,"96","30.46","FEW:02 1 BKN:07 250","29.96","2.50","31","000",,"0",,,,,,,,,,,,,,,,,,,,,,,,,,,,,,,,,,,,,"MET13312/09/17 05:53:02 METAR KSEA 091353Z 00000KT 2 1/2SM R16L/1600VP6000FT BR FEW001 BKN250 M01/M01 A3043 RMK AO2 SLP315 T10061011 $ (TL)","FM-15","7",,,,,,,,,,,,,,,,,,,,,,,,,,,,"2007-05-17"
"72793024233","2017-12-09T06:07:00","FM-16","7",,,,,,,,,,,,,,,,,,,,,,,,,,,,,,,,,,,,,,"30.42","30","30",,"BC:3 FG:2 |FG |",,,"100",,"FEW:02 1 BKN:07 250","29.95","3.00","30","000",,"0",,,,,,,,,,,,,,,,,,,,,,,,,,,,,,,,,,,,,"MET12412/09/17 06:07:02 SPECI KSEA 091407Z 00000KT 3SM R16L/2200VP6000FT BCFG FEW001 BKN250 M01/M01 A3042 RMK AO2 T10111011 $ (TL)","FM-16","7",,,,,,,,,,,,,,,,,,,,,,,,,,,,"2007-05-17"
"72793024233","2017-12-09T06:53:00","FM-15","7",,,,,,,,,,,,,,,,,,,,,,,,,,,,,,,,,,,,,,"30.41","31","32","0.00",,"+0.02","8","96","30.45","FEW:02 1 SCT:04 250","29.94","10.00","32","000",,"0",,,,,,,,,,,,,,,,,,,,,,,,,,,,,,,,,,,,,"MET11412/09/17 06:53:02 METAR KSEA 091453Z 00000KT 10SM FEW001 SCT250 00/M01 A3041 RMK AO2 SLP310 T00001006 58006 $ (TL)","FM-15","7",,,,,,,,,,,,,,,,,,,,,,,,,,,,"2007-05-17"
"72793024233","2017-12-09T07:53:00","FM-15","7",,,,,,,,,,,,,,,,,,,,,,,,,,,,,,,,,,,,,,"30.40","28","30","0.00",,,,"92","30.43","FEW:02 1 SCT:04 250","29.93","8.00","29","000",,"0",,,,,,,,,,,,,,,,,,,,,,,,,,,,,,,,,,,,,"MET10812/09/17 07:53:02 METAR KSEA 091553Z 00000KT 8SM FEW001 SCT250 M01/M02 A3040 RMK AO2 SLP306 T10111022 $ (TL)","FM-15","7",,,,,,,,,,,,,,,,,,,,,,,,,,,,"2007-05-17"
"72793024233","2017-12-09T08:42:00","FM-16","7",,,,,,,,,,,,,,,,,,,,,,,,,,,,,,,,,,,,,,"30.42","31","32",,"FG:2 |FG |",,,"96",,"BKN:07 1","29.95","0.50","32","000",,"0",,,,,,,,,,,,,,,,,,,,,,,,,,,,,,,,,,,,,"MET11612/09/17 08:42:02 SPECI KSEA 091642Z 00000KT 1/2SM R16L/0800VP6000FT FG BKN001 00/M01 A3042 RMK AO2 T00001006 $ (TL)","FM-16","7",,,,,,,,,,,,,,,,,,,,,,,,,,,,"2007-05-17"
"72793024233","2017-12-09T08:50:00","FM-16","7",,,,,,,,,,,,,,,,,,,,,,,,,,,,,,,,,,,,,,"30.43","32","32",,"FG:2 |FG |",,,"100",,"BKN:07 1","29.96","0.50","32","000",,"0",,,,,,,,,,,,,,,,,,,,,,,,,,,,,,,,,,,,,"MET10412/09/17 08:50:02 SPECI KSEA 091650Z 00000KT 1/2SM R16L/0600V2000FT FG BKN001 00/00 A3043 RMK AO2 $ (TL)","FM-16","7",,,,,,,,,,,,,,,,,,,,,,,,,,,,"2007-05-17"
"72793024233","2017-12-09T08:51:00","FM-16","6",,,,,,,,,,,,,,,,,,,,,,,,,,,,,,,,,,,,,,"30.42","32","32",,"FG:2 |FG s |",,,"100",,"BKN:07 1","29.95","0.12","32","000",,"0",,,,,,,,,,,,,,,,,,,,,,,,,,,,,,,,,,,,,"MET10912/09/17 08:51:02 SPECI KSEA 091651Z 00000KT 1/8SM R16L/0600V2000FT FG BKN001 00/00 A3042 RMK AO2 $ FIBI (TL)","FM-16","6",,,,,,,,,,,,,,,,,,,,,,,,,,,,"2007-05-17"
"72793024233","2017-12-09T08:53:00","FM-15","7",,,,,,,,,,,,,,,,,,,,,,,,,,,,,,,,,,,,,,"30.42","32","32","0.00","FG:2 |FG s |",,,"100","30.45","VV:09 1","29.95","0.12","32","000",,"0",,,,,,,,,,,,,,,,,,,,,,,,,,,,,,,,,,,,,"MET12012/09/17 08:53:02 METAR KSEA 091653Z 00000KT 1/8SM R16L/0600V2000FT FG VV001 00/00 A3042 RMK AO2 SLP313 T00000000 $ (TL)","FM-15","7",,,,,,,,,,,,,,,,,,,,,,,,,,,,"2007-05-17"
"72793024233","2017-12-09T09:53:00","FM-15","7",,,,,,,,,,,,,,,,,,,,,,,,,,,,,,,,,,,,,,"30.43","34","34","0.00","FG:2 |FG s |","-0.03","1","100","30.46","VV:09 1","29.96","0.12","34","000",,"0",,,,,,,,,,,,,,,,,,,,,,,,,,,,,,,,,,,,,"MET13812/09/17 09:53:02 METAR KSEA 091753Z 00000KT 1/8SM R16L/0400V0500FT FG VV001 01/01 A3043 RMK AO2 SLP316 T00110011 10011 21017 51010 $ (TL)","FM-15","7",,,,,,,,,,,,,,,,,,,,,,,,,,,,"2007-05-17"
"72793024233","2017-12-09T10:00:00","FM-12","4",,,,,,,,,,,,,,,,,,,,,,,,,,,,,,,,,,,,,,,"34","34",,"||FG","-0.03","1","100","30.46","1","29.94","0.12","34","000",,"0",,,,,,,,,,,,,,,,,,,,,,,,,,,,,,,,,,,,,"SYN08672793 31002 90000 10011 20011 30140 40316 51010 741// 91753 333 10033 21017 555 90918=","FM-12","4",,,,,,,,,,,,,,,,,,,,,,,,,,,,"2007-05-17"
"72793024233","2017-12-09T10:18:00","FM-16","7",,,,,,,,,,,,,,,,,,,,,,,,,,,,,,,,,,,,,,"30.43","35","35",,"FG:2 |FG |",,,"100",,"BKN:07 1","29.96","0.50","35","000",,"0",,,,,,,,,,,,,,,,,,,,,,,,,,,,,,,,,,,,,"MET11412/09/17 10:18:02 SPECI KSEA 091818Z 00000KT 1/2SM R16L/0500V0600FT FG BKN001 02/02 A3043 RMK AO2 T00170017 $ (TL)","FM-16","7",,,,,,,,,,,,,,,,,,,,,,,,,,,,"2007-05-17"
"72793024233","2017-12-09T10:27:00","FM-16","7",,,,,,,,,,,,,,,,,,,,,,,,,,,,,,,,,,,,,,"30.43","34","35",,"BC:3 FG:2 |FG |",,,"96",,"SCT:04 1","29.96","0.75","35","160",,"5",,,,,,,,,,,,,,,,,,,,,,,,,,,,,,,,,,,,,"MET11712/09/17 10:27:02 SPECI KSEA 091827Z 16004KT 3/4SM R16L/0500VP6000FT BCFG SCT001 02/01 A3043 RMK AO2 T00170011 $ (TL)","FM-16","7",,,,,,,,,,,,,,,,,,,,,,,,,,,,"2007-05-17"
"72793024233","2017-12-09T10:53:00","FM-15","7",,,,,,,,,,,,,,,,,,,,,,,,,,,,,,,,,,,,,,"30.42","35","35","0.00","BC:3 FG:2 |FG |",,,"100","30.45","SCT:04 1","29.95","0.75","35","150",,"5",,,,,,,,,,,,,,,,,,,,,,,,,,,,,,,,,,,,,"MET12412/09/17 10:53:02 METAR KSEA 091853Z 15004KT 3/4SM R16L/1600VP6000FT BCFG SCT001 02/02 A3042 RMK AO2 SLP313 T00170017 $ (TL)","FM-15","7",,,,,,,,,,,,,,,,,,,,,,,,,,,,"2007-05-17"
"72793024233","2017-12-09T11:13:00","FM-16","7",,,,,,,,,,,,,,,,,,,,,,,,,,,,,,,,,,,,,,"30.42","36","36",,"BC:3 FG:2 |FG |",,,"100",,"FEW:02 1","29.95","1.25","36","200",,"6",,,,,,,,,,,,,,,,,,,,,,,,,,,,,,,,,,,,,"MET10112/09/17 11:13:02 SPECI KSEA 091913Z 20005KT 1 1/4SM BCFG FEW001 02/02 A3042 RMK AO2 T00220022 $ (TL)","FM-16","7",,,,,,,,,,,,,,,,,,,,,,,,,,,,"2007-05-17"
"72793024233","2017-12-09T11:51:00","FM-16","6",,,,,,,,,,,,,,,,,,,,,,,,,,,,,,,,,,,,,,"30.42","37","37",,"BC:3 FG:2 |FG |",,,"100",,"FEW:02 1 SCT:04 250","29.95","3.00","37","000",,"0",,,,,,,,,,,,,,,,,,,,,,,,,,,,,,,,,,,,,"MET11712/09/17 11:51:02 SPECI KSEA 091951Z 00000KT 3SM R16L/2000VP6000FT BCFG FEW001 SCT250 03/03 A3042 RMK AO2 $ FIBI (TL)","FM-16","6",,,,,,,,,,,,,,,,,,,,,,,,,,,,"2007-05-17"
"72793024233","2017-12-09T11:53:00","FM-15","7",,,,,,,,,,,,,,,,,,,,,,,,,,,,,,,,,,,,,,"30.42","37","38","0.00","BC:3 FG:2 |FG |",,,"97","30.45","FEW:02 1 SCT:04 250","29.95","3.00","38","210",,"3",,,,,,,,,,,,,,,,,,,,,,,,,,,,,,,,,,,,,"MET12912/09/17 11:53:02 METAR KSEA 091953Z 21003KT 3SM R16L/2000VP6000FT BCFG FEW001 SCT250 03/03 A3042 RMK AO2 SLP311 T00330028 $ (TL)","FM-15","7",,,,,,,,,,,,,,,,,,,,,,,,,,,,"2007-05-17"
"72793024233","2017-12-09T12:53:00","FM-15","7",,,,,,,,,,,,,,,,,,,,,,,,,,,,,,,,,,,,,,"30.41","37","40","0.00","BR:1 ||","+0.03","8","89","30.44","FEW:02 2 SCT:04 250","29.94","3.00","39","000",,"0",,,,,,,,,,,,,,,,,,,,,,,,,,,,,,,,,,,,,"MET11512/09/17 12:53:02 METAR KSEA 092053Z 00000KT 3SM BR FEW002 SCT250 04/03 A3041 RMK AO2 SLP307 T00440028 58009 $ (TL)","FM-15","7",,,,,,,,,,,,,,,,,,,,,,,,,,,,"2007-05-17"
"72793024233","2017-12-09T13:53:00","FM-15","7",,,,,,,,,,,,,,,,,,,,,,,,,,,,,,,,,,,,,,"30.39","37","43","0.00",,,,"80","30.42","FEW:02 2 SCT:04 250","29.92","7.00","40","170",,"3",,,,,,,,,,,,,,,,,,,,,,,,,,,,,,,,,,,,,"MET10612/09/17 13:53:02 METAR KSEA 092153Z 17003KT 7SM FEW002 SCT250 06/03 A3039 RMK AO2 SLP300 T00610028 $ (JC)","FM-15","7",,,,,,,,,,,,,,,,,,,,,,,,,,,,"2007-05-17"
"72793024233","2017-12-09T14:53:00","FM-15","7",,,,,,,,,,,,,,,,,,,,,,,,,,,,,,,,,,,,,,"30.39","38","43","0.00",,,,"82","30.42","SCT:04 250","29.92","10.00","41","280",,"3",,,,,,,,,,,,,,,,,,,,,,,,,,,,,,,,,,,,,"MET10012/09/17 14:53:02 METAR KSEA 092253Z 28003KT 10SM SCT250 06/03 A3039 RMK AO2 SLP300 T00610033 $ (JC)","FM-15","7",,,,,,,,,,,,,,,,,,,,,,,,,,,,"2007-05-17"
"72793024233","2017-12-09T15:53:00","FM-15","7",,,,,,,,,,,,,,,,,,,,,,,,,,,,,,,,,,,,,,"30.39","36","41","0.00",,"+0.01","5","82","30.42","BKN:07 250","29.92","10.00","39","260",,"3",,,,,,,,,,,,,,,,,,,,,,,,,,,,,,,,,,,,,"MET11812/09/17 15:53:02 METAR KSEA 092353Z 26003KT 10SM BKN250 05/02 A3039 RMK AO2 SLP301 T00500022 10067 20011 55005 $ (JC)","FM-15","7",,,,,,,,,,,,,,,,,,,,,,,,,,,,"2007-05-17"
"72793024233","2017-12-09T16:00:00","FM-12","4",,,,,,,,,,,,,,,,,,,,,,,,,,,,,,,,,,,,,,,"36","41",,,"+0.01","5","82","30.42",,"29.90","9.94","39","260",,"3",,,,,,,,,,,,,,,,,,,,,,,,,,,,,,,,,,,,,"SYN08072793 32966 62603 10050 20022 30126 40301 55005 92353 333 10067 21005 555 91000=","FM-12","4",,,,,,,,,,,,,,,,,,,,,,,,,,,,"2007-05-17"
"72793024233","2017-12-09T16:53:00","FM-15","7",,,,,,,,,,,,,,,,,,,,,,,,,,,,,,,,,,,,,,"30.39","35","40","0.00",,,,"83","30.42","BKN:07 250","29.92","7.00","38","000",,"0",,,,,,,,,,,,,,,,,,,,,,,,,,,,,,,,,,,,,"MET09412/09/17 16:53:01 METAR KSEA 100053Z 00000KT 7SM BKN250 04/02 A3039 RMK AO2 SLP303 T00440017 $","FM-15","7",,,,,,,,,,,,,,,,,,,,,,,,,,,,"2007-05-17"
"72793024233","2017-12-09T17:53:00","FM-15","7",,,,,,,,,,,,,,,,,,,,,,,,,,,,,,,,,,,,,,"30.39","35","40","0.00",,,,"83","30.42","BKN:07 250","29.92","7.00","38","000",,"0",,,,,,,,,,,,,,,,,,,,,,,,,,,,,,,,,,,,,"MET09412/09/17 17:53:01 METAR KSEA 100153Z 00000KT 7SM BKN250 04/02 A3039 RMK AO2 SLP302 T00440017 $","FM-15","7",,,,,,,,,,,,,,,,,,,,,,,,,,,,"2007-05-17"
"72793024233","2017-12-09T18:53:00","FM-15","7",,,,,,,,,,,,,,,,,,,,,,,,,,,,,,,,,,,,,,"30.40","34","38","0.00",,"-0.01","3","86","30.43","BKN:07 250","29.93","7.00","36","200",,"5",,,,,,,,,,,,,,,,,,,,,,,,,,,,,,,,,,,,,"MET10012/09/17 18:53:02 METAR KSEA 100253Z 20004KT 7SM BKN250 03/01 A3040 RMK AO2 SLP304 T00330011 53002 $","FM-15","7",,,,,,,,,,,,,,,,,,,,,,,,,,,,"2007-05-17"
"72793024233","2017-12-09T19:53:00","FM-15","7",,,,,,,,,,,,,,,,,,,,,,,,,,,,,,,,,,,,,,"30.41","35","36","0.00","BC:3 FG:2 |FG |",,,"97","30.44","BKN:07 250","29.94","7.00","36","150",,"3",,,,,,,,,,,,,,,,,,,,,,,,,,,,,,,,,,,,,"MET11712/09/17 19:53:02 METAR KSEA 100353Z 15003KT 7SM R16L/5000VP6000FT BCFG BKN250 02/02 A3041 RMK AO2 SLP307 T00220017 $","FM-15","7",,,,,,,,,,,,,,,,,,,,,,,,,,,,"2007-05-17"
"72793024233","2017-12-09T20:53:00","FM-15","7",,,,,,,,,,,,,,,,,,,,,,,,,,,,,,,,,,,,,,"30.41","34","37","0.00",,,,"89","30.44","OVC:08 230","29.94","8.00","36","130",,"7",,,,,,,,,,,,,,,,,,,,,,,,,,,,,,,,,,,,,"MET09412/09/17 20:53:02 METAR KSEA 100453Z 13006KT 8SM OVC230 03/01 A3041 RMK AO2 SLP308 T00280011 $","FM-15","7",,,,,,,,,,,,,,,,,,,,,,,,,,,,"2007-05-17"
"72793024233","2017-12-09T21:53:00","FM-15","7",,,,,,,,,,,,,,,,,,,,,,,,,,,,,,,,,,,,,,"30.42","27","41","0.00",,"-0.02","3","57","30.45","BKN:07 230","29.95","8.00","36","110",,"7",,,,,,,,,,,,,,,,,,,,,,,,,,,,,,,,,,,,,"MET11312/09/17 21:53:02 METAR KSEA 100553Z 11006KT 8SM BKN230 05/M03 A3042 RMK AO2 SLP310 T00501028 10050 20017 53007 $","FM-15","7",,,,,,,,,,,,,,,,,,,,,,,,,,,,"2007-05-17"
"72793024233","2017-12-09T22:00:00","FM-12","4",,,,,,,,,,,,,,,,,,,,,,,,,,,,,,,,,,,,,,,"27","41",,,"-0.02","3","57","30.45",,"29.93","7.46","36","110",,"7",,,,,,,,,,,,,,,,,,,,,,,,,,,,,,,,,,,,,"SYN08072793 32962 61106 10050 21028 30136 40310 53007 90553 333 10050 21005 555 91006=","FM-12","4",,,,,,,,,,,,,,,,,,,,,,,,,,,,"2007-05-17"
"72793024233","2017-12-09T22:53:00","FM-15","7",,,,,,,,,,,,,,,,,,,,,,,,,,,,,,,,,,,,,,"30.42","27","39","0.00",,,,"62","30.45","BKN:07 230","29.95","10.00","34","140",,"3",,,,,,,,,,,,,,,,,,,,,,,,,,,,,,,,,,,,,"MET09612/09/17 22:53:02 METAR KSEA 100653Z 14003KT 10SM BKN230 04/M03 A3042 RMK AO2 SLP310 T00391028 $","FM-15","7",,,,,,,,,,,,,,,,,,,,,,,,,,,,"2007-05-17"
"72793024233","2017-12-09T23:53:00","FM-15","7",,,,,,,,,,,,,,,,,,,,,,,,,,,,,,,,,,,,,,"30.43","27","38","0.00",,,,"65","30.45","OVC:08 230","29.96","10.00","34","000",,"0",,,,,,,,,,,,,,,,,,,,,,,,,,,,,,,,,,,,,"MET10612/09/17 23:53:02 METAR KSEA 100753Z 00000KT 10SM OVC230 03/M03 A3043 RMK AO2 SLP313 T00331028 400671017 $","FM-15","7",,,,,,,,,,,,,,,,,,,,,,,,,,,,"2007-05-17"
"72793024233","2017-12-09T23:59:00","SOD  ","6",,,,,,,,,,,,,,,"33","37","88","30.44","29.94","35","2.0","0","-3.9","28","44","29","120","14","0.00","0","0.0","110","12","FG BR",,,,,,,,,,,,,,,,,,,,,,,,,,,,,,,,,,,,,,,,,,,,,,,,,,,,,,,,"SOD73024 HR PRECIPITATION (IN):0.00  24 HR MAX TEMP (F):44 24 HR MAX TEMP TIME (LST):1452 24 HR MIN TEMP (F):29 24 HR MIN TEMP TIME (LST):0808 AVERAGE STATION PRESSURE:29.940 MINIMUM SEA LEVEL PRESSURE:30.41 TIME OF OCCURRENCE:1622 PEAK WIND SPEED (MPH):14  PEAK WIND DIR (DEG):120 PEAK WIND TIME (LST):2303  FASTEST 2MIN SPEED (MPH):12 FASTEST 2MIN DIR (DEG):110 FASTEST 2MIN TIME (LST):2203 AVERAGE WIND SPEED (MPH):2.0  24 HR AVG TEMP (F):37 HEATING DEGREE DAYS:28  COOLING DEGREE DAYS:0   LATEST DAY MAX TEMP (0700-1900 LST):44  LATEST NIGHT MIN TEMP(1900-0800 LST):29 HOURLY INCREMENTAL PRECIPITATION VALUES (IN):.00 0.00 0.00 0.00 0.00 0.00 0.00 0.00 0.00 0.00 0.00 0.00 0.00 0.00 0.00 0.00 0.00 0.00 0.00 0.00 0.00 0.00 0.00 0.00","SOD  ","6",,,,,,,,,,,,,,,,,,,,,,,,,"0745","1618",,"2007-05-17"
"72793024233","2017-12-10T00:53:00","FM-15","7",,,,,,,,,,,,,,,,,,,,,,,,,,,,,,,,,,,,,,"30.43","27","37","0.00",,"-0.01","3","67","30.46","OVC:08 230","29.96","10.00","33","000",,"0",,,,,,,,,,,,,,,,,,,,,,,,,,,,,,,,,,,,,"MET10712/10/17 00:53:02 METAR KSEA 100853Z 00000KT 10SM OVC230 03/M03 A3043 RMK AO2 SLP314 T00281028 53004 $ (LC)","FM-15","7",,,,,,,,,,,,,,,,,,,,,,,,,,,,"2007-05-17"
"72793024233","2017-12-10T01:53:00","FM-15","7",,,,,,,,,,,,,,,,,,,,,,,,,,,,,,,,,,,,,,"30.42","30","38","0.00",,,,"73","30.45","OVC:08 210","29.95","10.00","35","140",,"7",,,,,,,,,,,,,,,,,,,,,,,,,,,,,,,,,,,,,"MET10112/10/17 01:53:02 METAR KSEA 100953Z 14006KT 10SM OVC210 03/M01 A3042 RMK AO2 SLP310 T00331011 $ (LC)","FM-15","7",,,,,,,,,,,,,,,,,,,,,,,,,,,,"2007-05-17"
"72793024233","2017-12-10T02:53:00","FM-15","7",,,,,,,,,,,,,,,,,,,,,,,,,,,,,,,,,,,,,,"30.44","30","36","0.00",,,,"79","30.47","OVC:08 210","29.97","7.00","34","320",,"5",,,,,,,,,,,,,,,,,,,,,,,,,,,,,,,,,,,,,"MET10012/10/17 02:53:02 METAR KSEA 101053Z 32004KT 7SM OVC210 02/M01 A3044 RMK AO2 SLP318 T00221011 $ (LC)","FM-15","7",,,,,,,,,,,,,,,,,,,,,,,,,,,,"2007-05-17"
"72793024233","2017-12-10T03:53:00","FM-15","7",,,,,,,,,,,,,,,,,,,,,,,,,,,,,,,,,,,,,,"30.45","29","37","0.00",,"-0.02","3","73","30.48","OVC:08 200","29.98","10.00","34","050",,"7",,,,,,,,,,,,,,,,,,,,,,,,,,,,,,,,,,,,,"MET11912/10/17 03:53:02 METAR KSEA 101153Z 05006KT 10SM OVC200 03/M02 A3045 RMK AO2 SLP321 T00281017 10050 20017 53006 $ (LC)","FM-15","7",,,,,,,,,,,,,,,,,,,,,,,,,,,,"2007-05-17"
"72793024233","2017-12-10T04:00:00","FM-12","4",,,,,,,,,,,,,,,,,,,,,,,,,,,,,,,,,,,,,,,"29","37",,,"-0.02","3","73","30.48",,"29.96","9.94","34","050",,"7",,,,,,,,,,,,,,,,,,,,,,,,,,,,,,,,,,,,,"SYN08072793 32966 80506 10028 21017 30146 40321 53006 91153 333 10067 20017 555 91012=","FM-12","4",,,,,,,,,,,,,,,,,,,,,,,,,,,,"2007-05-17"
"72793024233","2017-12-10T04:53:00","FM-15","7",,,,,,,,,,,,,,,,,,,,,,,,,,,,,,,,,,,,,,"30.45","32","38","0.00",,,,"79","30.47","OVC:08 170","29.98","10.00","36","030",,"8",,,,,,,,,,,,,,,,,,,,,,,,,,,,,,,,,,,,,"MET10012/10/17 04:53:02 METAR KSEA 101253Z 03007KT 10SM OVC170 03/00 A3045 RMK AO2 SLP319 T00330000 $ (LC)","FM-15","7",,,,,,,,,,,,,,,,,,,,,,,,,,,,"2007-05-17"
"72793024233","2017-12-10T05:53:00","FM-15","7",,,,,,,,,,,,,,,,,,,,,,,,,,,,,,,,,,,,,,"30.44","28","38","0.00",,,,"68","30.47","OVC:08 180","29.97","10.00","34","360",,"10",,,,,,,,,,,,,,,,,,,,,,,,,,,,,,,,,,,,,"MET10112/10/17 05:53:02 METAR KSEA 101353Z 36009KT 10SM OVC180 03/M02 A3044 RMK AO2 SLP317 T00331022 $ (LZ)","FM-15","7",,,,,,,,,,,,,,,,,,,,,,,,,,,,"2007-05-17"
"72793024233","2017-12-10T06:53:00","FM-15","7",,,,,,,,,,,,,,,,,,,,,,,,,,,,,,,,,,,,,,"30.44","26","39","0.00",,"+0.01","8","60","30.46","BKN:07 180","29.97","10.00","34","040",,"6",,,,,,,,,,,,,,,,,,,,,,,,,,,,,,,,,,,,,"MET10712/10/17 06:53:02 METAR KSEA 101453Z 04005KT 10SM BKN180 04/M03 A3044 RMK AO2 SLP316 T00391033 58004 $ (LZ)","FM-15","7",,,,,,,,,,,,,,,,,,,,,,,,,,,,"2007-05-17"
"72793024233","2017-12-10T07:53:00","FM-15","7",,,,,,,,,,,,,,,,,,,,,,,,,,,,,,,,,,,,,,"30.43","28","37","0.00",,,,"70","30.45","FEW:02 120 SCT:04 200","29.96","10.00","34","360",,"7",,,,,,,,,,,,,,,,,,,,,,,,,,,,,,,,,,,,,"MET10812/10/17 07:53:02 METAR KSEA 101553Z 36006KT 10SM FEW120 SCT200 03/M02 A3043 RMK AO2 SLP313 T00281022 $ (LZ)","FM-15","7",,,,,,,,,,,,,,,,,,,,,,,,,,,,"2007-05-17"
"72793024233","2017-12-10T08:53:00","FM-15","7",,,,,,,,,,,,,,,,,,,,,,,,,,,,,,,,,,,,,,"30.43","30","38","0.00",,,,"73","30.45","FEW:02 40 FEW:02 200","29.96","10.00","35","010",,"8",,,,,,,,,,,,,,,,,,,,,,,,,,,,,,,,,,,,,"MET10812/10/17 08:53:02 METAR KSEA 101653Z 01007KT 10SM FEW040 FEW200 03/M01 A3043 RMK AO2 SLP313 T00331011 $ (LZ)","FM-15","7",,,,,,,,,,,,,,,,,,,,,,,,,,,,"2007-05-17"
"72793024233","2017-12-10T09:53:00","FM-15","7",,,,,,,,,,,,,,,,,,,,,,,,,,,,,,,,,,,,,,"30.42","30","41","0.00",,"+0.01","6","65","30.45","FEW:02 40 FEW:02 210","29.95","10.00","37","360",,"7",,,,,,,,,,,,,,,,,,,,,,,,,,,,,,,,,,,,,"MET12612/10/17 09:53:02 METAR KSEA 101753Z 36006KT 10SM FEW040 FEW210 05/M01 A3042 RMK AO2 SLP312 T00501011 10050 20011 56004 $ (LZ)","FM-15","7",,,,,,,,,,,,,,,,,,,,,,,,,,,,"2007-05-17"
"72793024233","2017-12-10T10:00:00","FM-12","4",,,,,,,,,,,,,,,,,,,,,,,,,,,,,,,,,,,,,,,"30","41",,,"+0.01","6","65","30.45","41","29.93","9.94","37","360",,"7",,,,,,,,,,,,,,,,,,,,,,,,,,,,,,,,,,,,,"SYN08072793 32666 23606 10050 21011 30136 40312 56004 91753 333 10050 20011 555 91018=","FM-12","4",,,,,,,,,,,,,,,,,,,,,,,,,,,,"2007-05-17"
"72793024233","2017-12-10T10:53:00","FM-15","7",,,,,,,,,,,,,,,,,,,,,,,,,,,,,,,,,,,,,,"30.42","29","45","0.00",,,,"54","30.44","FEW:02 210","29.95","10.00","38","020",,"5",,,,,,,,,,,,,,,,,,,,,,,,,,,,,,,,,,,,,"MET10112/10/17 10:53:02 METAR KSEA 101853Z 02004KT 10SM FEW210 07/M02 A3042 RMK AO2 SLP309 T00721017 $ (LZ)","FM-15","7",,,,,,,,,,,,,,,,,,,,,,,,,,,,"2007-05-17"
"72793024233","2017-12-10T11:53:00","FM-15","7",,,,,,,,,,,,,,,,,,,,,,,,,,,,,,,,,,,,,,"30.39","30","47","0.00",,,,"52","30.42","FEW:02 60 FEW:02 210","29.92","10.00","40","020",,"3",,,,,,,,,,,,,,,,,,,,,,,,,,,,,,,,,,,,,"MET10812/10/17 11:53:02 METAR KSEA 101953Z 02003KT 10SM FEW060 FEW210 08/M01 A3039 RMK AO2 SLP301 T00831011 $ (LZ)","FM-15","7",,,,,,,,,,,,,,,,,,,,,,,,,,,,"2007-05-17"
"72793024233","2017-12-10T12:53:00","FM-15","7",,,,,,,,,,,,,,,,,,,,,,,,,,,,,,,,,,,,,,"30.38","29","48","0.00",,"+0.04","8","48","30.40","FEW:02 210","29.91","10.00","40","020",,"5",,,,,,,,,,,,,,,,,,,,,,,,,,,,,,,,,,,,,"MET10712/10/17 12:53:02 METAR KSEA 102053Z 02004KT 10SM FEW210 09/M02 A3038 RMK AO2 SLP295 T00891017 58015 $ (LZ)","FM-15","7",,,,,,,,,,,,,,,,,,,,,,,,,,,,"2007-05-17"
"72793024233","2017-12-10T13:53:00","FM-15","7",,,,,,,,,,,,,,,,,,,,,,,,,,,,,,,,,,,,,,"30.36","28","48","0.00",,,,"46","30.38","CLR:00","29.89","10.00","40","350",,"5",,,,,,,,,,,,,,,,,,,,,,,,,,,,,,,,,,,,,"MET09812/10/17 13:53:02 METAR KSEA 102153Z 35004KT 10SM CLR 09/M02 A3036 RMK AO2 SLP289 T00891022 $ (TL)","FM-15","7",,,,,,,,,,,,,,,,,,,,,,,,,,,,"2007-05-17"
"72793024233","2017-12-10T14:53:00","FM-15","7",,,,,,,,,,,,,,,,,,,,,,,,,,,,,,,,,,,,,,"30.34","32","48","0.00",,,,"54","30.37","CLR:00","29.87","10.00","41","010",,"7",,,,,,,,,,,,,,,,,,,,,,,,,,,,,,,,,,,,,"MET09712/10/17 14:53:02 METAR KSEA 102253Z 01006KT 10SM CLR 09/00 A3034 RMK AO2 SLP284 T00890000 $ (TL)","FM-15","7",,,,,,,,,,,,,,,,,,,,,,,,,,,,"2007-05-17"
"72793024233","2017-12-10T15:53:00","FM-15","7",,,,,,,,,,,,,,,,,,,,,,,,,,,,,,,,,,,,,,"30.34","33","45","0.00",,"+0.04","6","63","30.37","FEW:02 210","29.87","10.00","40","340",,"6",,,,,,,,,,,,,,,,,,,,,,,,,,,,,,,,,,,,,"MET11812/10/17 15:53:02 METAR KSEA 102353Z 34005KT 10SM FEW210 07/01 A3034 RMK AO2 SLP285 T00720006 10094 20050 56012 $ (TL)","FM-15","7",,,,,,,,,,,,,,,,,,,,,,,,,,,,"2007-05-17"
"72793024233","2017-12-10T16:00:00","FM-12","4",,,,,,,,,,,,,,,,,,,,,,,,,,,,,,,,,,,,,,,"33","45",,,"+0.04","6","63","30.37",,"29.85","9.94","40","340",,"6",,,,,,,,,,,,,,,,,,,,,,,,,,,,,,,,,,,,,"SYN08072793 32966 23405 10072 20006 30110 40285 56012 92353 333 10094 20017 555 91100=","FM-12","4",,,,,,,,,,,,,,,,,,,,,,,,,,,,"2007-05-17"
"72793024233","2017-12-10T16:53:00","FM-15","7",,,,,,,,,,,,,,,,,,,,,,,,,,,,,,,,,,,,,,"30.34","31","44","0.00",,,,"60","30.37","FEW:02 210","29.87","10.00","39","020",,"10",,,,,,,,,,,,,,,,,,,,,,,,,,,,,,,,,,,,,"MET09612/10/17 16:53:01 METAR KSEA 110053Z 02009KT 10SM FEW210 07/M01 A3034 RMK AO2 SLP283 T00671006 $","FM-15","7",,,,,,,,,,,,,,,,,,,,,,,,,,,,"2007-05-17"
"72793024233","2017-12-10T17:53:00","FM-15","7",,,,,,,,,,,,,,,,,,,,,,,,,,,,,,,,,,,,,,"30.32","30","44","0.00",,,,"58","30.35","FEW:02 210","29.85","10.00","38","020",,"10",,,,,,,,,,,,,,,,,,,,,,,,,,,,,,,,,,,,,"MET09612/10/17 17:53:01 METAR KSEA 110153Z 02009KT 10SM FEW210 07/M01 A3032 RMK AO2 SLP277 T00671011 $","FM-15","7",,,,,,,,,,,,,,,,,,,,,,,,,,,,"2007-05-17"
"72793024233","2017-12-10T18:53:00","FM-15","7",,,,,,,,,,,,,,,,,,,,,,,,,,,,,,,,,,,,,,"30.31","30","42","0.00",,"+0.04","8","62","30.34","FEW:02 210","29.84","10.00","37","020",,"8",,,,,,,,,,,,,,,,,,,,,,,,,,,,,,,,,,,,,"MET10212/10/17 18:53:02 METAR KSEA 110253Z 02007KT 10SM FEW210 06/M01 A3031 RMK AO2 SLP273 T00561011 58012 $","FM-15","7",,,,,,,,,,,,,,,,,,,,,,,,,,,,"2007-05-17"
"72793024233","2017-12-10T19:53:00","FM-15","7",,,,,,,,,,,,,,,,,,,,,,,,,,,,,,,,,,,,,,"30.31","28","41","0.00",,,,"60","30.33","CLR:00","29.84","10.00","36","010",,"13",,,,,,,,,,,,,,,,,,,,,,,,,,,,,,,,,,,,,"MET09312/10/17 19:53:02 METAR KSEA 110353Z 01011KT 10SM CLR 05/M02 A3031 RMK AO2 SLP272 T00501022 $","FM-15","7",,,,,,,,,,,,,,,,,,,,,,,,,,,,"2007-05-17"
"72793024233","2017-12-10T20:53:00","FM-15","7",,,,,,,,,,,,,,,,,,,,,,,,,,,,,,,,,,,,,,"30.31","28","40","0.00",,,,"63","30.34","CLR:00","29.84","10.00","35","020",,"9",,,,,,,,,,,,,,,,,,,,,,,,,,,,,,,,,,,,,"MET09312/10/17 20:53:02 METAR KSEA 110453Z 02008KT 10SM CLR 04/M02 A3031 RMK AO2 SLP273 T00441022 $","FM-15","7",,,,,,,,,,,,,,,,,,,,,,,,,,,,"2007-05-17"
"72793024233","2017-12-10T21:53:00","FM-15","7",,,,,,,,,,,,,,,,,,,,,,,,,,,,,,,,,,,,,,"30.32","32","39","0.00",,"-0.01","3","76","30.35","CLR:00","29.85","10.00","36","010",,"7",,,,,,,,,,,,,,,,,,,,,,,,,,,,,,,,,,,,,"MET11012/10/17 21:53:02 METAR KSEA 110553Z 01006KT 10SM CLR 04/00 A3032 RMK AO2 SLP277 T00390000 10078 20039 53004 $","FM-15","7",,,,,,,,,,,,,,,,,,,,,,,,,,,,"2007-05-17"
"72793024233","2017-12-10T22:00:00","FM-12","4",,,,,,,,,,,,,,,,,,,,,,,,,,,,,,,,,,,,,,,"32","39",,,"-0.01","3","76","30.35",,"29.83","9.94","36","010",,"7",,,,,,,,,,,,,,,,,,,,,,,,,,,,,,,,,,,,,"SYN08072793 32966 00106 10039 20000 30103 40277 53004 90553 333 10078 20017 555 91106=","FM-12","4",,,,,,,,,,,,,,,,,,,,,,,,,,,,"2007-05-17"
"72793024233","2017-12-10T22:53:00","FM-15","7",,,,,,,,,,,,,,,,,,,,,,,,,,,,,,,,,,,,,,"30.32","33","39","0.00",,,,"79","30.35","CLR:00","29.85","10.00","37","050",,"5",,,,,,,,,,,,,,,,,,,,,,,,,,,,,,,,,,,,,"MET09212/10/17 22:53:02 METAR KSEA 110653Z 05004KT 10SM CLR 04/01 A3032 RMK AO2 SLP276 T00390006 $","FM-15","7",,,,,,,,,,,,,,,,,,,,,,,,,,,,"2007-05-17"
"72793024233","2017-12-10T23:53:00","FM-15","7",,,,,,,,,,,,,,,,,,,,,,,,,,,,,,,,,,,,,,"30.31","32","34","0.00",,,,"92","30.34","CLR:00","29.84","10.00","33","000",,"0",,,,,,,,,,,,,,,,,,,,,,,,,,,,,,,,,,,,,"MET10212/10/17 23:53:02 METAR KSEA 110753Z 00000KT 10SM CLR 01/00 A3031 RMK AO2 SLP274 T00110000 400940011 $","FM-15","7",,,,,,,,,,,,,,,,,,,,,,,,,,,,"2007-05-17"
"72793024233","2017-12-10T23:59:00","SOD  ","6",,,,,,,,,,,,,,,"30","42","66","30.41","29.91","37","6.5","0","1.2","23","49","34","020","15","0.00","0","0.0","010","13",,,,,,,,,,,,,,,,,,,,,,,,,,,,,,,,,,,,,,,,,,,,,,,,,,,,,,,,,"SOD73024 HR PRECIPITATION (IN):0.00  24 HR MAX TEMP (F):49 24 HR MAX TEMP TIME (LST):1435 24 HR MIN TEMP (F):34 24 HR MIN TEMP TIME (LST):2353 AVERAGE STATION PRESSURE:29.905 MINIMUM SEA LEVEL PRESSURE:30.33 TIME OF OCCURRENCE:2016 PEAK WIND SPEED (MPH):15  PEAK WIND DIR (DEG):20  PEAK WIND TIME (LST):1952  FASTEST 2MIN SPEED (MPH):13 FASTEST 2MIN DIR (DEG):10  FASTEST 2MIN TIME (LST):1954 AVERAGE WIND SPEED (MPH):6.5  24 HR AVG TEMP (F):42 HEATING DEGREE DAYS:23  COOLING DEGREE DAYS:0   LATEST DAY MAX TEMP (0700-1900 LST):49  LATEST NIGHT MIN TEMP(1900-0800 LST):34 HOURLY INCREMENTAL PRECIPITATION VALUES (IN):.00 0.00 0.00 0.00 0.00 0.00 0.00 0.00 0.00 0.00 0.00 0.00 0.00 0.00 0.00 0.00 0.00 0.00 0.00 0.00 0.00 0.00 0.00 0.00","SOD  ","6",,,,,,,,,,,,,,,,,,,,,,,,,"0746","1618",,"2007-05-17"
"72793024233","2017-12-11T00:53:00","FM-15","7",,,,,,,,,,,,,,,,,,,,,,,,,,,,,,,,,,,,,,"30.30","32","36","0.00",,"+0.02","8","86","30.33","CLR:00","29.83","10.00","34","000",,"0",,,,,,,,,,,,,,,,,,,,,,,,,,,,,,,,,,,,,"MET10312/11/17 00:53:02 METAR KSEA 110853Z 00000KT 10SM CLR 02/00 A3030 RMK AO2 SLP270 T00220000 58006 $ (LC)","FM-15","7",,,,,,,,,,,,,,,,,,,,,,,,,,,,"2007-05-17"
"72793024233","2017-12-11T01:53:00","FM-15","7",,,,,,,,,,,,,,,,,,,,,,,,,,,,,,,,,,,,,,"30.32","30","34","0.00",,,,"85","30.35","CLR:00","29.85","10.00","32","050",,"7",,,,,,,,,,,,,,,,,,,,,,,,,,,,,,,,,,,,,"MET09812/11/17 01:53:02 METAR KSEA 110953Z 05006KT 10SM CLR 01/M01 A3032 RMK AO2 SLP277 T00111011 $ (LC)","FM-15","7",,,,,,,,,,,,,,,,,,,,,,,,,,,,"2007-05-17"
"72793024233","2017-12-11T02:53:00","FM-15","7",,,,,,,,,,,,,,,,,,,,,,,,,,,,,,,,,,,,,,"30.32","31","34","0.00",,,,"89","30.35","CLR:00","29.85","10.00","33","000",,"0",,,,,,,,,,,,,,,,,,,,,,,,,,,,,,,,,,,,,"MET09812/11/17 02:53:02 METAR KSEA 111053Z 00000KT 10SM CLR 01/M01 A3032 RMK AO2 SLP278 T00111006 $ (LC)","FM-15","7",,,,,,,,,,,,,,,,,,,,,,,,,,,,"2007-05-17"
"72793024233","2017-12-11T03:28:00","FM-16","7",,,,,,,,,,,,,,,,,,,,,,,,,,,,,,,,,,,,,,"30.32","29","30",,,,,"96",,"FEW:02 2","29.85","10.00","30","140",,"5",,,,,,,,,,,,,,,,,,,,,,,,,,,,,,,,,,,,,"MET09512/11/17 03:28:02 SPECI KSEA 111128Z 14004KT 10SM FEW002 M01/M02 A3032 RMK AO2 T10111017 $ (LC)","FM-16","7",,,,,,,,,,,,,,,,,,,,,,,,,,,,"2007-05-17"
"72793024233","2017-12-11T03:53:00","FM-15","7",,,,,,,,,,,,,,,,,,,,,,,,,,,,,,,,,,,,,,"30.32","28","29","0.00","BR:1 ||","-0.01","0","96","30.35","SCT:04 2","29.85","3.00","29","110",,"6",,,,,,,,,,,,,,,,,,,,,,,,,,,,,,,,,,,,,"MET12212/11/17 03:53:02 METAR KSEA 111153Z 11005KT 3SM BR SCT002 M02/M02 A3032 RMK AO2 SLP277 T10171022 10044 21017 50005 $ (LC)","FM-15","7",,,,,,,,,,,,,,,,,,,,,,,,,,,,"2007-05-17"
"72793024233","2017-12-11T04:00:00","FM-12","4",,,,,,,,,,,,,,,,,,,,,,,,,,,,,,,,,,,,,,,"28","29",,,"0.01","9","96","30.35","2","29.83","2.98","29","110",,"6",,,,,,,,,,,,,,,,,,,,,,,,,,,,,,,,,,,,,"SYN08672793 31148 41105 11017 21022 30103 40277 50005 710// 91153 333 10094 21017 555 91112=","FM-12","4",,,,,,,,,,,,,,,,,,,,,,,,,,,,"2007-05-17"
"72793024233","2017-12-11T04:26:00","FM-16","7",,,,,,,,,,,,,,,,,,,,,,,,,,,,,,,,,,,,,,"30.33","28","30",,"FZ:8 FG:2 |FG |",,,"92",,"BKN:07 1","29.86","0.25","29","000",,"0",,,,,,,,,,,,,,,,,,,,,,,,,,,,,,,,,,,,,"MET12912/11/17 04:26:02 SPECI KSEA 111226Z 00000KT 1/4SM R16L/2400VP6000FT FZFG BKN001 M01/M02 A3033 RMK AO2 TWR VIS 1 T10111022 $ (LC)","FM-16","7",,,,,,,,,,,,,,,,,,,,,,,,,,,,"2007-05-17"
"72793024233","2017-12-11T04:42:00","FM-16","7",,,,,,,,,,,,,,,,,,,,,,,,,,,,,,,,,,,,,,"30.33","32","32",,"FG:2 |FG s |",,,"100",,"VV:09 1","29.86","0.12","32","000",,"0",,,,,,,,,,,,,,,,,,,,,,,,,,,,,,,,,,,,,"MET12012/11/17 04:42:02 SPECI KSEA 111242Z 00000KT 1/8SM R16L/1000FT FG VV001 00/00 A3033 RMK AO2 TWR VIS 1/4 T00000000 $ (LC)","FM-16","7",,,,,,,,,,,,,,,,,,,,,,,,,,,,"2007-05-17"
"72793024233","2017-12-11T04:53:00","FM-15","7",,,,,,,,,,,,,,,,,,,,,,,,,,,,,,,,,,,,,,"30.33","33","34","0.00","FG:2 |FG s |",,,"97","30.36","VV:09 1","29.86","0.12","34","000",,"0",,,,,,,,,,,,,,,,,,,,,,,,,,,,,,,,,,,,,"MET12712/11/17 04:53:02 METAR KSEA 111253Z 00000KT 1/8SM R16L/1000FT FG VV001 01/01 A3033 RMK AO2 TWR VIS 1/4 SLP281 T00110006 $ (LC)","FM-15","7",,,,,,,,,,,,,,,,,,,,,,,,,,,,"2007-05-17"
"72793024233","2017-12-11T05:51:00","FM-16","6",,,,,,,,,,,,,,,,,,,,,,,,,,,,,,,,,,,,,,"30.33","30","32",,"FG:2 |FG |",,,"93",,"VV:09 1","29.86","0.25","31","120",,"6",,,,,,,,,,,,,,,,,,,,,,,,,,,,,,,,,,,,,"MET10912/11/17 05:51:02 SPECI KSEA 111351Z 12005KT 1/4SM R16L/1000V1400FT FG VV001 00/M01 A3033 RMK AO2 $ FIBI (JC)","FM-16","6",,,,,,,,,,,,,,,,,,,,,,,,,,,,"2007-05-17"
"72793024233","2017-12-11T05:53:00","FM-15","7",,,,,,,,,,,,,,,,,,,,,,,,,,,,,,,,,,,,,,"30.33","31","32","0.00","FG:2 |FG |",,,"96","30.36","VV:09 1","29.86","0.25","32","110",,"6",,,,,,,,,,,,,,,,,,,,,,,,,,,,,,,,,,,,,"MET12112/11/17 05:53:02 METAR KSEA 111353Z 11005KT 1/4SM R16L/1000V1400FT FG VV001 00/M01 A3033 RMK AO2 SLP281 T00001006 $ (JC)","FM-15","7",,,,,,,,,,,,,,,,,,,,,,,,,,,,"2007-05-17"
"72793024233","2017-12-11T06:02:00","FM-16","7",,,,,,,,,,,,,,,,,,,,,,,,,,,,,,,,,,,,,,"30.33","31","32",,"FG:2 |FG |",,,"96",,"VV:09 1","29.86","0.25","32","130",,"5",,,,,,,,,,,,,,,,,,,,,,,,,,,,,,,,,,,,,"MET11412/11/17 06:02:02 SPECI KSEA 111402Z 13004KT 1/4SM R16L/1400V3000FT FG VV001 00/M01 A3033 RMK AO2 T00001006 $ (JC)","FM-16","7",,,,,,,,,,,,,,,,,,,,,,,,,,,,"2007-05-17"
"72793024233","2017-12-11T06:39:00","FM-16","7",,,,,,,,,,,,,,,,,,,,,,,,,,,,,,,,,,,,,,"30.33","29","30",,"BC:3 FG:2 |FG |",,,"96",,"FEW:02 1","29.86","5.00","30","160",,"5",,,,,,,,,,,,,,,,,,,,,,,,,,,,,,,,,,,,,"MET09712/11/17 06:39:02 SPECI KSEA 111439Z 16004KT 5SM BCFG FEW001 M01/M02 A3033 RMK AO2 T10111017 (JC)","FM-16","7",,,,,,,,,,,,,,,,,,,,,,,,,,,,"2007-05-17"
"72793024233","2017-12-11T06:53:00","FM-15","7",,,,,,,,,,,,,,,,,,,,,,,,,,,,,,,,,,,,,,"30.33","30","31","0.00","BC:3 FG:2 |FG |","-0.01","0","96","30.35","FEW:02 1","29.86","7.00","31","160",,"6",,,,,,,,,,,,,,,,,,,,,,,,,,,,,,,,,,,,,"MET11012/11/17 06:53:02 METAR KSEA 111453Z 16005KT 7SM BCFG FEW001 M01/M01 A3033 RMK AO2 SLP279 T10061011 50003 (JC)","FM-15","7",,,,,,,,,,,,,,,,,,,,,,,,,,,,"2007-05-17"
"72793024233","2017-12-11T07:53:00","FM-15","7",,,,,,,,,,,,,,,,,,,,,,,,,,,,,,,,,,,,,,"30.33","31","33","0.00","BC:3 FG:2 |FG |",,,"92","30.35","FEW:02 250","29.86","10.00","32","000",,"0",,,,,,,,,,,,,,,,,,,,,,,,,,,,,,,,,,,,,"MET11412/11/17 07:53:02 METAR KSEA 111553Z 00000KT 10SM BCFG FEW250 01/M01 A3033 RMK AO2 SLP279 FG BANK W T00061006 (JC)","FM-15","7",,,,,,,,,,,,,,,,,,,,,,,,,,,,"2007-05-17"
"72793024233","2017-12-11T08:53:00","FM-15","7",,,,,,,,,,,,,,,,,,,,,,,,,,,,,,,,,,,,,,"30.33","31","32","0.00","BC:3 FG:2 |FG |",,,"96","30.36","FEW:02 1","29.86","10.00","32","180",,"3",,,,,,,,,,,,,,,,,,,,,,,,,,,,,,,,,,,,,"MET11912/11/17 08:53:02 METAR KSEA 111653Z 18003KT 10SM BCFG FEW001 00/M01 A3033 RMK AO2 SLP280 FG BANK S-W-NW T00001006 (JC)","FM-15","7",,,,,,,,,,,,,,,,,,,,,,,,,,,,"2007-05-17"
"72793024233","2017-12-11T09:16:00","FM-16","7",,,,,,,,,,,,,,,,,,,,,,,,,,,,,,,,,,,,,,"30.34","32","32",,"FG:2 |FG |",,,"100",,"SCT:04 1","29.87","0.50","32","200",,"5",,,,,,,,,,,,,,,,,,,,,,,,,,,,,,,,,,,,,"MET12412/11/17 09:16:02 SPECI KSEA 111716Z 20004KT 1/2SM R16L/1400VP6000FT FG SCT001 00/00 A3034 RMK AO2 TWR VIS 10 T00000000 (JC)","FM-16","7",,,,,,,,,,,,,,,,,,,,,,,,,,,,"2007-05-17"
"72793024233","2017-12-11T09:25:00","FM-16","7",,,,,,,,,,,,,,,,,,,,,,,,,,,,,,,,,,,,,,"30.34","32","32",,"FG:2 |FG |",,,"100",,"SCT:04 1","29.87","0.50","32","200",,"3",,,,,,,,,,,,,,,,,,,,,,,,,,,,,,,,,,,,,"MET12312/11/17 09:25:02 SPECI KSEA 111725Z 20003KT 1/2SM R16L/0800V1400FT FG SCT001 00/00 A3034 RMK AO2 TWR VIS 10 T00000000 (JC)","FM-16","7",,,,,,,,,,,,,,,,,,,,,,,,,,,,"2007-05-17"
"72793024233","2017-12-11T09:36:00","FM-16","7",,,,,,,,,,,,,,,,,,,,,,,,,,,,,,,,,,,,,,"30.35","33","33",,"FG:2 |FG s |",,,"100",,"OVC:08 1","29.88","0.12","33","000",,"0",,,,,,,,,,,,,,,,,,,,,,,,,,,,,,,,,,,,,"MET12412/11/17 09:36:02 SPECI KSEA 111736Z 00000KT 1/8SM R16L/0500V0800FT FG OVC001 01/01 A3035 RMK AO2 SFC VIS 1/4 T00060006 (JC)","FM-16","7",,,,,,,,,,,,,,,,,,,,,,,,,,,,"2007-05-17"
"72793024233","2017-12-11T09:53:00","FM-15","7",,,,,,,,,,,,,,,,,,,,,,,,,,,,,,,,,,,,,,"30.34","34","35","0.00","FG:2 |FG s |","-0.02","3","96","30.37","VV:09 1","29.87","0.12","35","180",,"5",,,,,,,,,,,,,,,,,,,,,,,,,,,,,,,,,,,,,"MET13112/11/17 09:53:02 METAR KSEA 111753Z 18004KT 1/8SM R16L/0400FT FG VV001 02/01 A3034 RMK AO2 SLP285 T00170011 10017 21017 53006 (JC)","FM-15","7",,,,,,,,,,,,,,,,,,,,,,,,,,,,"2007-05-17"
"72793024233","2017-12-11T10:00:00","FM-12","4",,,,,,,,,,,,,,,,,,,,,,,,,,,,,,,,,,,,,,,"34","35",,"||FG","-0.02","3","96","30.37","1","29.85","0.12","35","180",,"5",,,,,,,,,,,,,,,,,,,,,,,,,,,,,,,,,,,,,"SYN08672793 31002 91804 10017 20011 30110 40285 53006 741// 91753 333 10044 21017 555 91118=","FM-12","4",,,,,,,,,,,,,,,,,,,,,,,,,,,,"2007-05-17"
"72793024233","2017-12-11T10:28:00","FM-16","7",,,,,,,,,,,,,,,,,,,,,,,,,,,,,,,,,,,,,,"30.34","35","35",,"FG:2 |FG |",,,"100",,"SCT:04 1","29.87","0.50","35","210",,"3",,,,,,,,,,,,,,,,,,,,,,,,,,,,,,,,,,,,,"MET10712/11/17 10:28:02 SPECI KSEA 111828Z 21003KT 1/2SM R16L/0400FT FG SCT001 02/02 A3034 RMK AO2 T00170017 (JC)","FM-16","7",,,,,,,,,,,,,,,,,,,,,,,,,,,,"2007-05-17"
"72793024233","2017-12-11T10:46:00","FM-16","7",,,,,,,,,,,,,,,,,,,,,,,,,,,,,,,,,,,,,,"30.34","36","36",,"FG:2 |FG |",,,"100",,"BKN:07 1","29.87","0.25","36","250",,"3",,,,,,,,,,,,,,,,,,,,,,,,,,,,,,,,,,,,,"MET11212/11/17 10:46:02 SPECI KSEA 111846Z 25003KT 1/4SM R16L/0500V0600FT FG BKN001 02/02 A3034 RMK AO2 T00220022 (JC)","FM-16","7",,,,,,,,,,,,,,,,,,,,,,,,,,,,"2007-05-17"
"72793024233","2017-12-11T10:53:00","FM-15","7",,,,,,,,,,,,,,,,,,,,,,,,,,,,,,,,,,,,,,"30.34","36","36","0.00","FG:2 |FG |",,,"100","30.37","BKN:07 1","29.87","0.25","36","250",,"6",,,,,,,,,,,,,,,,,,,,,,,,,,,,,,,,,,,,,"MET11412/11/17 10:53:02 METAR KSEA 111853Z 25005KT 1/4SM R16L/0500FT FG BKN001 02/02 A3034 RMK AO2 SLP284 T00220022 (JC)","FM-15","7",,,,,,,,,,,,,,,,,,,,,,,,,,,,"2007-05-17"
"72793024233","2017-12-11T11:51:00","FM-16","6",,,,,,,,,,,,,,,,,,,,,,,,,,,,,,,,,,,,,,"30.35","37","37",,"FG:2 |FG |",,,"100",,"BKN:07 1","29.88","0.50","37","260",,"3",,,,,,,,,,,,,,,,,,,,,,,,,,,,,,,,,,,,,"MET10712/11/17 11:51:02 SPECI KSEA 111951Z 26003KT 1/2SM R16L/1000V3500FT FG BKN001 03/03 A3035 RMK AO2 FIBI (JC)","FM-16","6",,,,,,,,,,,,,,,,,,,,,,,,,,,,"2007-05-17"
"72793024233","2017-12-11T11:53:00","FM-15","7",,,,,,,,,,,,,,,,,,,,,,,,,,,,,,,,,,,,,,"30.35","38","39","0.00","FG:2 |FG |",,,"96","30.37","BKN:07 1","29.88","0.50","39","250",,"3",,,,,,,,,,,,,,,,,,,,,,,,,,,,,,,,,,,,,"MET12012/11/17 11:53:02 METAR KSEA 111953Z 25003KT 1/2SM R16L/1000VP6000FT FG BKN001 04/03 A3035 RMK AO2 SLP286 T00390033 (JC)","FM-15","7",,,,,,,,,,,,,,,,,,,,,,,,,,,,"2007-05-17"
"72793024233","2017-12-11T11:57:00","FM-16","7",,,,,,,,,,,,,,,,,,,,,,,,,,,,,,,,,,,,,,"30.35","37","39",,,,,"93",,"FEW:02 1","29.88","7.00","38","250",,"7",,,,,,,,,,,,,,,,,,,,,,,,,,,,,,,,,,,,,"MET10812/11/17 11:57:02 SPECI KSEA 111957Z 25006KT 7SM R16L/2400VP6000FT FEW001 04/03 A3035 RMK AO2 T00390028 (JC)","FM-16","7",,,,,,,,,,,,,,,,,,,,,,,,,,,,"2007-05-17"
"72793024233","2017-12-11T12:53:00","FM-15","7",,,,,,,,,,,,,,,,,,,,,,,,,,,,,,,,,,,,,,"30.34","34","45","0.00",,"+0.00","7","66","30.37","FEW:02 200","29.87","10.00","40","140",,"6",,,,,,,,,,,,,,,,,,,,,,,,,,,,,,,,,,,,,"MET10412/11/17 12:53:02 METAR KSEA 112053Z 14005KT 10SM FEW200 07/01 A3034 RMK AO2 SLP285 T00720011 57001 (JC)","FM-15","7",,,,,,,,,,,,,,,,,,,,,,,,,,,,"2007-05-17"
"72793024233","2017-12-11T13:53:00","FM-15","7",,,,,,,,,,,,,,,,,,,,,,,,,,,,,,,,,,,,,,"30.34","32","48","0.00",,,,"54","30.36","FEW:02 200","29.87","10.00","41","140",,"7",,,,,,,,,,,,,,,,,,,,,,,,,,,,,,,,,,,,,"MET09812/11/17 13:53:02 METAR KSEA 112153Z 14006KT 10SM FEW200 09/00 A3034 RMK AO2 SLP282 T00890000 (RS)","FM-15","7",,,,,,,,,,,,,,,,,,,,,,,,,,,,"2007-05-17"
"72793024233","2017-12-11T14:53:00","FM-15","7",,,,,,,,,,,,,,,,,,,,,,,,,,,,,,,,,,,,,,"30.37","37","46","0.00",,,,"71","30.40","FEW:02 250","29.90","10.00","42","190",,"7",,,,,,,,,,,,,,,,,,,,,,,,,,,,,,,,,,,,,"MET09812/11/17 14:53:02 METAR KSEA 112253Z 19006KT 10SM FEW250 08/03 A3037 RMK AO2 SLP295 T00780028 (RS)","FM-15","7",,,,,,,,,,,,,,,,,,,,,,,,,,,,"2007-05-17"
"72793024233","2017-12-11T15:53:00","FM-15","7",,,,,,,,,,,,,,,,,,,,,,,,,,,,,,,,,,,,,,"30.36","34","43","0.00",,"-0.01","0","71","30.39","FEW:02 250","29.89","10.00","39","140",,"6",,,,,,,,,,,,,,,,,,,,,,,,,,,,,,,,,,,,,"MET11612/11/17 15:53:02 METAR KSEA 112353Z 14005KT 10SM FEW250 06/01 A3036 RMK AO2 SLP290 T00610011 10094 20017 50004 (RS)","FM-15","7",,,,,,,,,,,,,,,,,,,,,,,,,,,,"2007-05-17"
"72793024233","2017-12-11T16:00:00","FM-12","4",,,,,,,,,,,,,,,,,,,,,,,,,,,,,,,,,,,,,,,"34","43",,,"0.01","9","71","30.39",,"29.87","9.94","39","140",,"6",,,,,,,,,,,,,,,,,,,,,,,,,,,,,,,,,,,,,"SYN08072793 32966 21405 10061 20011 30116 40290 50004 92353 333 10094 21016 555 91200=","FM-12","4",,,,,,,,,,,,,,,,,,,,,,,,,,,,"2007-05-17"
"72793024233","2017-12-11T16:53:00","FM-15","7",,,,,,,,,,,,,,,,,,,,,,,,,,,,,,,,,,,,,,"30.37","35","42","0.00",,,,"76","30.40","FEW:02 250","29.90","10.00","39","200",,"3",,,,,,,,,,,,,,,,,,,,,,,,,,,,,,,,,,,,,"MET09312/11/17 16:53:01 METAR KSEA 120053Z 20003KT 10SM FEW250 06/02 A3037 RMK AO2 SLP295 T00560017","FM-15","7",,,,,,,,,,,,,,,,,,,,,,,,,,,,"2007-05-17"
"72793024233","2017-12-11T17:53:00","FM-15","7",,,,,,,,,,,,,,,,,,,,,,,,,,,,,,,,,,,,,,"30.37","35","42","0.00",,,,"76","30.40","FEW:02 250","29.90","10.00","39","200",,"6",,,,,,,,,,,,,,,,,,,,,,,,,,,,,,,,,,,,,"MET09312/11/17 17:53:01 METAR KSEA 120153Z 20005KT 10SM FEW250 06/02 A3037 RMK AO2 SLP293 T00560017","FM-15","7",,,,,,,,,,,,,,,,,,,,,,,,,,,,"2007-05-17"
"72793024233","2017-12-11T18:53:00","FM-15","7",,,,,,,,,,,,,,,,,,,,,,,,,,,,,,,,,,,,,,"30.39","32","43","0.00",,"-0.03","1","65","30.41","CLR:00","29.92","10.00","38","160",,"6",,,,,,,,,,,,,,,,,,,,,,,,,,,,,,,,,,,,,"MET09612/11/17 18:53:02 METAR KSEA 120253Z 16005KT 10SM CLR 06/00 A3039 RMK AO2 SLP299 T00610000 51010","FM-15","7",,,,,,,,,,,,,,,,,,,,,,,,,,,,"2007-05-17"
"72793024233","2017-12-11T19:53:00","FM-15","7",,,,,,,,,,,,,,,,,,,,,,,,,,,,,,,,,,,,,,"30.40","29","41","0.00",,,,"62","30.43","CLR:00","29.93","10.00","36","140",,"6",,,,,,,,,,,,,,,,,,,,,,,,,,,,,,,,,,,,,"MET09112/11/17 19:53:02 METAR KSEA 120353Z 14005KT 10SM CLR 05/M02 A3040 RMK AO2 SLP305 T00501017","FM-15","7",,,,,,,,,,,,,,,,,,,,,,,,,,,,"2007-05-17"
"72793024233","2017-12-11T20:53:00","FM-15","7",,,,,,,,,,,,,,,,,,,,,,,,,,,,,,,,,,,,,,"30.39","27","41","0.00",,,,"57","30.42","FEW:02 250","29.92","10.00","36","110",,"11",,,,,,,,,,,,,,,,,,,,,,,,,,,,,,,,,,,,,"MET09412/11/17 20:53:02 METAR KSEA 120453Z 11010KT 10SM FEW250 05/M03 A3039 RMK AO2 SLP302 T00501028","FM-15","7",,,,,,,,,,,,,,,,,,,,,,,,,,,,"2007-05-17"
"72793024233","2017-12-11T21:53:00","FM-15","7",,,,,,,,,,,,,,,,,,,,,,,,,,,,,,,,,,,,,,"30.41","26","40","0.00",,"-0.03","3","58","30.44","FEW:02 250","29.94","10.00","35","140",,"7",,,,,,,,,,,,,,,,,,,,,,,,,,,,,,,,,,,,,"MET11212/11/17 21:53:02 METAR KSEA 120553Z 14006KT 10SM FEW250 04/M03 A3041 RMK AO2 SLP309 T00441033 10067 20028 53010","FM-15","7",,,,,,,,,,,,,,,,,,,,,,,,,,,,"2007-05-17"
"72793024233","2017-12-11T22:00:00","FM-12","4",,,,,,,,,,,,,,,,,,,,,,,,,,,,,,,,,,,,,,,"26","40",,,"-0.03","3","58","30.44",,"29.92","9.94","35","140",,"7",,,,,,,,,,,,,,,,,,,,,,,,,,,,,,,,,,,,,"SYN08072793 32966 21406 10044 21033 30133 40309 53010 90553 333 10067 21016 555 91206=","FM-12","4",,,,,,,,,,,,,,,,,,,,,,,,,,,,"2007-05-17"
"72793024233","2017-12-11T22:53:00","FM-15","7",,,,,,,,,,,,,,,,,,,,,,,,,,,,,,,,,,,,,,"30.40","24","39","0.00",,,,"55","30.43","FEW:02 250","29.93","10.00","33","130",,"10",,,,,,,,,,,,,,,,,,,,,,,,,,,,,,,,,,,,,"MET09412/11/17 22:53:02 METAR KSEA 120653Z 13009KT 10SM FEW250 04/M04 A3040 RMK AO2 SLP306 T00391044","FM-15","7",,,,,,,,,,,,,,,,,,,,,,,,,,,,"2007-05-17"
"72793024233","2017-12-11T23:53:00","FM-15","7",,,,,,,,,,,,,,,,,,,,,,,,,,,,,,,,,,,,,,"30.42","23","38","0.00",,,,"55","30.45","SCT:04 220","29.95","10.00","32","140",,"7",,,,,,,,,,,,,,,,,,,,,,,,,,,,,,,,,,,,,"MET10412/11/17 23:53:02 METAR KSEA 120753Z 14006KT 10SM SCT220 03/M05 A3042 RMK AO2 SLP311 T00331050 400941017","FM-15","7",,,,,,,,,,,,,,,,,,,,,,,,,,,,"2007-05-17"
"72793024233","2017-12-11T23:59:00","SOD  ","6",,,,,,,,,,,,,,,"31","39","78","30.38","29.88","35","5.1","0","-1.7","26","49","29","110","14","0.00","0","0.0","110","12","FG FZFG BR",,,,,,,,,,,,,,,,,,,,,,,,,,,,,,,,,,,,,,,,,,,,,,,,,,,,,,,,"SOD73024 HR PRECIPITATION (IN):0.00  24 HR MAX TEMP (F):49 24 HR MAX TEMP TIME (LST):1427 24 HR MIN TEMP (F):29 24 HR MIN TEMP TIME (LST):0421 AVERAGE STATION PRESSURE:29.880 MINIMUM SEA LEVEL PRESSURE:30.32 TIME OF OCCURRENCE:0042 PEAK WIND SPEED (MPH):14  PEAK WIND DIR (DEG):110 PEAK WIND TIME (LST):1931  FASTEST 2MIN SPEED (MPH):12 FASTEST 2MIN DIR (DEG):110 FASTEST 2MIN TIME (LST):2054 AVERAGE WIND SPEED (MPH):5.1  24 HR AVG TEMP (F):39 HEATING DEGREE DAYS:26  COOLING DEGREE DAYS:0   LATEST DAY MAX TEMP (0700-1900 LST):49  LATEST NIGHT MIN TEMP(1900-0800 LST):29 HOURLY INCREMENTAL PRECIPITATION VALUES (IN):.00 0.00 0.00 0.00 0.00 0.00 0.00 0.00 0.00 0.00 0.00 0.00 0.00 0.00 0.00 0.00 0.00 0.00 0.00 0.00 0.00 0.00 0.00 0.00","SOD  ","6",,,,,,,,,,,,,,,,,,,,,,,,,"0747","1618",,"2007-05-17"
"72793024233","2017-12-12T00:53:00","FM-15","7",,,,,,,,,,,,,,,,,,,,,,,,,,,,,,,,,,,,,,"30.44","24","39","0.00",,"-0.03","3","55","30.47","SCT:04 220","29.97","10.00","33","140",,"7",,,,,,,,,,,,,,,,,,,,,,,,,,,,,,,,,,,,,"MET10512/12/17 00:53:02 METAR KSEA 120853Z 14006KT 10SM SCT220 04/M04 A3044 RMK AO2 SLP317 T00391044 53009 (LC)","FM-15","7",,,,,,,,,,,,,,,,,,,,,,,,,,,,"2007-05-17"
"72793024233","2017-12-12T01:53:00","FM-15","7",,,,,,,,,,,,,,,,,,,,,,,,,,,,,,,,,,,,,,"30.45","25","35","0.00",,,,"67","30.47","CLR:00","29.98","10.00","31","000",,"0",,,,,,,,,,,,,,,,,,,,,,,,,,,,,,,,,,,,,"MET09612/12/17 01:53:02 METAR KSEA 120953Z 00000KT 10SM CLR 02/M04 A3045 RMK AO2 SLP319 T00171039 (LC)","FM-15","7",,,,,,,,,,,,,,,,,,,,,,,,,,,,"2007-05-17"
"72793024233","2017-12-12T02:53:00","FM-15","7",,,,,,,,,,,,,,,,,,,,,,,,,,,,,,,,,,,,,,"30.45","26","36","0.00",,,,"67","30.48","BKN:07 220","29.98","10.00","32","110",,"3",,,,,,,,,,,,,,,,,,,,,,,,,,,,,,,,,,,,,"MET09912/12/17 02:53:02 METAR KSEA 121053Z 11003KT 10SM BKN220 02/M03 A3045 RMK AO2 SLP322 T00221033 (LC)","FM-15","7",,,,,,,,,,,,,,,,,,,,,,,,,,,,"2007-05-17"
"72793024233","2017-12-12T03:53:00","FM-15","7",,,,,,,,,,,,,,,,,,,,,,,,,,,,,,,,,,,,,,"30.44","24","35","0.00",,"-0.00","0","64","30.47","BKN:07 220","29.97","10.00","31","000",,"0",,,,,,,,,,,,,,,,,,,,,,,,,,,,,,,,,,,,,"MET11912/12/17 03:53:02 METAR KSEA 121153Z 00000KT 10SM BKN220 02/M04 A3044 RMK AO2 SLP318 T00171044 10044 20000 50000 $ (LC)","FM-15","7",,,,,,,,,,,,,,,,,,,,,,,,,,,,"2007-05-17"
"72793024233","2017-12-12T04:00:00","FM-12","4",,,,,,,,,,,,,,,,,,,,,,,,,,,,,,,,,,,,,,,"24","35",,,"0.00","9","64","30.47",,"29.95","9.94","31","000",,"0",,,,,,,,,,,,,,,,,,,,,,,,,,,,,,,,,,,,,"SYN08072793 32966 60000 10017 21044 30143 40318 50000 91153 333 10094 20000 555 91212=","FM-12","4",,,,,,,,,,,,,,,,,,,,,,,,,,,,"2007-05-17"
"72793024233","2017-12-12T04:53:00","FM-15","7",,,,,,,,,,,,,,,,,,,,,,,,,,,,,,,,,,,,,,"30.43","25","33","0.00",,,,"72","30.45","FEW:02 110 SCT:04 220","29.96","10.00","30","130",,"3",,,,,,,,,,,,,,,,,,,,,,,,,,,,,,,,,,,,,"MET10812/12/17 04:53:02 METAR KSEA 121253Z 13003KT 10SM FEW110 SCT220 01/M04 A3043 RMK AO2 SLP313 T00061039 $ (LC)","FM-15","7",,,,,,,,,,,,,,,,,,,,,,,,,,,,"2007-05-17"
"72793024233","2017-12-12T05:53:00","FM-15","7",,,,,,,,,,,,,,,,,,,,,,,,,,,,,,,,,,,,,,"30.43","25","33","0.00",,,,"72","30.46","BKN:07 100 OVC:08 200","29.96","10.00","30","340",,"6",,,,,,,,,,,,,,,,,,,,,,,,,,,,,,,,,,,,,"MET10612/12/17 05:53:02 METAR KSEA 121353Z 34005KT 10SM BKN100 OVC200 01/M04 A3043 RMK AO2 SLP315 T00061039 (JC)","FM-15","7",,,,,,,,,,,,,,,,,,,,,,,,,,,,"2007-05-17"
"72793024233","2017-12-12T06:53:00","FM-15","7",,,,,,,,,,,,,,,,,,,,,,,,,,,,,,,,,,,,,,"30.44","26","36","0.00",,"-0.00","3","67","30.47","BKN:07 90 OVC:08 200","29.97","10.00","32","330",,"3",,,,,,,,,,,,,,,,,,,,,,,,,,,,,,,,,,,,,"MET11212/12/17 06:53:02 METAR KSEA 121453Z 33003KT 10SM BKN090 OVC200 02/M03 A3044 RMK AO2 SLP319 T00221033 53001 (JC)","FM-15","7",,,,,,,,,,,,,,,,,,,,,,,,,,,,"2007-05-17"
"72793024233","2017-12-12T07:53:00","FM-15","7",,,,,,,,,,,,,,,,,,,,,,,,,,,,,,,,,,,,,,"30.47","29","37","0.00",,,,"73","30.49","FEW:02 50 BKN:07 90 OVC:08 200","30.00","10.00","34","010",,"7",,,,,,,,,,,,,,,,,,,,,,,,,,,,,,,,,,,,,"MET11312/12/17 07:53:02 METAR KSEA 121553Z 01006KT 10SM FEW050 BKN090 OVC200 03/M02 A3047 RMK AO2 SLP326 T00281017 (JC)","FM-15","7",,,,,,,,,,,,,,,,,,,,,,,,,,,,"2007-05-17"
"72793024233","2017-12-12T08:53:00","FM-15","7",,,,,,,,,,,,,,,,,,,,,,,,,,,,,,,,,,,,,,"30.47","31","41","0.00",,,,"67","30.50","FEW:02 50 BKN:07 70 OVC:08 200","30.00","10.00","37","000",,"0",,,,,,,,,,,,,,,,,,,,,,,,,,,,,,,,,,,,,"MET11312/12/17 08:53:02 METAR KSEA 121653Z 00000KT 10SM FEW050 BKN070 OVC200 05/M01 A3047 RMK AO2 SLP328 T00501006 (JC)","FM-15","7",,,,,,,,,,,,,,,,,,,,,,,,,,,,"2007-05-17"
"72793024233","2017-12-12T09:53:00","FM-15","7",,,,,,,,,,,,,,,,,,,,,,,,,,,,,,,,,,,,,,"30.48","31","41","0.00",,"-0.04","1","67","30.51","FEW:02 45 BKN:07 65 OVC:08 200","30.01","10.00","37","000",,"0",,,,,,,,,,,,,,,,,,,,,,,,,,,,,,,,,,,,,"MET13112/12/17 09:53:02 METAR KSEA 121753Z 00000KT 10SM FEW045 BKN065 OVC200 05/M01 A3048 RMK AO2 SLP331 T00501006 10050 20000 51012 (JC)","FM-15","7",,,,,,,,,,,,,,,,,,,,,,,,,,,,"2007-05-17"
"72793024233","2017-12-12T10:00:00","FM-12","4",,,,,,,,,,,,,,,,,,,,,,,,,,,,,,,,,,,,,,,"31","41",,,"-0.04","1","67","30.51","41","29.99","9.94","37","000",,"0",,,,,,,,,,,,,,,,,,,,,,,,,,,,,,,,,,,,,"SYN08072793 32666 80000 10050 21006 30156 40331 51012 91753 333 10050 20000 555 91218=","FM-12","4",,,,,,,,,,,,,,,,,,,,,,,,,,,,"2007-05-17"
"72793024233","2017-12-12T10:53:00","FM-15","7",,,,,,,,,,,,,,,,,,,,,,,,,,,,,,,,,,,,,,"30.48","32","42","0.00",,,,"68","30.51","BKN:07 60 OVC:08 200","30.01","10.00","38","000",,"0",,,,,,,,,,,,,,,,,,,,,,,,,,,,,,,,,,,,,"MET10512/12/17 10:53:02 METAR KSEA 121853Z 00000KT 10SM BKN060 OVC200 06/00 A3048 RMK AO2 SLP331 T00560000 (JC)","FM-15","7",,,,,,,,,,,,,,,,,,,,,,,,,,,,"2007-05-17"
"72793024233","2017-12-12T11:53:00","FM-15","7",,,,,,,,,,,,,,,,,,,,,,,,,,,,,,,,,,,,,,"30.47","31","43","0.00",,,,"63","30.50","BKN:07 60 BKN:07 150","30.00","10.00","38","200",,"3",,,,,,,,,,,,,,,,,,,,,,,,,,,,,,,,,,,,,"MET10612/12/17 11:53:02 METAR KSEA 121953Z 20003KT 10SM BKN060 BKN150 06/M01 A3047 RMK AO2 SLP327 T00611006 (JC)","FM-15","7",,,,,,,,,,,,,,,,,,,,,,,,,,,,"2007-05-17"
"72793024233","2017-12-12T12:53:00","FM-15","7",,,,,,,,,,,,,,,,,,,,,,,,,,,,,,,,,,,,,,"30.44","26","45","0.00",,"+0.04","8","48","30.46","BKN:07 60 BKN:07 150","29.97","10.00","37","080",,"3",,,,,,,,,,,,,,,,,,,,,,,,,,,,,,,,,,,,,"MET11212/12/17 12:53:02 METAR KSEA 122053Z 08003KT 10SM BKN060 BKN150 07/M03 A3044 RMK AO2 SLP316 T00721033 58014 (JC)","FM-15","7",,,,,,,,,,,,,,,,,,,,,,,,,,,,"2007-05-17"
"72793024233","2017-12-12T13:53:00","FM-15","7",,,,,,,,,,,,,,,,,,,,,,,,,,,,,,,,,,,,,,"30.41","33","45","0.00",,,,"63","30.44","BKN:07 50 BKN:07 140 BKN:07 200","29.94","10.00","40","280",,"3",,,,,,,,,,,,,,,,,,,,,,,,,,,,,,,,,,,,,"MET11212/12/17 13:53:02 METAR KSEA 122153Z 28003KT 10SM BKN050 BKN140 BKN200 07/01 A3041 RMK AO2 SLP309 T00720006 (RS)","FM-15","7",,,,,,,,,,,,,,,,,,,,,,,,,,,,"2007-05-17"
"72793024233","2017-12-12T14:53:00","FM-15","7",,,,,,,,,,,,,,,,,,,,,,,,,,,,,,,,,,,,,,"30.40","35","45","0.00",,,,"68","30.43","FEW:02 60 SCT:04 140 BKN:07 250","29.93","10.00","41","280",,"3",,,,,,,,,,,,,,,,,,,,,,,,,,,,,,,,,,,,,"MET11212/12/17 14:53:02 METAR KSEA 122253Z 28003KT 10SM FEW060 SCT140 BKN250 07/02 A3040 RMK AO2 SLP305 T00720017 (RS)","FM-15","7",,,,,,,,,,,,,,,,,,,,,,,,,,,,"2007-05-17"
"72793024233","2017-12-12T15:53:00","FM-15","7",,,,,,,,,,,,,,,,,,,,,,,,,,,,,,,,,,,,,,"30.40","34","44","0.00",,"+0.04","6","68","30.43","FEW:02 60 SCT:04 140 BKN:07 250","29.93","10.00","40","310",,"6",,,,,,,,,,,,,,,,,,,,,,,,,,,,,,,,,,,,,"MET14312/12/17 15:53:02 METAR KSEA 122353Z 31005KT 10SM FEW060 SCT140 BKN250 07/01 A3040 RMK AO2 SLP304 ACSL DSNT SE T00670011 10078 20050 56013 (RS)","FM-15","7",,,,,,,,,,,,,,,,,,,,,,,,,,,,"2007-05-17"
"72793024233","2017-12-12T16:00:00","FM-12","4",,,,,,,,,,,,,,,,,,,,,,,,,,,,,,,,,,,,,,,"34","44",,,"+0.04","6","68","30.43","57","29.91","9.94","40","310",,"6",,,,,,,,,,,,,,,,,,,,,,,,,,,,,,,,,,,,,"SYN08072793 32766 63105 10067 20011 30130 40304 56013 92353 333 10078 20000 555 91300=","FM-12","4",,,,,,,,,,,,,,,,,,,,,,,,,,,,"2007-05-17"
"72793024233","2017-12-12T16:53:00","FM-15","7",,,,,,,,,,,,,,,,,,,,,,,,,,,,,,,,,,,,,,"30.40","34","41","0.00",,,,"76","30.42","SCT:04 140 SCT:04 250","29.93","10.00","38","350",,"5",,,,,,,,,,,,,,,,,,,,,,,,,,,,,,,,,,,,,"MET11312/12/17 16:53:01 METAR KSEA 130053Z 35004KT 10SM SCT140 SCT250 05/01 A3040 RMK AO2 SLP303 ACSL DSNT SE T00500011","FM-15","7",,,,,,,,,,,,,,,,,,,,,,,,,,,,"2007-05-17"
"72793024233","2017-12-12T17:53:00","FM-15","7",,,,,,,,,,,,,,,,,,,,,,,,,,,,,,,,,,,,,,"30.40","33","41","0.00",,,,"73","30.42","FEW:02 150 SCT:04 250","29.93","10.00","38","010",,"6",,,,,,,,,,,,,,,,,,,,,,,,,,,,,,,,,,,,,"MET10012/12/17 17:53:01 METAR KSEA 130153Z 01005KT 10SM FEW150 SCT250 05/01 A3040 RMK AO2 SLP303 T00500006","FM-15","7",,,,,,,,,,,,,,,,,,,,,,,,,,,,"2007-05-17"
"72793024233","2017-12-12T18:53:00","FM-15","7",,,,,,,,,,,,,,,,,,,,,,,,,,,,,,,,,,,,,,"30.40","33","39","0.00",,"+0.00","7","79","30.42","FEW:02 250","29.93","10.00","37","350",,"3",,,,,,,,,,,,,,,,,,,,,,,,,,,,,,,,,,,,,"MET09912/12/17 18:53:02 METAR KSEA 130253Z 35003KT 10SM FEW250 04/01 A3040 RMK AO2 SLP303 T00390006 57001","FM-15","7",,,,,,,,,,,,,,,,,,,,,,,,,,,,"2007-05-17"
"72793024233","2017-12-12T19:53:00","FM-15","7",,,,,,,,,,,,,,,,,,,,,,,,,,,,,,,,,,,,,,"30.39","33","40","0.00",,,,"77","30.42","SCT:04 200 SCT:04 250","29.92","10.00","37","010",,"9",,,,,,,,,,,,,,,,,,,,,,,,,,,,,,,,,,,,,"MET10012/12/17 19:53:02 METAR KSEA 130353Z 01008KT 10SM SCT200 SCT250 04/01 A3039 RMK AO2 SLP301 T00440006","FM-15","7",,,,,,,,,,,,,,,,,,,,,,,,,,,,"2007-05-17"
"72793024233","2017-12-12T20:53:00","FM-15","7",,,,,,,,,,,,,,,,,,,,,,,,,,,,,,,,,,,,,,"30.39","33","41","0.00",,,,"73","30.41","BKN:07 160","29.92","10.00","38","010",,"6",,,,,,,,,,,,,,,,,,,,,,,,,,,,,,,,,,,,,"MET09312/12/17 20:53:02 METAR KSEA 130453Z 01005KT 10SM BKN160 05/01 A3039 RMK AO2 SLP299 T00500006","FM-15","7",,,,,,,,,,,,,,,,,,,,,,,,,,,,"2007-05-17"
"72793024233","2017-12-12T21:53:00","FM-15","7",,,,,,,,,,,,,,,,,,,,,,,,,,,,,,,,,,,,,,"30.40","35","42","0.00",,"-0.01","3","76","30.43","OVC:08 140","29.93","10.00","39","010",,"9",,,,,,,,,,,,,,,,,,,,,,,,,,,,,,,,,,,,,"MET11112/12/17 21:53:02 METAR KSEA 130553Z 01008KT 10SM OVC140 06/02 A3040 RMK AO2 SLP305 T00560017 10067 20033 53003","FM-15","7",,,,,,,,,,,,,,,,,,,,,,,,,,,,"2007-05-17"
"72793024233","2017-12-12T22:00:00","FM-12","4",,,,,,,,,,,,,,,,,,,,,,,,,,,,,,,,,,,,,,,"35","42",,,"-0.01","3","76","30.43",,"29.91","9.94","39","010",,"9",,,,,,,,,,,,,,,,,,,,,,,,,,,,,,,,,,,,,"SYN08072793 32966 80108 10056 20017 30130 40305 53003 90553 333 10067 20000 555 91306=","FM-12","4",,,,,,,,,,,,,,,,,,,,,,,,,,,,"2007-05-17"
"72793024233","2017-12-12T22:53:00","FM-15","7",,,,,,,,,,,,,,,,,,,,,,,,,,,,,,,,,,,,,,"30.42","34","42","0.00",,,,"73","30.44","OVC:08 120","29.95","10.00","39","040",,"9",,,,,,,,,,,,,,,,,,,,,,,,,,,,,,,,,,,,,"MET09312/12/17 22:53:02 METAR KSEA 130653Z 04008KT 10SM OVC120 06/01 A3042 RMK AO2 SLP308 T00560011","FM-15","7",,,,,,,,,,,,,,,,,,,,,,,,,,,,"2007-05-17"
"72793024233","2017-12-12T23:53:00","FM-15","7",,,,,,,,,,,,,,,,,,,,,,,,,,,,,,,,,,,,,,"30.44","35","43","0.00",,,,"74","30.46","BKN:07 110","29.97","10.00","40","050",,"10",,,,,,,,,,,,,,,,,,,,,,,,,,,,,,,,,,,,,"MET10312/12/17 23:53:02 METAR KSEA 130753Z 05009KT 10SM BKN110 06/02 A3044 RMK AO2 SLP315 T00610017 400780000","FM-15","7",,,,,,,,,,,,,,,,,,,,,,,,,,,,"2007-05-17"
"72793024233","2017-12-12T23:59:00","SOD  ","6",,,,,,,,,,,,,,,"30","39","69","30.46","29.96","36","4.5","0","-1.6","26","46","32","030","15","0.00","0","0.0","060","12",,,,,,,,,,,,,,,,,,,,,,,,,,,,,,,,,,,,,,,,,,,,,,,,,,,,,,,,,"SOD73024 HR PRECIPITATION (IN):0.00  24 HR MAX TEMP (F):46 24 HR MAX TEMP TIME (LST):1440 24 HR MIN TEMP (F):32 24 HR MIN TEMP TIME (LST):0415 AVERAGE STATION PRESSURE:29.955 MINIMUM SEA LEVEL PRESSURE:30.41 TIME OF OCCURRENCE:2131 PEAK WIND SPEED (MPH):15  PEAK WIND DIR (DEG):30  PEAK WIND TIME (LST):2229  FASTEST 2MIN SPEED (MPH):12 FASTEST 2MIN DIR (DEG):60  FASTEST 2MIN TIME (LST):2342 AVERAGE WIND SPEED (MPH):4.5  24 HR AVG TEMP (F):39 HEATING DEGREE DAYS:26  COOLING DEGREE DAYS:0   LATEST DAY MAX TEMP (0700-1900 LST):46  LATEST NIGHT MIN TEMP(1900-0800 LST):32 HOURLY INCREMENTAL PRECIPITATION VALUES (IN):.00 0.00 0.00 0.00 0.00 0.00 0.00 0.00 0.00 0.00 0.00 0.00 0.00 0.00 0.00 0.00 0.00 0.00 0.00 0.00 0.00 0.00 0.00 0.00","SOD  ","6",,,,,,,,,,,,,,,,,,,,,,,,,"0748","1618",,"2007-05-17"
"72793024233","2017-12-13T00:53:00","FM-15","7",,,,,,,,,,,,,,,,,,,,,,,,,,,,,,,,,,,,,,"30.42","35","42","0.00",,"-0.01","0","76","30.44","OVC:08 110","29.95","10.00","39","040",,"6",,,,,,,,,,,,,,,,,,,,,,,,,,,,,,,,,,,,,"MET10612/13/17 00:53:02 METAR KSEA 130853Z 04005KT 10SM OVC110 06/02 A3042 RMK AO2 SLP309 T00560017 50004 $ (TL)","FM-15","7",,,,,,,,,,,,,,,,,,,,,,,,,,,,"2007-05-17"
"72793024233","2017-12-13T01:53:00","FM-15","7",,,,,,,,,,,,,,,,,,,,,,,,,,,,,,,,,,,,,,"30.40","35","38","0.00",,,,"89","30.42","FEW:02 110","29.93","10.00","37","000",,"0",,,,,,,,,,,,,,,,,,,,,,,,,,,,,,,,,,,,,"MET09812/13/17 01:53:02 METAR KSEA 130953Z 00000KT 10SM FEW110 03/02 A3040 RMK AO2 SLP303 T00330017 (TL)","FM-15","7",,,,,,,,,,,,,,,,,,,,,,,,,,,,"2007-05-17"
"72793024233","2017-12-13T02:53:00","FM-15","7",,,,,,,,,,,,,,,,,,,,,,,,,,,,,,,,,,,,,,"30.41","33","36","0.00",,,,"89","30.43","FEW:02 110","29.94","9.00","35","330",,"7",,,,,,,,,,,,,,,,,,,,,,,,,,,,,,,,,,,,,"MET09712/13/17 02:53:02 METAR KSEA 131053Z 33006KT 9SM FEW110 02/01 A3041 RMK AO2 SLP306 T00220006 (TL)","FM-15","7",,,,,,,,,,,,,,,,,,,,,,,,,,,,"2007-05-17"
"72793024233","2017-12-13T03:53:00","FM-15","7",,,,,,,,,,,,,,,,,,,,,,,,,,,,,,,,,,,,,,"30.41","35","37","0.00",,"+0.01","6","93","30.43","FEW:02 2","29.94","10.00","36","050",,"8",,,,,,,,,,,,,,,,,,,,,,,,,,,,,,,,,,,,,"MET11612/13/17 03:53:02 METAR KSEA 131153Z 05007KT 10SM FEW002 03/02 A3041 RMK AO2 SLP306 T00280017 10061 20017 56003 (TL)","FM-15","7",,,,,,,,,,,,,,,,,,,,,,,,,,,,"2007-05-17"
"72793024233","2017-12-13T04:00:00","FM-12","4",,,,,,,,,,,,,,,,,,,,,,,,,,,,,,,,,,,,,,,"35","37",,,"+0.01","6","93","30.43","2","29.92","9.94","36","050",,"8",,,,,,,,,,,,,,,,,,,,,,,,,,,,,,,,,,,,,"SYN08072793 32166 20507 10028 20017 30133 40306 56003 91153 333 10078 20017 555 91312=","FM-12","4",,,,,,,,,,,,,,,,,,,,,,,,,,,,"2007-05-17"
"72793024233","2017-12-13T04:53:00","FM-15","7",,,,,,,,,,,,,,,,,,,,,,,,,,,,,,,,,,,,,,"30.40","33","38","0.00",,,,"83","30.42","FEW:02 110","29.93","10.00","36","070",,"8",,,,,,,,,,,,,,,,,,,,,,,,,,,,,,,,,,,,,"MET09812/13/17 04:53:02 METAR KSEA 131253Z 07007KT 10SM FEW110 03/01 A3040 RMK AO2 SLP303 T00330006 (TL)","FM-15","7",,,,,,,,,,,,,,,,,,,,,,,,,,,,"2007-05-17"
"72793024233","2017-12-13T05:53:00","FM-15","7",,,,,,,,,,,,,,,,,,,,,,,,,,,,,,,,,,,,,,"30.41","32","36","0.00",,,,"86","30.43","CLR:00","29.94","10.00","34","360",,"8",,,,,,,,,,,,,,,,,,,,,,,,,,,,,,,,,,,,,"MET09512/13/17 05:53:02 METAR KSEA 131353Z 36007KT 10SM CLR 02/00 A3041 RMK AO2 SLP306 T00220000 (JC)","FM-15","7",,,,,,,,,,,,,,,,,,,,,,,,,,,,"2007-05-17"
"72793024233","2017-12-13T06:53:00","FM-15","7",,,,,,,,,,,,,,,,,,,,,,,,,,,,,,,,,,,,,,"30.40","32","37","0.00",,"+0.01","6","82","30.43","FEW:02 200","29.93","10.00","35","050",,"9",,,,,,,,,,,,,,,,,,,,,,,,,,,,,,,,,,,,,"MET10412/13/17 06:53:02 METAR KSEA 131453Z 05008KT 10SM FEW200 03/00 A3040 RMK AO2 SLP304 T00280000 56002 (JC)","FM-15","7",,,,,,,,,,,,,,,,,,,,,,,,,,,,"2007-05-17"
"72793024233","2017-12-13T07:53:00","FM-15","7",,,,,,,,,,,,,,,,,,,,,,,,,,,,,,,,,,,,,,"30.42","31","36","0.00",,,,"82","30.45","FEW:02 200","29.95","10.00","34","360",,"5",,,,,,,,,,,,,,,,,,,,,,,,,,,,,,,,,,,,,"MET09912/13/17 07:53:02 METAR KSEA 131553Z 36004KT 10SM FEW200 02/M01 A3042 RMK AO2 SLP311 T00221006 (JC)","FM-15","7",,,,,,,,,,,,,,,,,,,,,,,,,,,,"2007-05-17"
"72793024233","2017-12-13T08:26:00","FM-16","7",,,,,,,,,,,,,,,,,,,,,,,,,,,,,,,,,,,,,,"30.42","32","36",,,,,"86",,"FEW:02 7 BKN:07 250","29.95","10.00","34","010",,"5",,,,,,,,,,,,,,,,,,,,,,,,,,,,,,,,,,,,,"MET09812/13/17 08:26:02 SPECI KSEA 131626Z 01004KT 10SM FEW007 BKN250 02/00 A3042 RMK AO2 T00220000 (JC)","FM-16","7",,,,,,,,,,,,,,,,,,,,,,,,,,,,"2007-05-17"
"72793024233","2017-12-13T08:53:00","FM-15","7",,,,,,,,,,,,,,,,,,,,,,,,,,,,,,,,,,,,,,"30.43","33","40","0.00",,,,"77","30.46","FEW:02 7 SCT:04 250","29.96","10.00","37","VRB",,"5",,,,,,,,,,,,,,,,,,,,,,,,,,,,,,,,,,,,,"MET10512/13/17 08:53:02 METAR KSEA 131653Z VRB04KT 10SM FEW007 SCT250 04/01 A3043 RMK AO2 SLP315 T00440006 (JC)","FM-15","7",,,,,,,,,,,,,,,,,,,,,,,,,,,,"2007-05-17"
"72793024233","2017-12-13T09:53:00","FM-15","7",,,,,,,,,,,,,,,,,,,,,,,,,,,,,,,,,,,,,,"30.43","34","42","0.00",,"-0.03","0","73","30.45","FEW:02 15 SCT:04 250","29.96","10.00","39","360",,"8",,,,,,,,,,,,,,,,,,,,,,,,,,,,,,,,,,,,,"MET12312/13/17 09:53:02 METAR KSEA 131753Z 36007KT 10SM FEW015 SCT250 06/01 A3043 RMK AO2 SLP313 T00560011 10061 20011 50010 (JC)","FM-15","7",,,,,,,,,,,,,,,,,,,,,,,,,,,,"2007-05-17"
"72793024233","2017-12-13T10:00:00","FM-12","4",,,,,,,,,,,,,,,,,,,,,,,,,,,,,,,,,,,,,,,"34","42",,,"0.03","9","73","30.45","15","29.94","9.94","39","360",,"8",,,,,,,,,,,,,,,,,,,,,,,,,,,,,,,,,,,,,"SYN08072793 32466 43607 10056 20011 30140 40313 50010 91753 333 10061 20011 555 91318=","FM-12","4",,,,,,,,,,,,,,,,,,,,,,,,,,,,"2007-05-17"
"72793024233","2017-12-13T10:53:00","FM-15","7",,,,,,,,,,,,,,,,,,,,,,,,,,,,,,,,,,,,,,"30.40","37","44","0.00",,,,"76","30.43","SCT:04 250","29.93","10.00","41","010",,"9",,,,,,,,,,,,,,,,,,,,,,,,,,,,,,,,,,,,,"MET09812/13/17 10:53:02 METAR KSEA 131853Z 01008KT 10SM SCT250 07/03 A3040 RMK AO2 SLP304 T00670028 (JC)","FM-15","7",,,,,,,,,,,,,,,,,,,,,,,,,,,,"2007-05-17"
"72793024233","2017-12-13T11:53:00","FM-15","7",,,,,,,,,,,,,,,,,,,,,,,,,,,,,,,,,,,,,,"30.40","39","47","0.00",,,,"74","30.43","BKN:07 250","29.93","10.00","43","360",,"11",,,,,,,,,,,,,,,,,,,,,,,,,,,,,,,,,,,,,"MET09812/13/17 11:53:02 METAR KSEA 131953Z 36010KT 10SM BKN250 08/04 A3040 RMK AO2 SLP304 T00830039 (JC)","FM-15","7",,,,,,,,,,,,,,,,,,,,,,,,,,,,"2007-05-17"
"72793024233","2017-12-13T12:53:00","FM-15","7",,,,,,,,,,,,,,,,,,,,,,,,,,,,,,,,,,,,,,"30.38","38","47","0.00",,"+0.05","7","71","30.40","BKN:07 250","29.91","10.00","43","020",,"18",,,,,,,,,,,,,,,,,,,,,,,,,,,,,,,,,,,,,"MET10412/13/17 12:53:02 METAR KSEA 132053Z 02016KT 10SM BKN250 08/03 A3038 RMK AO2 SLP295 T00830033 57018 (JC)","FM-15","7",,,,,,,,,,,,,,,,,,,,,,,,,,,,"2007-05-17"
"72793024233","2017-12-13T13:53:00","FM-15","7",,,,,,,,,,,,,,,,,,,,,,,,,,,,,,,,,,,,,,"30.37","37","48","0.00",,,,"66","30.39","FEW:02 150 BKN:07 250","29.90","10.00","43","020",,"14",,,,,,,,,,,,,,,,,,,,,,,,,,,,,,,,,,,,,"MET10512/13/17 13:53:02 METAR KSEA 132153Z 02012KT 10SM FEW150 BKN250 09/03 A3037 RMK AO2 SLP291 T00890028 (RS)","FM-15","7",,,,,,,,,,,,,,,,,,,,,,,,,,,,"2007-05-17"
"72793024233","2017-12-13T14:53:00","FM-15","7",,,,,,,,,,,,,,,,,,,,,,,,,,,,,,,,,,,,,,"30.36","37","46","0.00",,,,"71","30.39","SCT:04 160 BKN:07 250","29.89","10.00","42","350",,"11",,,,,,,,,,,,,,,,,,,,,,,,,,,,,,,,,,,,,"MET10512/13/17 14:53:02 METAR KSEA 132253Z 35010KT 10SM SCT160 BKN250 08/03 A3036 RMK AO2 SLP292 T00780028 (RS)","FM-15","7",,,,,,,,,,,,,,,,,,,,,,,,,,,,"2007-05-17"
"72793024233","2017-12-13T15:53:00","FM-15","7",,,,,,,,,,,,,,,,,,,,,,,,,,,,,,,,,,,,,,"30.37","36","46","0.00",,"+0.01","5","68","30.39","SCT:04 160 BKN:07 250","29.90","10.00","42","010",,"17",,,,,,,,,,,,,,,,,,,,,,,,,,,,,,,,,,,,,"MET12312/13/17 15:53:02 METAR KSEA 132353Z 01015KT 10SM SCT160 BKN250 08/02 A3037 RMK AO2 SLP292 T00780022 10089 20056 55003 (RS)","FM-15","7",,,,,,,,,,,,,,,,,,,,,,,,,,,,"2007-05-17"
"72793024233","2017-12-13T16:00:00","FM-12","4",,,,,,,,,,,,,,,,,,,,,,,,,,,,,,,,,,,,,,,"36","46",,,"+0.01","5","68","30.39",,"29.88","9.94","42","010",,"17",,,,,,,,,,,,,,,,,,,,,,,,,,,,,,,,,,,,,"SYN08072793 32966 60115 10078 20022 30120 40292 55003 92353 333 10089 20017 555 91400=","FM-12","4",,,,,,,,,,,,,,,,,,,,,,,,,,,,"2007-05-17"
"72793024233","2017-12-13T16:53:00","FM-15","7",,,,,,,,,,,,,,,,,,,,,,,,,,,,,,,,,,,,,,"30.38","35","46","0.00",,,,"66","30.40","FEW:02 180 SCT:04 250","29.91","10.00","41","030",,"17",,,,,,,,,,,,,,,,,,,,,,,,,,,,,,,,,,,,,"MET10012/13/17 16:53:01 METAR KSEA 140053Z 03015KT 10SM FEW180 SCT250 08/02 A3038 RMK AO2 SLP296 T00780017","FM-15","7",,,,,,,,,,,,,,,,,,,,,,,,,,,,"2007-05-17"
"72793024233","2017-12-13T17:53:00","FM-15","7",,,,,,,,,,,,,,,,,,,,,,,,,,,,,,,,,,,,,,"30.37","36","45","0.00",,,,"71","30.40","SCT:04 230","29.90","10.00","41","020",,"15",,,,,,,,,,,,,,,,,,,,,,,,,,,,,,,,,,,,,"MET09312/13/17 17:53:01 METAR KSEA 140153Z 02013KT 10SM SCT230 07/02 A3037 RMK AO2 SLP294 T00720022","FM-15","7",,,,,,,,,,,,,,,,,,,,,,,,,,,,"2007-05-17"
"72793024233","2017-12-13T18:53:00","FM-15","7",,,,,,,,,,,,,,,,,,,,,,,,,,,,,,,,,,,,,,"30.36","37","43","0.00",,"+0.01","8","80","30.39","SCT:04 240","29.89","10.00","40","350",,"6",,,,,,,,,,,,,,,,,,,,,,,,,,,,,,,,,,,,,"MET09912/13/17 18:53:02 METAR KSEA 140253Z 35005KT 10SM SCT240 06/03 A3036 RMK AO2 SLP291 T00610028 58002","FM-15","7",,,,,,,,,,,,,,,,,,,,,,,,,,,,"2007-05-17"
"72793024233","2017-12-13T19:53:00","FM-15","7",,,,,,,,,,,,,,,,,,,,,,,,,,,,,,,,,,,,,,"30.38","37","43","0.00",,,,"80","30.41","SCT:04 200","29.91","10.00","40","010",,"13",,,,,,,,,,,,,,,,,,,,,,,,,,,,,,,,,,,,,"MET09312/13/17 19:53:02 METAR KSEA 140353Z 01011KT 10SM SCT200 06/03 A3038 RMK AO2 SLP297 T00610028","FM-15","7",,,,,,,,,,,,,,,,,,,,,,,,,,,,"2007-05-17"
"72793024233","2017-12-13T20:53:00","FM-15","7",,,,,,,,,,,,,,,,,,,,,,,,,,,,,,,,,,,,,,"30.38","38","43","0.00",,,,"82","30.41","SCT:04 200","29.91","10.00","41","030",,"14",,,,,,,,,,,,,,,,,,,,,,,,,,,,,,,,,,,,,"MET09312/13/17 20:53:02 METAR KSEA 140453Z 03012KT 10SM SCT200 06/03 A3038 RMK AO2 SLP298 T00610033","FM-15","7",,,,,,,,,,,,,,,,,,,,,,,,,,,,"2007-05-17"
"72793024233","2017-12-13T21:53:00","FM-15","7",,,,,,,,,,,,,,,,,,,,,,,,,,,,,,,,,,,,,,"30.39","38","43","0.00",,"-0.02","1","82","30.41","SCT:04 200","29.92","10.00","41","020",,"10",,,,,,,,,,,,,,,,,,,,,,,,,,,,,,,,,,,,,"MET11312/13/17 21:53:02 METAR KSEA 140553Z 02009KT 10SM SCT200 06/03 A3039 RMK AO2 SLP298 T00610033 10078 20061 51008 $","FM-15","7",,,,,,,,,,,,,,,,,,,,,,,,,,,,"2007-05-17"
"72793024233","2017-12-13T22:00:00","FM-12","4",,,,,,,,,,,,,,,,,,,,,,,,,,,,,,,,,,,,,,,"38","43",,,"-0.02","1","82","30.41",,"29.90","9.94","41","020",,"10",,,,,,,,,,,,,,,,,,,,,,,,,,,,,,,,,,,,,"SYN08072793 32966 40209 10061 20033 30126 40298 51008 90553 333 10078 20017 555 91406=","FM-12","4",,,,,,,,,,,,,,,,,,,,,,,,,,,,"2007-05-17"
"72793024233","2017-12-13T22:53:00","FM-15","7",,,,,,,,,,,,,,,,,,,,,,,,,,,,,,,,,,,,,,"30.39","38","43","0.00",,,,"82","30.42","BKN:07 200","29.92","10.00","41","020",,"10",,,,,,,,,,,,,,,,,,,,,,,,,,,,,,,,,,,,,"MET09512/13/17 22:53:02 METAR KSEA 140653Z 02009KT 10SM BKN200 06/03 A3039 RMK AO2 SLP301 T00610033 $","FM-15","7",,,,,,,,,,,,,,,,,,,,,,,,,,,,"2007-05-17"
"72793024233","2017-12-13T23:53:00","FM-15","7",,,,,,,,,,,,,,,,,,,,,,,,,,,,,,,,,,,,,,"30.39","37","40","0.00",,,,"89","30.41","SCT:04 180","29.92","10.00","39","000",,"0",,,,,,,,,,,,,,,,,,,,,,,,,,,,,,,,,,,,,"MET10312/13/17 23:53:02 METAR KSEA 140753Z 00000KT 10SM SCT180 04/03 A3039 RMK AO2 SLP298 T00440028 400890011","FM-15","7",,,,,,,,,,,,,,,,,,,,,,,,,,,,"2007-05-17"
"72793024233","2017-12-13T23:59:00","SOD  ","6",,,,,,,,,,,,,,,"36","41","79","30.42","29.92","39","9.6","0","0.5","24","48","34","010","23","0.00","0","0.0","010","21",,,,,,,,,,,,,,,,,,,,,,,,,,,,,,,,,,,,,,,,,,,,,,,,,,,,,,,,,"SOD73024 HR PRECIPITATION (IN):0.00  24 HR MAX TEMP (F):48 24 HR MAX TEMP TIME (LST):1421 24 HR MIN TEMP (F):34 24 HR MIN TEMP TIME (LST):0800 AVERAGE STATION PRESSURE:29.920 MINIMUM SEA LEVEL PRESSURE:30.38 TIME OF OCCURRENCE:1847 PEAK WIND SPEED (MPH):23  PEAK WIND DIR (DEG):10  PEAK WIND TIME (LST):1412  FASTEST 2MIN SPEED (MPH):21 FASTEST 2MIN DIR (DEG):10  FASTEST 2MIN TIME (LST):1413 AVERAGE WIND SPEED (MPH):9.6  24 HR AVG TEMP (F):41 HEATING DEGREE DAYS:24  COOLING DEGREE DAYS:0   LATEST DAY MAX TEMP (0700-1900 LST):48  LATEST NIGHT MIN TEMP(1900-0800 LST):34 HOURLY INCREMENTAL PRECIPITATION VALUES (IN):.00 0.00 0.00 0.00 0.00 0.00 0.00 0.00 0.00 0.00 0.00 0.00 0.00 0.00 0.00 0.00 0.00 0.00 0.00 0.00 0.00 0.00 0.00 0.00","SOD  ","6",,,,,,,,,,,,,,,,,,,,,,,,,"0748","1618",,"2007-05-17"
"72793024233","2017-12-14T00:53:00","FM-15","7",,,,,,,,,,,,,,,,,,,,,,,,,,,,,,,,,,,,,,"30.38","38","40","0.00",,"+0.00","8","93","30.41","BKN:07 240","29.91","10.00","39","050",,"7",,,,,,,,,,,,,,,,,,,,,,,,,,,,,,,,,,,,,"MET10412/14/17 00:53:02 METAR KSEA 140853Z 05006KT 10SM BKN240 04/03 A3038 RMK AO2 SLP297 T00440033 58001 (TL)","FM-15","7",,,,,,,,,,,,,,,,,,,,,,,,,,,,"2007-05-17"
"72793024233","2017-12-14T01:53:00","FM-15","7",,,,,,,,,,,,,,,,,,,,,,,,,,,,,,,,,,,,,,"30.37","34","36","0.00",,,,"93","30.39","FEW:02 240","29.90","10.00","35","000",,"0",,,,,,,,,,,,,,,,,,,,,,,,,,,,,,,,,,,,,"MET09812/14/17 01:53:02 METAR KSEA 140953Z 00000KT 10SM FEW240 02/01 A3037 RMK AO2 SLP292 T00220011 (TL)","FM-15","7",,,,,,,,,,,,,,,,,,,,,,,,,,,,"2007-05-17"
"72793024233","2017-12-14T02:53:00","FM-15","7",,,,,,,,,,,,,,,,,,,,,,,,,,,,,,,,,,,,,,"30.35","36","39","0.00",,,,"89","30.38","CLR:00","29.88","10.00","38","020",,"10",,,,,,,,,,,,,,,,,,,,,,,,,,,,,,,,,,,,,"MET09512/14/17 02:53:02 METAR KSEA 141053Z 02009KT 10SM CLR 04/02 A3035 RMK AO2 SLP287 T00390022 (TL)","FM-15","7",,,,,,,,,,,,,,,,,,,,,,,,,,,,"2007-05-17"
"72793024233","2017-12-14T03:53:00","FM-15","7",,,,,,,,,,,,,,,,,,,,,,,,,,,,,,,,,,,,,,"30.34","36","38","0.00",,"+0.04","6","93","30.36","SCT:04 250","29.87","10.00","37","020",,"8",,,,,,,,,,,,,,,,,,,,,,,,,,,,,,,,,,,,,"MET11612/14/17 03:53:02 METAR KSEA 141153Z 02007KT 10SM SCT250 03/02 A3034 RMK AO2 SLP282 T00330022 10061 20022 56014 (TL)","FM-15","7",,,,,,,,,,,,,,,,,,,,,,,,,,,,"2007-05-17"
"72793024233","2017-12-14T04:00:00","FM-12","4",,,,,,,,,,,,,,,,,,,,,,,,,,,,,,,,,,,,,,,"36","38",,,"+0.04","6","93","30.36",,"29.85","9.94","37","020",,"8",,,,,,,,,,,,,,,,,,,,,,,,,,,,,,,,,,,,,"SYN08072793 32966 40207 10033 20022 30110 40282 56014 91153 333 10089 20022 555 91412=","FM-12","4",,,,,,,,,,,,,,,,,,,,,,,,,,,,"2007-05-17"
"72793024233","2017-12-14T04:53:00","FM-15","7",,,,,,,,,,,,,,,,,,,,,,,,,,,,,,,,,,,,,,"30.33","37","39","0.00",,,,"93","30.35","SCT:04 250","29.86","10.00","38","030",,"10",,,,,,,,,,,,,,,,,,,,,,,,,,,,,,,,,,,,,"MET09812/14/17 04:53:02 METAR KSEA 141253Z 03009KT 10SM SCT250 04/03 A3033 RMK AO2 SLP279 T00390028 (TL)","FM-15","7",,,,,,,,,,,,,,,,,,,,,,,,,,,,"2007-05-17"
"72793024233","2017-12-14T05:53:00","FM-15","7",,,,,,,,,,,,,,,,,,,,,,,,,,,,,,,,,,,,,,"30.32","36","41","0.00",,,,"82","30.35","BKN:07 250","29.85","10.00","39","040",,"7",,,,,,,,,,,,,,,,,,,,,,,,,,,,,,,,,,,,,"MET09812/14/17 05:53:02 METAR KSEA 141353Z 04006KT 10SM BKN250 05/02 A3032 RMK AO2 SLP277 T00500022 (TL)","FM-15","7",,,,,,,,,,,,,,,,,,,,,,,,,,,,"2007-05-17"
"72793024233","2017-12-14T06:53:00","FM-15","7",,,,,,,,,,,,,,,,,,,,,,,,,,,,,,,,,,,,,,"30.33","35","39","0.00",,"+0.01","5","86","30.36","SCT:04 230","29.86","10.00","37","350",,"7",,,,,,,,,,,,,,,,,,,,,,,,,,,,,,,,,,,,,"MET10412/14/17 06:53:02 METAR KSEA 141453Z 35006KT 10SM SCT230 04/02 A3033 RMK AO2 SLP281 T00390017 55003 (LC)","FM-15","7",,,,,,,,,,,,,,,,,,,,,,,,,,,,"2007-05-17"
"72793024233","2017-12-14T07:53:00","FM-15","7",,,,,,,,,,,,,,,,,,,,,,,,,,,,,,,,,,,,,,"30.33","35","39","0.00",,,,"86","30.36","FEW:02 10 BKN:07 230","29.86","10.00","37","010",,"3",,,,,,,,,,,,,,,,,,,,,,,,,,,,,,,,,,,,,"MET10512/14/17 07:53:02 METAR KSEA 141553Z 01003KT 10SM FEW010 BKN230 04/02 A3033 RMK AO2 SLP280 T00390017 (LC)","FM-15","7",,,,,,,,,,,,,,,,,,,,,,,,,,,,"2007-05-17"
"72793024233","2017-12-14T08:53:00","FM-15","7",,,,,,,,,,,,,,,,,,,,,,,,,,,,,,,,,,,,,,"30.33","37","41","0.00",,,,"86","30.36","FEW:02 10 BKN:07 230","29.86","10.00","39","000",,"0",,,,,,,,,,,,,,,,,,,,,,,,,,,,,,,,,,,,,"MET10512/14/17 08:53:02 METAR KSEA 141653Z 00000KT 10SM FEW010 BKN230 05/03 A3033 RMK AO2 SLP280 T00500028 (LC)","FM-15","7",,,,,,,,,,,,,,,,,,,,,,,,,,,,"2007-05-17"
"72793024233","2017-12-14T09:53:00","FM-15","7",,,,,,,,,,,,,,,,,,,,,,,,,,,,,,,,,,,,,,"30.34","35","43","0.00",,"-0.01","3","74","30.37","BKN:07 230","29.87","10.00","40","210",,"3",,,,,,,,,,,,,,,,,,,,,,,,,,,,,,,,,,,,,"MET11612/14/17 09:53:02 METAR KSEA 141753Z 21003KT 10SM BKN230 06/02 A3034 RMK AO2 SLP283 T00610017 10067 20028 53003 (LC)","FM-15","7",,,,,,,,,,,,,,,,,,,,,,,,,,,,"2007-05-17"
"72793024233","2017-12-14T10:00:00","FM-12","4",,,,,,,,,,,,,,,,,,,,,,,,,,,,,,,,,,,,,,,"35","43",,,"-0.01","3","74","30.37",,"29.85","9.94","40","210",,"3",,,,,,,,,,,,,,,,,,,,,,,,,,,,,,,,,,,,,"SYN08072793 32966 62103 10061 20017 30110 40283 53003 91753 333 10067 20028 555 91418=","FM-12","4",,,,,,,,,,,,,,,,,,,,,,,,,,,,"2007-05-17"
"72793024233","2017-12-14T10:53:00","FM-15","7",,,,,,,,,,,,,,,,,,,,,,,,,,,,,,,,,,,,,,"30.32","36","46","0.00",,,,"68","30.35","SCT:04 120 BKN:07 230","29.85","10.00","42","000",,"0",,,,,,,,,,,,,,,,,,,,,,,,,,,,,,,,,,,,,"MET10512/14/17 10:53:02 METAR KSEA 141853Z 00000KT 10SM SCT120 BKN230 08/02 A3032 RMK AO2 SLP276 T00780022 (LC)","FM-15","7",,,,,,,,,,,,,,,,,,,,,,,,,,,,"2007-05-17"
"72793024233","2017-12-14T11:53:00","FM-15","7",,,,,,,,,,,,,,,,,,,,,,,,,,,,,,,,,,,,,,"30.31","36","48","0.00",,,,"63","30.33","SCT:04 120 BKN:07 230","29.84","10.00","43","VRB",,"3",,,,,,,,,,,,,,,,,,,,,,,,,,,,,,,,,,,,,"MET10512/14/17 11:53:02 METAR KSEA 141953Z VRB03KT 10SM SCT120 BKN230 09/02 A3031 RMK AO2 SLP271 T00890022 (LC)","FM-15","7",,,,,,,,,,,,,,,,,,,,,,,,,,,,"2007-05-17"
"72793024233","2017-12-14T12:53:00","FM-15","7",,,,,,,,,,,,,,,,,,,,,,,,,,,,,,,,,,,,,,"30.29","37","48","0.00",,"+0.05","6","66","30.32","SCT:04 120 BKN:07 230","29.82","10.00","43","270",,"3",,,,,,,,,,,,,,,,,,,,,,,,,,,,,,,,,,,,,"MET11112/14/17 12:53:02 METAR KSEA 142053Z 27003KT 10SM SCT120 BKN230 09/03 A3029 RMK AO2 SLP267 T00890028 56016 (LC)","FM-15","7",,,,,,,,,,,,,,,,,,,,,,,,,,,,"2007-05-17"
"72793024233","2017-12-14T13:53:00","FM-15","7",,,,,,,,,,,,,,,,,,,,,,,,,,,,,,,,,,,,,,"30.27","38","48","0.00",,,,"68","30.29","FEW:02 120 BKN:07 230","29.80","10.00","43","000",,"0",,,,,,,,,,,,,,,,,,,,,,,,,,,,,,,,,,,,,"MET10512/14/17 13:53:02 METAR KSEA 142153Z 00000KT 10SM FEW120 BKN230 09/03 A3027 RMK AO2 SLP258 T00890033 (RS)","FM-15","7",,,,,,,,,,,,,,,,,,,,,,,,,,,,"2007-05-17"
"72793024233","2017-12-14T14:53:00","FM-15","7",,,,,,,,,,,,,,,,,,,,,,,,,,,,,,,,,,,,,,"30.26","35","50","0.00",,,,"57","30.29","FEW:02 140 BKN:07 250","29.79","10.00","43","320",,"5",,,,,,,,,,,,,,,,,,,,,,,,,,,,,,,,,,,,,"MET10512/14/17 14:53:02 METAR KSEA 142253Z 32004KT 10SM FEW140 BKN250 10/02 A3026 RMK AO2 SLP256 T01000017 (RS)","FM-15","7",,,,,,,,,,,,,,,,,,,,,,,,,,,,"2007-05-17"
"72793024233","2017-12-14T15:53:00","FM-15","7",,,,,,,,,,,,,,,,,,,,,,,,,,,,,,,,,,,,,,"30.26","36","46","0.00",,"+0.03","5","68","30.29","FEW:02 180 BKN:07 250","29.79","10.00","42","280",,"6",,,,,,,,,,,,,,,,,,,,,,,,,,,,,,,,,,,,,"MET12312/14/17 15:53:02 METAR KSEA 142353Z 28005KT 10SM FEW180 BKN250 08/02 A3026 RMK AO2 SLP257 T00780022 10100 20050 55010 (RS)","FM-15","7",,,,,,,,,,,,,,,,,,,,,,,,,,,,"2007-05-17"
"72793024233","2017-12-14T16:00:00","FM-12","4",,,,,,,,,,,,,,,,,,,,,,,,,,,,,,,,,,,,,,,"36","46",,,"+0.03","5","68","30.29",,"29.78","9.94","42","280",,"6",,,,,,,,,,,,,,,,,,,,,,,,,,,,,,,,,,,,,"SYN08072793 32966 62805 10078 20022 30083 40257 55010 92353 333 10100 20022 555 91500=","FM-12","4",,,,,,,,,,,,,,,,,,,,,,,,,,,,"2007-05-17"
"72793024233","2017-12-14T16:53:00","FM-15","7",,,,,,,,,,,,,,,,,,,,,,,,,,,,,,,,,,,,,,"30.27","35","44","0.00",,,,"71","30.29","FEW:02 180 BKN:07 250","29.80","10.00","40","000",,"0",,,,,,,,,,,,,,,,,,,,,,,,,,,,,,,,,,,,,"MET10012/14/17 16:53:01 METAR KSEA 150053Z 00000KT 10SM FEW180 BKN250 07/02 A3027 RMK AO2 SLP259 T00670017","FM-15","7",,,,,,,,,,,,,,,,,,,,,,,,,,,,"2007-05-17"
"72793024233","2017-12-14T17:53:00","FM-15","7",,,,,,,,,,,,,,,,,,,,,,,,,,,,,,,,,,,,,,"30.27","36","42","0.00",,,,"79","30.29","BKN:07 250","29.80","10.00","39","310",,"5",,,,,,,,,,,,,,,,,,,,,,,,,,,,,,,,,,,,,"MET09312/14/17 17:53:01 METAR KSEA 150153Z 31004KT 10SM BKN250 06/02 A3027 RMK AO2 SLP259 T00560022","FM-15","7",,,,,,,,,,,,,,,,,,,,,,,,,,,,"2007-05-17"
"72793024233","2017-12-14T18:53:00","FM-15","7",,,,,,,,,,,,,,,,,,,,,,,,,,,,,,,,,,,,,,"30.25","37","42","0.00",,"+0.01","8","82","30.28","BKN:07 250","29.78","10.00","40","140",,"8",,,,,,,,,,,,,,,,,,,,,,,,,,,,,,,,,,,,,"MET09912/14/17 18:53:02 METAR KSEA 150253Z 14007KT 10SM BKN250 06/03 A3025 RMK AO2 SLP253 T00560028 58005","FM-15","7",,,,,,,,,,,,,,,,,,,,,,,,,,,,"2007-05-17"
"72793024233","2017-12-14T19:53:00","FM-15","7",,,,,,,,,,,,,,,,,,,,,,,,,,,,,,,,,,,,,,"30.23","38","40","0.00",,,,"93","30.26","BKN:07 250","29.76","8.00","39","160",,"3",,,,,,,,,,,,,,,,,,,,,,,,,,,,,,,,,,,,,"MET09412/14/17 19:53:02 METAR KSEA 150353Z 16003KT 8SM BKN250 04/03 A3023 RMK AO2 SLP247 T00440033 $","FM-15","7",,,,,,,,,,,,,,,,,,,,,,,,,,,,"2007-05-17"
"72793024233","2017-12-14T20:53:00","FM-15","7",,,,,,,,,,,,,,,,,,,,,,,,,,,,,,,,,,,,,,"30.23","37","39","0.00",,,,"93","30.26","SCT:04 250","29.76","7.00","38","180",,"5",,,,,,,,,,,,,,,,,,,,,,,,,,,,,,,,,,,,,"MET09412/14/17 20:53:02 METAR KSEA 150453Z 18004KT 7SM SCT250 04/03 A3023 RMK AO2 SLP247 T00390028 $","FM-15","7",,,,,,,,,,,,,,,,,,,,,,,,,,,,"2007-05-17"
"72793024233","2017-12-14T21:53:00","FM-15","7",,,,,,,,,,,,,,,,,,,,,,,,,,,,,,,,,,,,,,"30.24","37","40","0.00",,"+0.01","5","89","30.26","SCT:04 250","29.77","8.00","39","160",,"3",,,,,,,,,,,,,,,,,,,,,,,,,,,,,,,,,,,,,"MET11212/14/17 21:53:02 METAR KSEA 150553Z 16003KT 8SM SCT250 04/03 A3024 RMK AO2 SLP247 T00440028 10083 20033 55004 $","FM-15","7",,,,,,,,,,,,,,,,,,,,,,,,,,,,"2007-05-17"
"72793024233","2017-12-14T22:00:00","FM-12","4",,,,,,,,,,,,,,,,,,,,,,,,,,,,,,,,,,,,,,,"37","40",,,"+0.01","5","89","30.26",,"29.75","7.46","39","160",,"3",,,,,,,,,,,,,,,,,,,,,,,,,,,,,,,,,,,,,"SYN08072793 32962 41603 10044 20028 30076 40247 55004 90553 333 10083 20022 555 91506=","FM-12","4",,,,,,,,,,,,,,,,,,,,,,,,,,,,"2007-05-17"
"72793024233","2017-12-14T22:53:00","FM-15","7",,,,,,,,,,,,,,,,,,,,,,,,,,,,,,,,,,,,,,"30.24","36","39","0.00",,,,"89","30.26","FEW:02 250","29.77","10.00","38","130",,"8",,,,,,,,,,,,,,,,,,,,,,,,,,,,,,,,,,,,,"MET09512/14/17 22:53:02 METAR KSEA 150653Z 13007KT 10SM FEW250 04/02 A3024 RMK AO2 SLP248 T00390022 $","FM-15","7",,,,,,,,,,,,,,,,,,,,,,,,,,,,"2007-05-17"
"72793024233","2017-12-14T23:53:00","FM-15","7",,,,,,,,,,,,,,,,,,,,,,,,,,,,,,,,,,,,,,"30.23","35","39","0.00",,,,"86","30.26","BKN:07 250","29.76","10.00","37","140",,"6",,,,,,,,,,,,,,,,,,,,,,,,,,,,,,,,,,,,,"MET10512/14/17 23:53:02 METAR KSEA 150753Z 14005KT 10SM BKN250 04/02 A3023 RMK AO2 SLP247 T00390017 401000022 $","FM-15","7",,,,,,,,,,,,,,,,,,,,,,,,,,,,"2007-05-17"
"72793024233","2017-12-14T23:59:00","SOD  ","6",,,,,,,,,,,,,,,"36","43","81","30.32","29.82","39","4.6","0","2.6","22","50","36","060","14","0.00","0","0.0","030","10",,,,,,,,,,,,,,,,,,,,,,,,,,,,,,,,,,,,,,,,,,,,,,,,,,,,,,,,,"SOD73024 HR PRECIPITATION (IN):0.00  24 HR MAX TEMP (F):50 24 HR MAX TEMP TIME (LST):1500 24 HR MIN TEMP (F):36 24 HR MIN TEMP TIME (LST):0216 AVERAGE STATION PRESSURE:29.820 MINIMUM SEA LEVEL PRESSURE:30.24 TIME OF OCCURRENCE:2122 PEAK WIND SPEED (MPH):14  PEAK WIND DIR (DEG):60  PEAK WIND TIME (LST):1728  FASTEST 2MIN SPEED (MPH):10 FASTEST 2MIN DIR (DEG):30  FASTEST 2MIN TIME (LST):0513 AVERAGE WIND SPEED (MPH):4.6  24 HR AVG TEMP (F):43 HEATING DEGREE DAYS:22  COOLING DEGREE DAYS:0   LATEST DAY MAX TEMP (0700-1900 LST):50  LATEST NIGHT MIN TEMP(1900-0800 LST):36 HOURLY INCREMENTAL PRECIPITATION VALUES (IN):.00 0.00 0.00 0.00 0.00 0.00 0.00 0.00 0.00 0.00 0.00 0.00 0.00 0.00 0.00 0.00 0.00 0.00 0.00 0.00 0.00 0.00 0.00 0.00","SOD  ","6",,,,,,,,,,,,,,,,,,,,,,,,,"0749","1619",,"2007-05-17"
"72793024233","2017-12-15T00:53:00","FM-15","7",,,,,,,,,,,,,,,,,,,,,,,,,,,,,,,,,,,,,,"30.19","32","39","0.00",,"+0.04","8","76","30.22","BKN:07 210","29.72","10.00","36","150",,"6",,,,,,,,,,,,,,,,,,,,,,,,,,,,,,,,,,,,,"MET10612/15/17 00:53:02 METAR KSEA 150853Z 15005KT 10SM BKN210 04/00 A3019 RMK AO2 SLP233 T00390000 58015 $ (TL)","FM-15","7",,,,,,,,,,,,,,,,,,,,,,,,,,,,"2007-05-17"
"72793024233","2017-12-15T01:53:00","FM-15","7",,,,,,,,,,,,,,,,,,,,,,,,,,,,,,,,,,,,,,"30.19","32","39","0.00",,,,"76","30.22","BKN:07 90","29.72","10.00","36","000",,"0",,,,,,,,,,,,,,,,,,,,,,,,,,,,,,,,,,,,,"MET10012/15/17 01:53:02 METAR KSEA 150953Z 00000KT 10SM BKN090 04/00 A3019 RMK AO2 SLP233 T00390000 $ (TL)","FM-15","7",,,,,,,,,,,,,,,,,,,,,,,,,,,,"2007-05-17"
"72793024233","2017-12-15T02:53:00","FM-15","7",,,,,,,,,,,,,,,,,,,,,,,,,,,,,,,,,,,,,,"30.20","35","40","0.00",,,,"83","30.23","SCT:04 70 OVC:08 90","29.73","10.00","38","000",,"0",,,,,,,,,,,,,,,,,,,,,,,,,,,,,,,,,,,,,"MET10712/15/17 02:53:02 METAR KSEA 151053Z 00000KT 10SM SCT070 OVC090 04/02 A3020 RMK AO2 SLP237 T00440017 $ (TL)","FM-15","7",,,,,,,,,,,,,,,,,,,,,,,,,,,,"2007-05-17"
"72793024233","2017-12-15T03:53:00","FM-15","7",,,,,,,,,,,,,,,,,,,,,,,,,,,,,,,,,,,,,,"30.20","36","40","0.00",,"-0.01","0","86","30.23","OVC:08 70","29.73","10.00","38","130",,"6",,,,,,,,,,,,,,,,,,,,,,,,,,,,,,,,,,,,,"MET11812/15/17 03:53:02 METAR KSEA 151153Z 13005KT 10SM OVC070 04/02 A3020 RMK AO2 SLP236 T00440022 10050 20028 50003 $ (TL)","FM-15","7",,,,,,,,,,,,,,,,,,,,,,,,,,,,"2007-05-17"
"72793024233","2017-12-15T04:00:00","FM-12","4",,,,,,,,,,,,,,,,,,,,,,,,,,,,,,,,,,,,,,,"36","40",,,"0.01","9","86","30.23","74","29.72","9.94","38","130",,"6",,,,,,,,,,,,,,,,,,,,,,,,,,,,,,,,,,,,,"SYN08072793 32866 81305 10044 20022 30063 40236 50003 91153 333 10100 20028 555 91512=","FM-12","4",,,,,,,,,,,,,,,,,,,,,,,,,,,,"2007-05-17"
"72793024233","2017-12-15T04:53:00","FM-15","7",,,,,,,,,,,,,,,,,,,,,,,,,,,,,,,,,,,,,,"30.19","33","39","0.00",,,,"79","30.22","OVC:08 60","29.72","10.00","37","130",,"5",,,,,,,,,,,,,,,,,,,,,,,,,,,,,,,,,,,,,"MET10012/15/17 04:53:02 METAR KSEA 151253Z 13004KT 10SM OVC060 04/01 A3019 RMK AO2 SLP232 T00390006 $ (TL)","FM-15","7",,,,,,,,,,,,,,,,,,,,,,,,,,,,"2007-05-17"
"72793024233","2017-12-15T05:53:00","FM-15","7",,,,,,,,,,,,,,,,,,,,,,,,,,,,,,,,,,,,,,"30.19","34","40","T","-RA:02 |RA |",,,"79","30.21","BKN:07 60 OVC:08 75","29.72","10.00","37","140",,"7",,,,,,,,,,,,,,,,,,,,,,,,,,,,,,,,,,,,,"MET12912/15/17 05:53:02 METAR KSEA 151353Z 14006KT 10SM -RA BKN060 OVC075 04/01 A3019 RMK AO2 RAB05E23B44 SLP231 P0000 T00440011 $ (JC)","FM-15","7",,,,,,,,,,,,,,,,,,,,,,,,,,,,"2007-05-17"
"72793024233","2017-12-15T06:53:00","FM-15","7",,,,,,,,,,,,,,,,,,,,,,,,,,,,,,,,,,,,,,"30.19","36","39","T","-RA:02 |RA |","+0.01","5","89","30.22","BKN:07 47 BKN:07 60 OVC:08 110","29.72","9.00","38","150",,"6",,,,,,,,,,,,,,,,,,,,,,,,,,,,,,,,,,,,,"MET14212/15/17 06:53:02 METAR KSEA 151453Z 15005KT 9SM -RA BKN047 BKN060 OVC110 04/02 A3019 RMK AO2 RAE01B45 SLP232 P0000 60000 T00390022 55005 (JC)","FM-15","7",,,,,,,,,,,,,,,,,,,,,,,,,,,,"2007-05-17"
"72793024233","2017-12-15T07:53:00","FM-15","7",,,,,,,,,,,,,,,,,,,,,,,,,,,,,,,,,,,,,,"30.17","35","39","0.00",,,,"86","30.19","FEW:02 45 BKN:07 90 OVC:08 110","29.70","10.00","37","150",,"11",,,,,,,,,,,,,,,,,,,,,,,,,,,,,,,,,,,,,"MET12612/15/17 07:53:02 METAR KSEA 151553Z 15010KT 10SM FEW045 BKN090 OVC110 04/02 A3017 RMK AO2 RAE1457 SLP224 P0000 T00390017 (JC)","FM-15","7",,,,,,,,,,,,,,,,,,,,,,,,,,,,"2007-05-17"
"72793024233","2017-12-15T08:53:00","FM-15","7",,,,,,,,,,,,,,,,,,,,,,,,,,,,,,,,,,,,,,"30.20","36","40","0.00",,,,"86","30.22","SCT:04 22 BKN:07 100 OVC:08 140","29.73","10.00","38","170",,"8",,,,,,,,,,,,,,,,,,,,,,,,,,,,,,,,,,,,,"MET11212/15/17 08:53:02 METAR KSEA 151653Z 17007KT 10SM SCT022 BKN100 OVC140 04/02 A3020 RMK AO2 SLP235 T00440022 (JC)","FM-15","7",,,,,,,,,,,,,,,,,,,,,,,,,,,,"2007-05-17"
"72793024233","2017-12-15T09:53:00","FM-15","7",,,,,,,,,,,,,,,,,,,,,,,,,,,,,,,,,,,,,,"30.20","35","42","0.00",,"-0.01","3","76","30.23","BKN:07 22 OVC:08 100","29.73","10.00","39","180",,"3",,,,,,,,,,,,,,,,,,,,,,,,,,,,,,,,,,,,,"MET12912/15/17 09:53:02 METAR KSEA 151753Z 18003KT 10SM BKN022 OVC100 06/02 A3020 RMK AO2 SLP237 60000 T00560017 10056 20033 53005 (JC)","FM-15","7",,,,,,,,,,,,,,,,,,,,,,,,,,,,"2007-05-17"
"72793024233","2017-12-15T10:00:00","FM-12","4",,,,,,,,,,,,,,,,,,,,,,,,,,,,,,,,,,,,,,,"35","42",,,"-0.01","3","76","30.23","26","29.72","9.94","39","180",,"3",,,,,,,,,,,,,,,,,,,,,,,,,,,,,,,,,,,,,"SYN08672793 12566 81803 10056 20017 30063 40237 53005 69901 91753 333 10056 20033 555 91518=","FM-12","4",,,,,,,,,,,,,,,,,,,,,,,,,,,,"2007-05-17"
"72793024233","2017-12-15T10:53:00","FM-15","7",,,,,,,,,,,,,,,,,,,,,,,,,,,,,,,,,,,,,,"30.19","37","42","0.00",,,,"82","30.22","OVC:08 18","29.72","10.00","40","170",,"5",,,,,,,,,,,,,,,,,,,,,,,,,,,,,,,,,,,,,"MET09812/15/17 10:53:02 METAR KSEA 151853Z 17004KT 10SM OVC018 06/03 A3019 RMK AO2 SLP234 T00560028 (JC)","FM-15","7",,,,,,,,,,,,,,,,,,,,,,,,,,,,"2007-05-17"
"72793024233","2017-12-15T11:40:00","FM-16","7",,,,,,,,,,,,,,,,,,,,,,,,,,,,,,,,,,,,,,"30.18","37","43",,,,,"80",,"OVC:08 14","29.71","10.00","40","180",,"9",,,,,,,,,,,,,,,,,,,,,,,,,,,,,,,,,,,,,"MET09112/15/17 11:40:02 SPECI KSEA 151940Z 18008KT 10SM OVC014 06/03 A3018 RMK AO2 T00610028 (JC)","FM-16","7",,,,,,,,,,,,,,,,,,,,,,,,,,,,"2007-05-17"
"72793024233","2017-12-15T11:53:00","FM-15","7",,,,,,,,,,,,,,,,,,,,,,,,,,,,,,,,,,,,,,"30.18","38","43","0.00",,,,"82","30.21","OVC:08 14","29.71","10.00","41","190",,"10",,,,,,,,,,,,,,,,,,,,,,,,,,,,,,,,,,,,,"MET09812/15/17 11:53:02 METAR KSEA 151953Z 19009KT 10SM OVC014 06/03 A3018 RMK AO2 SLP229 T00610033 (JC)","FM-15","7",,,,,,,,,,,,,,,,,,,,,,,,,,,,"2007-05-17"
"72793024233","2017-12-15T12:53:00","FM-15","7",,,,,,,,,,,,,,,,,,,,,,,,,,,,,,,,,,,,,,"30.18","39","42","0.00",,"+0.02","5","89","30.21","OVC:08 10","29.71","10.00","41","220",,"5",,,,,,,,,,,,,,,,,,,,,,,,,,,,,,,,,,,,,"MET10412/15/17 12:53:02 METAR KSEA 152053Z 22004KT 10SM OVC010 06/04 A3018 RMK AO2 SLP230 T00560039 55007 (JC)","FM-15","7",,,,,,,,,,,,,,,,,,,,,,,,,,,,"2007-05-17"
"72793024233","2017-12-15T13:23:00","FM-16","7",,,,,,,,,,,,,,,,,,,,,,,,,,,,,,,,,,,,,,"30.17","40","43",,,,,"89",,"OVC:08 8","29.70","10.00","42","150",,"7",,,,,,,,,,,,,,,,,,,,,,,,,,,,,,,,,,,,,"MET09112/15/17 13:23:02 SPECI KSEA 152123Z 15006KT 10SM OVC008 06/04 A3017 RMK AO2 T00610044 (JC)","FM-16","7",,,,,,,,,,,,,,,,,,,,,,,,,,,,"2007-05-17"
"72793024233","2017-12-15T13:53:00","FM-15","7",,,,,,,,,,,,,,,,,,,,,,,,,,,,,,,,,,,,,,"30.17","40","42","0.00",,,,"92","30.19","OVC:08 7","29.70","10.00","41","190",,"6",,,,,,,,,,,,,,,,,,,,,,,,,,,,,,,,,,,,,"MET09812/15/17 13:53:02 METAR KSEA 152153Z 19005KT 10SM OVC007 06/04 A3017 RMK AO2 SLP225 T00560044 (RS)","FM-15","7",,,,,,,,,,,,,,,,,,,,,,,,,,,,"2007-05-17"
"72793024233","2017-12-15T14:53:00","FM-15","7",,,,,,,,,,,,,,,,,,,,,,,,,,,,,,,,,,,,,,"30.17","40","42","0.00",,,,"92","30.20","OVC:08 5","29.70","9.00","41","200",,"8",,,,,,,,,,,,,,,,,,,,,,,,,,,,,,,,,,,,,"MET09712/15/17 14:53:02 METAR KSEA 152253Z 20007KT 9SM OVC005 06/04 A3017 RMK AO2 SLP227 T00560044 (RS)","FM-15","7",,,,,,,,,,,,,,,,,,,,,,,,,,,,"2007-05-17"
"72793024233","2017-12-15T15:53:00","FM-15","7",,,,,,,,,,,,,,,,,,,,,,,,,,,,,,,,,,,,,,"30.19","41","42","0.00",,"-0.01","3","96","30.22","OVC:08 5","29.72","8.00","42","190",,"6",,,,,,,,,,,,,,,,,,,,,,,,,,,,,,,,,,,,,"MET11512/15/17 15:53:02 METAR KSEA 152353Z 19005KT 8SM OVC005 06/05 A3019 RMK AO2 SLP233 T00560050 10061 20056 53003 (RS)","FM-15","7",,,,,,,,,,,,,,,,,,,,,,,,,,,,"2007-05-17"
"72793024233","2017-12-15T16:00:00","FM-12","4",,,,,,,,,,,,,,,,,,,,,,,,,,,,,,,,,,,,,,,"41","42",,,"-0.01","3","96","30.22","5","29.71","7.46","42","190",,"6",,,,,,,,,,,,,,,,,,,,,,,,,,,,,,,,,,,,,"SYN08072793 32262 81905 10056 20050 30060 40233 53003 92353 333 10061 20028 555 91600=","FM-12","4",,,,,,,,,,,,,,,,,,,,,,,,,,,,"2007-05-17"
"72793024233","2017-12-15T16:05:00","FM-16","7",,,,,,,,,,,,,,,,,,,,,,,,,,,,,,,,,,,,,,"30.19","41","42",,"BR:1 ||",,,"96",,"OVC:08 4","29.72","3.00","42","170",,"6",,,,,,,,,,,,,,,,,,,,,,,,,,,,,,,,,,,,,"MET09812/15/17 16:05:01 SPECI KSEA 160005Z 17005KT 3SM BR OVC004 06/05 A3019 RMK AO2 SFC VIS 6 T00560050","FM-16","7",,,,,,,,,,,,,,,,,,,,,,,,,,,,"2007-05-17"
"72793024233","2017-12-15T16:53:00","FM-15","7",,,,,,,,,,,,,,,,,,,,,,,,,,,,,,,,,,,,,,"30.21","41","42","0.00","BR:1 ||",,,"96","30.23","OVC:08 2","29.74","3.00","42","170",,"7",,,,,,,,,,,,,,,,,,,,,,,,,,,,,,,,,,,,,"MET10512/15/17 16:53:01 METAR KSEA 160053Z 17006KT 3SM BR OVC002 06/05 A3021 RMK AO2 SFC VIS 4 SLP238 T00560050","FM-15","7",,,,,,,,,,,,,,,,,,,,,,,,,,,,"2007-05-17"
"72793024233","2017-12-15T17:09:00","FM-16","7",,,,,,,,,,,,,,,,,,,,,,,,,,,,,,,,,,,,,,"30.21","41","42",,"BR:1 |s |",,,"96",,"OVC:08 2","29.74","0.50","42","160",,"6",,,,,,,,,,,,,,,,,,,,,,,,,,,,,,,,,,,,,"MET11712/15/17 17:09:01 SPECI KSEA 160109Z 16005KT 1/2SM R16L/P6000FT BR OVC002 06/05 A3021 RMK AO2 SFC VIS 1 3/4 T00560050","FM-16","7",,,,,,,,,,,,,,,,,,,,,,,,,,,,"2007-05-17"
"72793024233","2017-12-15T17:22:00","FM-16","7",,,,,,,,,,,,,,,,,,,,,,,,,,,,,,,,,,,,,,"30.21","41","42","T","-RA:02 FG:2 |FG RA |",,,"96",,"OVC:08 1","29.74","0.50","42","160",,"7",,,,,,,,,,,,,,,,,,,,,,,,,,,,,,,,,,,,,"MET11912/15/17 17:22:01 SPECI KSEA 160122Z 16006KT 1/2SM R16L/P6000FT -RA FG OVC001 06/05 A3021 RMK AO2 RAB12 P0000 T00560050","FM-16","7",,,,,,,,,,,,,,,,,,,,,,,,,,,,"2007-05-17"
"72793024233","2017-12-15T17:51:00","FM-16","6",,,,,,,,,,,,,,,,,,,,,,,,,,,,,,,,,,,,,,"30.21","41","43",,"BR:1 |s |",,,"93",,"OVC:08 2","29.74","0.50","42","180",,"6",,,,,,,,,,,,,,,,,,,,,,,,,,,,,,,,,,,,,"MET12812/15/17 17:51:03 SPECI KSEA 160151Z 18005KT 1/2SM R16L/P6000FT BR OVC002 06/05 A3021 RMK AO2 SFC VIS 2 RAB12E36 P0000 FIBI (RS)","FM-16","6",,,,,,,,,,,,,,,,,,,,,,,,,,,,"2007-05-17"
"72793024233","2017-12-15T17:53:00","FM-15","7",,,,,,,,,,,,,,,,,,,,,,,,,,,,,,,,,,,,,,"30.21","41","42","0.01","BR:1 |s |",,,"96","30.24","OVC:08 2","29.74","0.50","42","180",,"6",,,,,,,,,,,,,,,,,,,,,,,,,,,,,,,,,,,,,"MET13512/15/17 17:53:01 METAR KSEA 160153Z 18005KT 1/2SM R16L/P6000FT BR OVC002 06/05 A3021 RMK AO2 SFC VIS 2 RAB12E36 SLP240 P0000 T00560050","FM-15","7",,,,,,,,,,,,,,,,,,,,,,,,,,,,"2007-05-17"
"72793024233","2017-12-15T18:15:00","FM-16","7",,,,,,,,,,,,,,,,,,,,,,,,,,,,,,,,,,,,,,"30.21","41","42","0.01","-RA:02 BR:1 |RA |",,,"96",,"BKN:07 2 OVC:08 24","29.74","3.00","42","170",,"6",,,,,,,,,,,,,,,,,,,,,,,,,,,,,,,,,,,,,"MET12112/15/17 18:15:01 SPECI KSEA 160215Z 17005KT 3SM -RA BR BKN002 OVC024 06/05 A3021 RMK AO2 SFC VIS 4 RAB01 P0001 T00560050","FM-16","7",,,,,,,,,,,,,,,,,,,,,,,,,,,,"2007-05-17"
"72793024233","2017-12-15T18:42:00","FM-16","7",,,,,,,,,,,,,,,,,,,,,,,,,,,,,,,,,,,,,,"30.22","41","43","0.01","BR:1 ||",,,"93",,"SCT:04 3 OVC:08 24","29.75","3.00","42","130",,"6",,,,,,,,,,,,,,,,,,,,,,,,,,,,,,,,,,,,,"MET12012/15/17 18:42:01 SPECI KSEA 160242Z 13005KT 3SM BR SCT003 OVC024 06/05 A3022 RMK AO2 SFC VIS 5 RAB01E42 P0001 T00610050","FM-16","7",,,,,,,,,,,,,,,,,,,,,,,,,,,,"2007-05-17"
"72793024233","2017-12-15T18:53:00","FM-15","7",,,,,,,,,,,,,,,,,,,,,,,,,,,,,,,,,,,,,,"30.22","41","42","T","BR:1 ||","-0.02","1","96","30.24","SCT:04 3 OVC:08 24","29.75","3.00","42","130",,"5",,,,,,,,,,,,,,,,,,,,,,,,,,,,,,,,,,,,,"MET13912/15/17 18:53:02 METAR KSEA 160253Z 13004KT 3SM BR SCT003 OVC024 06/05 A3022 RMK AO2 SFC VIS 6 RAB01E42 SLP241 P0001 60001 T00560050 51008","FM-15","7",,,,,,,,,,,,,,,,,,,,,,,,,,,,"2007-05-17"
"72793024233","2017-12-15T18:58:00","FM-16","7",,,,,,,,,,,,,,,,,,,,,,,,,,,,,,,,,,,,,,"30.22","41","42",,"BR:1 ||",,,"96",,"BKN:07 24 OVC:08 34","29.75","1.50","42","160",,"5",,,,,,,,,,,,,,,,,,,,,,,,,,,,,,,,,,,,,"MET10912/15/17 18:58:02 SPECI KSEA 160258Z 16004KT 1 1/2SM BR BKN024 OVC034 06/05 A3022 RMK AO2 SFC VIS 4 T00560050","FM-16","7",,,,,,,,,,,,,,,,,,,,,,,,,,,,"2007-05-17"
"72793024233","2017-12-15T18:59:00","FM-16","7",,,,,,,,,,,,,,,,,,,,,,,,,,,,,,,,,,,,,,"30.22","41","42",,"BR:1 ||",,,"96",,"SCT:04 3 BKN:07 24 OVC:08 34","29.75","1.50","42","160",,"5",,,,,,,,,,,,,,,,,,,,,,,,,,,,,,,,,,,,,"MET11612/15/17 18:59:02 SPECI KSEA 160259Z 16004KT 1 1/2SM BR SCT003 BKN024 OVC034 06/05 A3022 RMK AO2 SFC VIS 4 T00560050","FM-16","7",,,,,,,,,,,,,,,,,,,,,,,,,,,,"2007-05-17"
"72793024233","2017-12-15T19:53:00","FM-15","7",,,,,,,,,,,,,,,,,,,,,,,,,,,,,,,,,,,,,,"30.22","41","42","0.05","-RA:02 BR:1 |RA |",,,"96","30.25","SCT:04 6 OVC:08 22","29.75","1.50","42","180",,"5",,,,,,,,,,,,,,,,,,,,,,,,,,,,,,,,,,,,,"MET13212/15/17 19:53:02 METAR KSEA 160353Z 18004KT 1 1/2SM -RA BR SCT006 OVC022 06/05 A3022 RMK AO2 SFC VIS 3 RAB45 SLP244 P0002 T00560050","FM-15","7",,,,,,,,,,,,,,,,,,,,,,,,,,,,"2007-05-17"
"72793024233","2017-12-15T20:33:00","FM-16","7",,,,,,,,,,,,,,,,,,,,,,,,,,,,,,,,,,,,,,"30.23","39","40","0.03","BR:1 ||",,,"97",,"FEW:02 6 BKN:07 24","29.76","3.00","40","000",,"0",,,,,,,,,,,,,,,,,,,,,,,,,,,,,,,,,,,,,"MET11912/15/17 20:33:02 SPECI KSEA 160433Z 00000KT 3SM BR FEW006 BKN024 04/04 A3023 RMK AO2 SFC VIS 5 RAE04 P0003 T00440039 $","FM-16","7",,,,,,,,,,,,,,,,,,,,,,,,,,,,"2007-05-17"
"72793024233","2017-12-15T20:53:00","FM-15","7",,,,,,,,,,,,,,,,,,,,,,,,,,,,,,,,,,,,,,"30.24","41","42","T","BR:1 ||",,,"96","30.27","SCT:04 8 BKN:07 26","29.77","3.00","42","180",,"5",,,,,,,,,,,,,,,,,,,,,,,,,,,,,,,,,,,,,"MET12612/15/17 20:53:02 METAR KSEA 160453Z 18004KT 3SM BR SCT008 BKN026 06/05 A3024 RMK AO2 SFC VIS 6 RAE04 SLP250 P0003 T00560050 $","FM-15","7",,,,,,,,,,,,,,,,,,,,,,,,,,,,"2007-05-17"
"72793024233","2017-12-15T21:06:00","FM-16","7",,,,,,,,,,,,,,,,,,,,,,,,,,,,,,,,,,,,,,"30.24","41","42",,"BR:1 ||",,,"96",,"BKN:07 6 OVC:08 26","29.77","3.00","42","180",,"6",,,,,,,,,,,,,,,,,,,,,,,,,,,,,,,,,,,,,"MET10712/15/17 21:06:02 SPECI KSEA 160506Z 18005KT 3SM BR BKN006 OVC026 06/05 A3024 RMK AO2 SFC VIS 6 T00560050 $","FM-16","7",,,,,,,,,,,,,,,,,,,,,,,,,,,,"2007-05-17"
"72793024233","2017-12-15T21:53:00","FM-15","7",,,,,,,,,,,,,,,,,,,,,,,,,,,,,,,,,,,,,,"30.25","40","41","0.00","BR:1 ||","-0.03","1","96","30.27","BKN:07 6 OVC:08 26","29.78","3.00","41","160",,"6",,,,,,,,,,,,,,,,,,,,,,,,,,,,,,,,,,,,,"MET13812/15/17 21:53:02 METAR KSEA 160553Z 16005KT 3SM BR BKN006 OVC026 05/04 A3025 RMK AO2 SFC VIS 6 SLP251 60006 T00500044 10061 20044 51010 $","FM-15","7",,,,,,,,,,,,,,,,,,,,,,,,,,,,"2007-05-17"
"72793024233","2017-12-15T22:00:00","FM-12","4",,,,,,,,,,,,,,,,,,,,,,,,,,,,,,,,,,,,,,,"40","41",,,"-0.03","1","96","30.27","5","29.77","2.98","41","160",,"6",,,,,,,,,,,,,,,,,,,,,,,,,,,,,,,,,,,,,"SYN09272793 11248 81605 10050 20044 30080 40251 51010 60021 710// 90553 333 10061 20028 555 91606=","FM-12","4",,,,,,,,,,,,,,,,,,,,,,,,,,,,"2007-05-17"
"72793024233","2017-12-15T22:18:00","FM-16","7",,,,,,,,,,,,,,,,,,,,,,,,,,,,,,,,,,,,,,"30.25","41","42",,"FG:2 |FG |",,,"96",,"BKN:07 1 BKN:07 6 OVC:08 60","29.78","0.50","42","110",,"8",,,,,,,,,,,,,,,,,,,,,,,,,,,,,,,,,,,,,"MET13412/15/17 22:18:02 SPECI KSEA 160618Z 11007KT 1/2SM R16L/2400VP6000FT FG BKN001 BKN006 OVC060 06/05 A3025 RMK AO2 VIS W 3/4 T00560050 $","FM-16","7",,,,,,,,,,,,,,,,,,,,,,,,,,,,"2007-05-17"
"72793024233","2017-12-15T22:42:00","FM-16","7",,,,,,,,,,,,,,,,,,,,,,,,,,,,,,,,,,,,,,"30.26","41","42",,"BR:1 ||",,,"96",,"OVC:08 3","29.79","2.00","42","130",,"6",,,,,,,,,,,,,,,,,,,,,,,,,,,,,,,,,,,,,"MET09012/15/17 22:42:02 SPECI KSEA 160642Z 13005KT 2SM BR OVC003 06/05 A3026 RMK AO2 T00560050 $","FM-16","7",,,,,,,,,,,,,,,,,,,,,,,,,,,,"2007-05-17"
"72793024233","2017-12-15T22:53:00","FM-15","7",,,,,,,,,,,,,,,,,,,,,,,,,,,,,,,,,,,,,,"30.26","41","42","0.00","BR:1 ||",,,"96","30.29","BKN:07 3 OVC:08 6","29.79","2.00","42","130",,"9",,,,,,,,,,,,,,,,,,,,,,,,,,,,,,,,,,,,,"MET11412/15/17 22:53:02 METAR KSEA 160653Z 13008KT 2SM BR BKN003 OVC006 06/05 A3026 RMK AO2 SFC VIS 6 SLP256 T00560050 $","FM-15","7",,,,,,,,,,,,,,,,,,,,,,,,,,,,"2007-05-17"
"72793024233","2017-12-15T23:17:00","FM-16","7",,,,,,,,,,,,,,,,,,,,,,,,,,,,,,,,,,,,,,"30.26","40","42",,"BR:1 ||",,,"92",,"OVC:08 7","29.79","6.00","41","150",,"10",,,,,,,,,,,,,,,,,,,,,,,,,,,,,,,,,,,,,"MET10212/15/17 23:17:02 SPECI KSEA 160717Z 15009KT 6SM BR OVC007 06/04 A3026 RMK AO2 CIG 004V010 T00560044 $","FM-16","7",,,,,,,,,,,,,,,,,,,,,,,,,,,,"2007-05-17"
"72793024233","2017-12-15T23:51:00","FM-16","6",,,,,,,,,,,,,,,,,,,,,,,,,,,,,,,,,,,,,,"30.26","39","43",,"BR:1 ||",,,"87",,"OVC:08 10","29.79","6.00","41","130",,"8",,,,,,,,,,,,,,,,,,,,,,,,,,,,,,,,,,,,,"MET10212/15/17 23:51:03 SPECI KSEA 160751Z 13007KT 6SM BR OVC010 06/04 A3026 RMK AO2 CIG 007V013 $ FIBI (LC)","FM-16","6",,,,,,,,,,,,,,,,,,,,,,,,,,,,"2007-05-17"
"72793024233","2017-12-15T23:53:00","FM-15","7",,,,,,,,,,,,,,,,,,,,,,,,,,,,,,,,,,,,,,"30.26","40","42","0.00",,,,"92","30.29","OVC:08 10","29.79","10.00","41","130",,"8",,,,,,,,,,,,,,,,,,,,,,,,,,,,,,,,,,,,,"MET11712/15/17 23:53:02 METAR KSEA 160753Z 13007KT 10SM OVC010 06/04 A3026 RMK AO2 CIG 007V013 SLP257 T00560044 400610028 $","FM-15","7",,,,,,,,,,,,,,,,,,,,,,,,,,,,"2007-05-17"
"72793024233","2017-12-15T23:59:00","SOD  ","6",,,,,,,,,,,,,,,"38","40","89","30.23","29.73","40","5.8","0","-0.3","25","43","37","150","16","0.06","0","0.0","150","13","RA FG BR",,,,,,,,,,,,,,,,,,,,,,,,,,,,,,,,,,,,,,,,,,,,,,,,,,,,,,,,"SOD73024 HR PRECIPITATION (IN):0.06  24 HR MAX TEMP (F):43 24 HR MAX TEMP TIME (LST):1843 24 HR MIN TEMP (F):37 24 HR MIN TEMP TIME (LST):0144 AVERAGE STATION PRESSURE:29.735 MINIMUM SEA LEVEL PRESSURE:30.19 TIME OF OCCURRENCE:1406 PEAK WIND SPEED (MPH):16  PEAK WIND DIR (DEG):150 PEAK WIND TIME (LST):0749  FASTEST 2MIN SPEED (MPH):13 FASTEST 2MIN DIR (DEG):150 FASTEST 2MIN TIME (LST):0840 AVERAGE WIND SPEED (MPH):5.8  24 HR AVG TEMP (F):40 HEATING DEGREE DAYS:25  COOLING DEGREE DAYS:0   LATEST DAY MAX TEMP (0700-1900 LST):43  LATEST NIGHT MIN TEMP(1900-0800 LST):37 HOURLY INCREMENTAL PRECIPITATION VALUES (IN):.00 0.00 0.00 0.00 0.00 T    T    0.00 0.00 0.00 0.00 0.00 0.00 0.00 0.00 0.00 0.00 0.01 T    0.05 T    0.00 0.00 0.00","SOD  ","6",,,,,,,,,,,,,,,,,,,,,,,,,"0750","1619",,"2007-05-17"
"72793024233","2017-12-16T00:46:00","FM-16","7",,,,,,,,,,,,,,,,,,,,,,,,,,,,,,,,,,,,,,"30.27","39","41",,,,,"93",,"SCT:04 14 OVC:08 170","29.80","10.00","40","160",,"7",,,,,,,,,,,,,,,,,,,,,,,,,,,,,,,,,,,,,"MET10012/16/17 00:46:02 SPECI KSEA 160846Z 16006KT 10SM SCT014 OVC170 05/04 A3027 RMK AO2 T00500039 $ (LC)","FM-16","7",,,,,,,,,,,,,,,,,,,,,,,,,,,,"2007-05-17"
"72793024233","2017-12-16T00:53:00","FM-15","7",,,,,,,,,,,,,,,,,,,,,,,,,,,,,,,,,,,,,,"30.27","39","41","0.00",,"-0.03","1","93","30.29","SCT:04 14 OVC:08 170","29.80","10.00","40","170",,"7",,,,,,,,,,,,,,,,,,,,,,,,,,,,,,,,,,,,,"MET11312/16/17 00:53:02 METAR KSEA 160853Z 17006KT 10SM SCT014 OVC170 05/04 A3027 RMK AO2 SLP259 T00500039 51009 $ (LC)","FM-15","7",,,,,,,,,,,,,,,,,,,,,,,,,,,,"2007-05-17"
"72793024233","2017-12-16T01:24:00","FM-16","7",,,,,,,,,,,,,,,,,,,,,,,,,,,,,,,,,,,,,,"30.28","39","41",,,,,"93",,"BKN:07 11 OVC:08 170","29.81","10.00","40","150",,"5",,,,,,,,,,,,,,,,,,,,,,,,,,,,,,,,,,,,,"MET10012/16/17 01:24:02 SPECI KSEA 160924Z 15004KT 10SM BKN011 OVC170 05/04 A3028 RMK AO2 T00500039 $ (LC)","FM-16","7",,,,,,,,,,,,,,,,,,,,,,,,,,,,"2007-05-17"
"72793024233","2017-12-16T01:53:00","FM-15","7",,,,,,,,,,,,,,,,,,,,,,,,,,,,,,,,,,,,,,"30.28","39","41","0.00",,,,"93","30.31","BKN:07 12 OVC:08 160","29.81","10.00","40","170",,"5",,,,,,,,,,,,,,,,,,,,,,,,,,,,,,,,,,,,,"MET10712/16/17 01:53:02 METAR KSEA 160953Z 17004KT 10SM BKN012 OVC160 05/04 A3028 RMK AO2 SLP263 T00500039 $ (LC)","FM-15","7",,,,,,,,,,,,,,,,,,,,,,,,,,,,"2007-05-17"
"72793024233","2017-12-16T02:14:00","FM-16","7",,,,,,,,,,,,,,,,,,,,,,,,,,,,,,,,,,,,,,"30.28","39","41",,,,,"93",,"SCT:04 12 BKN:07 60 OVC:08 160","29.81","10.00","40","150",,"6",,,,,,,,,,,,,,,,,,,,,,,,,,,,,,,,,,,,,"MET10712/16/17 02:14:02 SPECI KSEA 161014Z 15005KT 10SM SCT012 BKN060 OVC160 05/04 A3028 RMK AO2 T00500039 $ (LC)","FM-16","7",,,,,,,,,,,,,,,,,,,,,,,,,,,,"2007-05-17"
"72793024233","2017-12-16T02:53:00","FM-15","7",,,,,,,,,,,,,,,,,,,,,,,,,,,,,,,,,,,,,,"30.29","39","40","0.00",,,,"97","30.31","SCT:04 12 BKN:07 60 OVC:08 160","29.82","9.00","40","150",,"5",,,,,,,,,,,,,,,,,,,,,,,,,,,,,,,,,,,,,"MET11312/16/17 02:53:02 METAR KSEA 161053Z 15004KT 9SM SCT012 BKN060 OVC160 04/04 A3029 RMK AO2 SLP265 T00440039 $ (LC)","FM-15","7",,,,,,,,,,,,,,,,,,,,,,,,,,,,"2007-05-17"
"72793024233","2017-12-16T03:53:00","FM-15","7",,,,,,,,,,,,,,,,,,,,,,,,,,,,,,,,,,,,,,"30.29","38","39","0.00",,"-0.01","1","96","30.31","BKN:07 140","29.82","7.00","39","130",,"5",,,,,,,,,,,,,,,,,,,,,,,,,,,,,,,,,,,,,"MET12312/16/17 03:53:02 METAR KSEA 161153Z 13004KT 7SM BKN140 04/03 A3029 RMK AO2 SLP265 70006 T00390033 10056 20039 51005 $ (LC)","FM-15","7",,,,,,,,,,,,,,,,,,,,,,,,,,,,"2007-05-17"
"72793024233","2017-12-16T04:00:00","FM-12","4",,,,,,,,,,,,,,,,,,,,,,,,,,,,,,,,,,,,,,,"38","39",,,"-0.01","1","96","30.31",,"29.80","6.84","39","130",,"5",,,,,,,,,,,,,,,,,,,,,,,,,,,,,,,,,,,,,"SYN08672793 32961 61304 10039 20033 30093 40265 51005 91153 333 10061 20039 70015 555 91612=","FM-12","4",,,,,,,,,,,,,,,,,,,,,,,,,,,,"2007-05-17"
"72793024233","2017-12-16T04:53:00","FM-15","7",,,,,,,,,,,,,,,,,,,,,,,,,,,,,,,,,,,,,,"30.29","37","38","0.00",,,,"97","30.31","BKN:07 140","29.82","7.00","38","130",,"6",,,,,,,,,,,,,,,,,,,,,,,,,,,,,,,,,,,,,"MET09912/16/17 04:53:02 METAR KSEA 161253Z 13005KT 7SM BKN140 03/03 A3029 RMK AO2 SLP265 T00330028 $ (LC)","FM-15","7",,,,,,,,,,,,,,,,,,,,,,,,,,,,"2007-05-17"
"72793024233","2017-12-16T05:53:00","FM-15","7",,,,,,,,,,,,,,,,,,,,,,,,,,,,,,,,,,,,,,"30.30","37","38","0.00",,,,"97","30.32","FEW:02 140","29.83","10.00","38","130",,"6",,,,,,,,,,,,,,,,,,,,,,,,,,,,,,,,,,,,,"MET10012/16/17 05:53:02 METAR KSEA 161353Z 13005KT 10SM FEW140 03/03 A3030 RMK AO2 SLP269 T00330028 $ (TL)","FM-15","7",,,,,,,,,,,,,,,,,,,,,,,,,,,,"2007-05-17"
"72793024233","2017-12-16T06:53:00","FM-15","7",,,,,,,,,,,,,,,,,,,,,,,,,,,,,,,,,,,,,,"30.29","37","38","0.00",,"-0.00","0","97","30.32","SCT:04 40 BKN:07 140","29.82","10.00","38","120",,"7",,,,,,,,,,,,,,,,,,,,,,,,,,,,,,,,,,,,,"MET11312/16/17 06:53:02 METAR KSEA 161453Z 12006KT 10SM SCT040 BKN140 03/03 A3029 RMK AO2 SLP266 T00330028 50001 $ (TL)","FM-15","7",,,,,,,,,,,,,,,,,,,,,,,,,,,,"2007-05-17"
"72793024233","2017-12-16T07:53:00","FM-15","7",,,,,,,,,,,,,,,,,,,,,,,,,,,,,,,,,,,,,,"30.31","37","39","0.00",,,,"93","30.34","FEW:02 40 SCT:04 130","29.84","10.00","38","150",,"7",,,,,,,,,,,,,,,,,,,,,,,,,,,,,,,,,,,,,"MET10712/16/17 07:53:02 METAR KSEA 161553Z 15006KT 10SM FEW040 SCT130 04/03 A3031 RMK AO2 SLP274 T00390028 $ (TL)","FM-15","7",,,,,,,,,,,,,,,,,,,,,,,,,,,,"2007-05-17"
"72793024233","2017-12-16T08:53:00","FM-15","7",,,,,,,,,,,,,,,,,,,,,,,,,,,,,,,,,,,,,,"30.32","38","40","0.00",,,,"93","30.34","FEW:02 40 OVC:08 120","29.85","10.00","39","150",,"6",,,,,,,,,,,,,,,,,,,,,,,,,,,,,,,,,,,,,"MET10712/16/17 08:53:02 METAR KSEA 161653Z 15005KT 10SM FEW040 OVC120 04/03 A3032 RMK AO2 SLP275 T00440033 $ (TL)","FM-15","7",,,,,,,,,,,,,,,,,,,,,,,,,,,,"2007-05-17"
"72793024233","2017-12-16T09:53:00","FM-15","7",,,,,,,,,,,,,,,,,,,,,,,,,,,,,,,,,,,,,,"30.34","37","41","0.00",,"-0.05","1","86","30.36","FEW:02 40 BKN:07 90","29.87","10.00","39","120",,"8",,,,,,,,,,,,,,,,,,,,,,,,,,,,,,,,,,,,,"MET12512/16/17 09:53:02 METAR KSEA 161753Z 12007KT 10SM FEW040 BKN090 05/03 A3034 RMK AO2 SLP282 T00500028 10056 20028 51016 $ (TL)","FM-15","7",,,,,,,,,,,,,,,,,,,,,,,,,,,,"2007-05-17"
"72793024233","2017-12-16T10:00:00","FM-12","4",,,,,,,,,,,,,,,,,,,,,,,,,,,,,,,,,,,,,,,"37","41",,,"-0.05","1","86","30.36","41","29.85","9.94","39","120",,"8",,,,,,,,,,,,,,,,,,,,,,,,,,,,,,,,,,,,,"SYN08072793 32666 61207 10050 20028 30110 40282 51016 91753 333 10056 20028 555 91618=","FM-12","4",,,,,,,,,,,,,,,,,,,,,,,,,,,,"2007-05-17"
"72793024233","2017-12-16T10:53:00","FM-15","7",,,,,,,,,,,,,,,,,,,,,,,,,,,,,,,,,,,,,,"30.33","38","43","0.00",,,,"82","30.35","FEW:02 40 BKN:07 80 OVC:08 140","29.86","10.00","41","150",,"7",,,,,,,,,,,,,,,,,,,,,,,,,,,,,,,,,,,,,"MET11412/16/17 10:53:02 METAR KSEA 161853Z 15006KT 10SM FEW040 BKN080 OVC140 06/03 A3033 RMK AO2 SLP279 T00610033 $ (TL)","FM-15","7",,,,,,,,,,,,,,,,,,,,,,,,,,,,"2007-05-17"
"72793024233","2017-12-16T11:31:00","FM-16","7",,,,,,,,,,,,,,,,,,,,,,,,,,,,,,,,,,,,,,"30.32","39","44",,,,,"83",,"BKN:07 17 OVC:08 80","29.85","10.00","42","160",,"6",,,,,,,,,,,,,,,,,,,,,,,,,,,,,,,,,,,,,"MET10012/16/17 11:31:02 SPECI KSEA 161931Z 16005KT 10SM BKN017 OVC080 07/04 A3032 RMK AO2 T00670039 $ (TL)","FM-16","7",,,,,,,,,,,,,,,,,,,,,,,,,,,,"2007-05-17"
"72793024233","2017-12-16T11:53:00","FM-15","7",,,,,,,,,,,,,,,,,,,,,,,,,,,,,,,,,,,,,,"30.32","40","45","0.00",,,,"83","30.34","BKN:07 17 OVC:08 100","29.85","10.00","43","VRB",,"5",,,,,,,,,,,,,,,,,,,,,,,,,,,,,,,,,,,,,"MET10712/16/17 11:53:02 METAR KSEA 161953Z VRB04KT 10SM BKN017 OVC100 07/04 A3032 RMK AO2 SLP275 T00720044 $ (TL)","FM-15","7",,,,,,,,,,,,,,,,,,,,,,,,,,,,"2007-05-17"
"72793024233","2017-12-16T12:53:00","FM-15","7",,,,,,,,,,,,,,,,,,,,,,,,,,,,,,,,,,,,,,"30.32","39","44","0.00",,"+0.01","5","83","30.35","BKN:07 24 OVC:08 80","29.85","10.00","42","000",,"0",,,,,,,,,,,,,,,,,,,,,,,,,,,,,,,,,,,,,"MET11312/16/17 12:53:02 METAR KSEA 162053Z 00000KT 10SM BKN024 OVC080 07/04 A3032 RMK AO2 SLP276 T00670039 55005 $ (TL)","FM-15","7",,,,,,,,,,,,,,,,,,,,,,,,,,,,"2007-05-17"
"72793024233","2017-12-16T13:12:00","FM-16","7",,,,,,,,,,,,,,,,,,,,,,,,,,,,,,,,,,,,,,"30.32","39","44",,,,,"83",,"SCT:04 24 OVC:08 75","29.85","10.00","42","170",,"5",,,,,,,,,,,,,,,,,,,,,,,,,,,,,,,,,,,,,"MET10012/16/17 13:12:02 SPECI KSEA 162112Z 17004KT 10SM SCT024 OVC075 07/04 A3032 RMK AO2 T00670039 $ (TL)","FM-16","7",,,,,,,,,,,,,,,,,,,,,,,,,,,,"2007-05-17"
"72793024233","2017-12-16T13:53:00","FM-15","7",,,,,,,,,,,,,,,,,,,,,,,,,,,,,,,,,,,,,,"30.30","39","44","0.00",,,,"83","30.32","FEW:02 12 OVC:08 70","29.83","10.00","42","150",,"5",,,,,,,,,,,,,,,,,,,,,,,,,,,,,,,,,,,,,"MET10712/16/17 13:53:02 METAR KSEA 162153Z 15004KT 10SM FEW012 OVC070 07/04 A3030 RMK AO2 SLP269 T00670039 $ (RT)","FM-15","7",,,,,,,,,,,,,,,,,,,,,,,,,,,,"2007-05-17"
"72793024233","2017-12-16T14:51:00","FM-16","6",,,,,,,,,,,,,,,,,,,,,,,,,,,,,,,,,,,,,,"30.29","39","45",,,,,"81",,"BKN:07 12 OVC:08 70","29.82","10.00","42","150",,"5",,,,,,,,,,,,,,,,,,,,,,,,,,,,,,,,,,,,,"MET09512/16/17 14:51:02 SPECI KSEA 162251Z 15004KT 10SM BKN012 OVC070 07/04 A3029 RMK AO2 $ FIBI (RT)","FM-16","6",,,,,,,,,,,,,,,,,,,,,,,,,,,,"2007-05-17"
"72793024233","2017-12-16T14:53:00","FM-15","7",,,,,,,,,,,,,,,,,,,,,,,,,,,,,,,,,,,,,,"30.29","40","45","0.00",,,,"83","30.32","BKN:07 12 OVC:08 70","29.82","10.00","43","160",,"5",,,,,,,,,,,,,,,,,,,,,,,,,,,,,,,,,,,,,"MET10712/16/17 14:53:02 METAR KSEA 162253Z 16004KT 10SM BKN012 OVC070 07/04 A3029 RMK AO2 SLP267 T00720044 $ (RT)","FM-15","7",,,,,,,,,,,,,,,,,,,,,,,,,,,,"2007-05-17"
"72793024233","2017-12-16T15:26:00","FM-16","7",,,,,,,,,,,,,,,,,,,,,,,,,,,,,,,,,,,,,,"30.30","40","45",,,,,"83",,"FEW:02 8 BKN:07 13 OVC:08 70","29.83","10.00","43","170",,"5",,,,,,,,,,,,,,,,,,,,,,,,,,,,,,,,,,,,,"MET10712/16/17 15:26:02 SPECI KSEA 162326Z 17004KT 10SM FEW008 BKN013 OVC070 07/04 A3030 RMK AO2 T00720044 $ (RT)","FM-16","7",,,,,,,,,,,,,,,,,,,,,,,,,,,,"2007-05-17"
"72793024233","2017-12-16T15:51:00","FM-16","6",,,,,,,,,,,,,,,,,,,,,,,,,,,,,,,,,,,,,,"30.28","39","45",,,,,"81",,"FEW:02 8 BKN:07 15 BKN:07 25","29.81","10.00","42","160",,"6",,,,,,,,,,,,,,,,,,,,,,,,,,,,,,,,,,,,,"MET10212/16/17 15:51:02 SPECI KSEA 162351Z 16005KT 10SM FEW008 BKN015 BKN025 07/04 A3028 RMK AO2 $ FIBI (RT)","FM-16","6",,,,,,,,,,,,,,,,,,,,,,,,,,,,"2007-05-17"
"72793024233","2017-12-16T15:53:00","FM-15","7",,,,,,,,,,,,,,,,,,,,,,,,,,,,,,,,,,,,,,"30.28","40","44","0.00",,"+0.04","6","85","30.30","FEW:02 8 BKN:07 15 BKN:07 25","29.81","10.00","42","160",,"6",,,,,,,,,,,,,,,,,,,,,,,,,,,,,,,,,,,,,"MET13212/16/17 15:53:02 METAR KSEA 162353Z 16005KT 10SM FEW008 BKN015 BKN025 07/04 A3028 RMK AO2 SLP262 T00670044 10072 20050 56014 $ (RT)","FM-15","7",,,,,,,,,,,,,,,,,,,,,,,,,,,,"2007-05-17"
"72793024233","2017-12-16T16:00:00","FM-12","4",,,,,,,,,,,,,,,,,,,,,,,,,,,,,,,,,,,,,,,"40","44",,,"+0.04","6","85","30.30","8","29.80","9.94","42","160",,"6",,,,,,,,,,,,,,,,,,,,,,,,,,,,,,,,,,,,,"SYN08072793 32366 61605 10067 20044 30090 40262 56014 92353 333 10072 20039 555 91700=","FM-12","4",,,,,,,,,,,,,,,,,,,,,,,,,,,,"2007-05-17"
"72793024233","2017-12-16T16:53:00","FM-15","7",,,,,,,,,,,,,,,,,,,,,,,,,,,,,,,,,,,,,,"30.27","40","43","0.00",,,,"89","30.29","FEW:02 10 BKN:07 21 BKN:07 70","29.80","10.00","42","150",,"7",,,,,,,,,,,,,,,,,,,,,,,,,,,,,,,,,,,,,"MET10912/16/17 16:53:01 METAR KSEA 170053Z 15006KT 10SM FEW010 BKN021 BKN070 06/04 A3027 RMK AO2 SLP259 T00610044 $","FM-15","7",,,,,,,,,,,,,,,,,,,,,,,,,,,,"2007-05-17"
"72793024233","2017-12-16T17:51:00","FM-16","6",,,,,,,,,,,,,,,,,,,,,,,,,,,,,,,,,,,,,,"30.28","39","43",,,,,"87",,"SCT:04 12 SCT:04 25 BKN:07 70","29.81","10.00","41","150",,"6",,,,,,,,,,,,,,,,,,,,,,,,,,,,,,,,,,,,,"MET10212/16/17 17:51:03 SPECI KSEA 170151Z 15005KT 10SM SCT012 SCT025 BKN070 06/04 A3028 RMK AO2 $ FIBI (RT)","FM-16","6",,,,,,,,,,,,,,,,,,,,,,,,,,,,"2007-05-17"
"72793024233","2017-12-16T17:53:00","FM-15","7",,,,,,,,,,,,,,,,,,,,,,,,,,,,,,,,,,,,,,"30.28","40","43","0.00",,,,"89","30.31","SCT:04 12 SCT:04 25 BKN:07 70","29.81","10.00","42","150",,"6",,,,,,,,,,,,,,,,,,,,,,,,,,,,,,,,,,,,,"MET10912/16/17 17:53:01 METAR KSEA 170153Z 15005KT 10SM SCT012 SCT025 BKN070 06/04 A3028 RMK AO2 SLP263 T00610044 $","FM-15","7",,,,,,,,,,,,,,,,,,,,,,,,,,,,"2007-05-17"
"72793024233","2017-12-16T18:53:00","FM-15","7",,,,,,,,,,,,,,,,,,,,,,,,,,,,,,,,,,,,,,"30.26","40","44","0.00",,"+0.02","8","85","30.29","FEW:02 23 SCT:04 43 OVC:08 120","29.79","10.00","42","160",,"8",,,,,,,,,,,,,,,,,,,,,,,,,,,,,,,,,,,,,"MET11512/16/17 18:53:02 METAR KSEA 170253Z 16007KT 10SM FEW023 SCT043 OVC120 07/04 A3026 RMK AO2 SLP257 T00670044 58006 $","FM-15","7",,,,,,,,,,,,,,,,,,,,,,,,,,,,"2007-05-17"
"72793024233","2017-12-16T19:53:00","FM-15","7",,,,,,,,,,,,,,,,,,,,,,,,,,,,,,,,,,,,,,"30.27","40","44","0.00",,,,"85","30.30","FEW:02 23 BKN:07 33 OVC:08 42","29.80","10.00","42","170",,"7",,,,,,,,,,,,,,,,,,,,,,,,,,,,,,,,,,,,,"MET10912/16/17 19:53:02 METAR KSEA 170353Z 17006KT 10SM FEW023 BKN033 OVC042 07/04 A3027 RMK AO2 SLP260 T00670044 $","FM-15","7",,,,,,,,,,,,,,,,,,,,,,,,,,,,"2007-05-17"
"72793024233","2017-12-16T20:53:00","FM-15","7",,,,,,,,,,,,,,,,,,,,,,,,,,,,,,,,,,,,,,"30.26","41","43","0.02","-RA:02 |RA |",,,"93","30.29","FEW:02 14 SCT:04 20 OVC:08 30","29.79","8.00","42","180",,"7",,,,,,,,,,,,,,,,,,,,,,,,,,,,,,,,,,,,,"MET12412/16/17 20:53:02 METAR KSEA 170453Z 18006KT 8SM -RA FEW014 SCT020 OVC030 06/05 A3026 RMK AO2 RAB15 SLP257 P0002 T00610050 $","FM-15","7",,,,,,,,,,,,,,,,,,,,,,,,,,,,"2007-05-17"
"72793024233","2017-12-16T21:11:00","FM-16","7",,,,,,,,,,,,,,,,,,,,,,,,,,,,,,,,,,,,,,"30.26","41","43","0.01","-RA:02 |RA |",,,"93",,"SCT:04 14 BKN:07 27 OVC:08 34","29.79","8.00","42","170",,"7",,,,,,,,,,,,,,,,,,,,,,,,,,,,,,,,,,,,,"MET11112/16/17 21:11:02 SPECI KSEA 170511Z 17006KT 8SM -RA SCT014 BKN027 OVC034 06/05 A3026 RMK AO2 P0001 T00610050 $","FM-16","7",,,,,,,,,,,,,,,,,,,,,,,,,,,,"2007-05-17"
"72793024233","2017-12-16T21:30:00","FM-16","7",,,,,,,,,,,,,,,,,,,,,,,,,,,,,,,,,,,,,,"30.26","41","43","0.02","-RA:02 BR:1 |RA |",,,"93",,"FEW:02 17 SCT:04 23 OVC:08 31","29.79","6.00","42","170",,"7",,,,,,,,,,,,,,,,,,,,,,,,,,,,,,,,,,,,,"MET11412/16/17 21:30:02 SPECI KSEA 170530Z 17006KT 6SM -RA BR FEW017 SCT023 OVC031 06/05 A3026 RMK AO2 P0002 T00610050 $","FM-16","7",,,,,,,,,,,,,,,,,,,,,,,,,,,,"2007-05-17"
"72793024233","2017-12-16T21:53:00","FM-15","7",,,,,,,,,,,,,,,,,,,,,,,,,,,,,,,,,,,,,,"30.26","41","43","0.07","-RA:02 BR:1 |RA |","+0.01","8","93","30.28","FEW:02 17 SCT:04 26 OVC:08 31","29.79","5.00","42","180",,"8",,,,,,,,,,,,,,,,,,,,,,,,,,,,,,,,,,,,,"MET14512/16/17 21:53:02 METAR KSEA 170553Z 18007KT 5SM -RA BR FEW017 SCT026 OVC031 06/05 A3026 RMK AO2 SLP255 P0005 60007 T00610050 10067 20061 58002 $","FM-15","7",,,,,,,,,,,,,,,,,,,,,,,,,,,,"2007-05-17"
"72793024233","2017-12-16T22:00:00","FM-12","4",,,,,,,,,,,,,,,,,,,,,,,,,,,,,,,,,,,,,,,"41","43",,"||RA","+0.01","8","93","30.28","15","29.78","4.97","42","180",,"8",,,,,,,,,,,,,,,,,,,,,,,,,,,,,,,,,,,,,"SYN09872793 11458 81807 10061 20050 30083 40255 58002 60021 761// 90553 333 10067 20039 96010 555 91706=","FM-12","4",,,,,,,,,,,,,,,,,,,,,,,,,,,,"2007-05-17"
"72793024233","2017-12-16T22:25:00","FM-16","7",,,,,,,,,,,,,,,,,,,,,,,,,,,,,,,,,,,,,,"30.25","41","43","0.05","-RA:02 |RA |",,,"93",,"SCT:04 15 BKN:07 21 OVC:08 27","29.78","8.00","42","170",,"9",,,,,,,,,,,,,,,,,,,,,,,,,,,,,,,,,,,,,"MET11112/16/17 22:25:02 SPECI KSEA 170625Z 17008KT 8SM -RA SCT015 BKN021 OVC027 06/05 A3025 RMK AO2 P0005 T00610050 $","FM-16","7",,,,,,,,,,,,,,,,,,,,,,,,,,,,"2007-05-17"
"72793024233","2017-12-16T22:53:00","FM-15","7",,,,,,,,,,,,,,,,,,,,,,,,,,,,,,,,,,,,,,"30.25","41","43","0.04","-RA:02 |RA |",,,"93","30.27","FEW:02 20 BKN:07 25 OVC:08 35","29.78","7.00","42","170",,"10",,,,,,,,,,,,,,,,,,,,,,,,,,,,,,,,,,,,,"MET11812/16/17 22:53:02 METAR KSEA 170653Z 17009KT 7SM -RA FEW020 BKN025 OVC035 06/05 A3025 RMK AO2 SLP251 P0006 T00610050 $","FM-15","7",,,,,,,,,,,,,,,,,,,,,,,,,,,,"2007-05-17"
"72793024233","2017-12-16T23:53:00","FM-15","7",,,,,,,,,,,,,,,,,,,,,,,,,,,,,,,,,,,,,,"30.24","41","43","0.01","-RA:02 |RA |",,,"93","30.27","BKN:07 24 OVC:08 30","29.77","7.00","42","170",,"9",,,,,,,,,,,,,,,,,,,,,,,,,,,,,,,,,,,,,"MET13012/16/17 23:53:02 METAR KSEA 170753Z 17008KT 7SM -RA BKN024 OVC030 06/05 A3024 RMK AO2 RAE04B42 SLP249 P0001 T00610050 400720028 $","FM-15","7",,,,,,,,,,,,,,,,,,,,,,,,,,,,"2007-05-17"
"72793024233","2017-12-16T23:59:00","SOD  ","6",,,,,,,,,,,,,,,"39","41","90","30.31","29.82","41","6.2","0","0.7","24","45","37","170","14","0.14","0","0.0","170","12","RA BR",,,,,,,,,,,,,,,,,,,,,,,,,,,,,,,,,,,,,,,,,,,,,,,,,,,,,,,,"SOD77524 HR PRECIPITATION (IN): 0.14 WEATHER(CODE):1  24 HR MAX TEMP (F):45 24 HR MAX TEMP TIME (LST):1542 24 HR MIN TEMP (F):37 24 HR MIN TEMP TIME (LST):0502 AVERAGE STATION PRESSURE(D):29.816 MINIMUM SEA LEVEL PRESSURE:30.26 TIME OF OCCURRENCE:2359 PEAK WIND SPEED (MPH):14  PEAK WIND DIR (DEG):170 PEAK WIND TIME (LST):2242  FASTEST 2MIN SPEED (MPH):12 FASTEST 2MIN DIR (DEG):170 FASTEST 2MIN TIME (LST):2322 AVERAGE WIND SPEED (MPH): 6.2 24 HR AVG TEMP (F):41 DEPART FROM NORMAL:   0 HEATING DEGREE DAYS: 24 COOLING DEGREE DAYS:  0 LATEST DAY MAX TEMP (0700-1900 LST): 45 LATEST NIGHT MIN TEMP(1900-0800 LST):37 HOURLY INCREMENTAL PRECIPITATION VALUES (IN):0.00 0.00 0.00 0.00 0.00 0.00 0.00 0.00 0.00 0.00 0.00 0.00 0.00 0.00 0.00 0.00 0.00 0.00 0.00 0.00 0.02 0.07 0.04 0.01","SOD  ","6",,,,,,,,,,,,,,,,,,,,,,,,,"0751","1619",,"2007-05-17"
"72793024233","2017-12-17T00:53:00","FM-15","7",,,,,,,,,,,,,,,,,,,,,,,,,,,,,,,,,,,,,,"30.22","40","43","T","-RA:02 |RA |","+0.04","8","89","30.24","BKN:07 25 OVC:08 35","29.75","10.00","42","170",,"10",,,,,,,,,,,,,,,,,,,,,,,,,,,,,,,,,,,,,"MET13812/17/17 00:53:02 METAR KSEA 170853Z 17009KT 10SM -RA BKN025 OVC035 06/04 A3022 RMK AO2 RAE02B51 SLP241 P0000 60007 T00610044 58014 $ (LC)","FM-15","7",,,,,,,,,,,,,,,,,,,,,,,,,,,,"2007-05-17"
"72793024233","2017-12-17T01:53:00","FM-15","7",,,,,,,,,,,,,,,,,,,,,,,,,,,,,,,,,,,,,,"30.21","40","43","0.01",,,,"89","30.23","BKN:07 23 OVC:08 33","29.74","7.00","42","170",,"8",,,,,,,,,,,,,,,,,,,,,,,,,,,,,,,,,,,,,"MET11812/17/17 01:53:02 METAR KSEA 170953Z 17007KT 7SM BKN023 OVC033 06/04 A3021 RMK AO2 RAE31 SLP238 P0001 T00610044 $ (LC)","FM-15","7",,,,,,,,,,,,,,,,,,,,,,,,,,,,"2007-05-17"
"72793024233","2017-12-17T02:53:00","FM-15","7",,,,,,,,,,,,,,,,,,,,,,,,,,,,,,,,,,,,,,"30.20","41","43","T",,,,"93","30.22","BKN:07 23 OVC:08 33","29.73","7.00","42","170",,"11",,,,,,,,,,,,,,,,,,,,,,,,,,,,,,,,,,,,,"MET10612/17/17 02:53:02 METAR KSEA 171053Z 17010KT 7SM BKN023 OVC033 06/05 A3020 RMK AO2 SLP234 T00610050 $ (LC)","FM-15","7",,,,,,,,,,,,,,,,,,,,,,,,,,,,"2007-05-17"
"72793024233","2017-12-17T02:56:00","FM-16","6",,,,,,,,,,,,,,,,,,,,,,,,,,,,,,,,,,,,,,"30.19","41","43",,"BR:1 ||",,,"93",,"SCT:04 31 OVC:08 47","29.72","4.00","42","170",,"13",,,,,,,,,,,,,,,,,,,,,,,,,,,,,,,,,,,,,"MET10912/17/17 02:56:02 SPECI KSEA 171056Z 17011KT 4SM BR SCT031 OVC047 06/05 A3019 RMK AO2 PRESFR T00610050 $ (LC)","FM-16","6",,,,,,,,,,,,,,,,,,,,,,,,,,,,"2007-05-17"
"72793024233","2017-12-17T02:58:00","FM-16","7",,,,,,,,,,,,,,,,,,,,,,,,,,,,,,,,,,,,,,"30.19","41","43","T","-RA:02 BR:1 |RA |",,,"93",,"FEW:02 9 SCT:04 31 OVC:08 47","29.72","3.00","42","170",,"14",,,,,,,,,,,,,,,,,,,,,,,,,,,,,,,,,,,,,"MET13212/17/17 02:58:02 SPECI KSEA 171058Z 17012KT 3SM -RA BR FEW009 SCT031 OVC047 06/05 A3019 RMK AO2 RAB57 PRESFR P0000 T00610050 $ (LC)","FM-16","7",,,,,,,,,,,,,,,,,,,,,,,,,,,,"2007-05-17"
"72793024233","2017-12-17T03:32:00","FM-16","7",,,,,,,,,,,,,,,,,,,,,,,,,,,,,,,,,,,,,,"30.18","42","43","0.01","-RA:02 |RA |",,,"97",,"FEW:02 7 BKN:07 17 OVC:08 65","29.71","7.00","43","180",,"13",,,,,,,,,,,,,,,,,,,,,,,,,,,,,,,,,,,,,"MET12412/17/17 03:32:02 SPECI KSEA 171132Z 18011KT 7SM -RA FEW007 BKN017 OVC065 06/06 A3018 RMK AO2 RAB1057 P0001 T00610056 $ (LC)","FM-16","7",,,,,,,,,,,,,,,,,,,,,,,,,,,,"2007-05-17"
"72793024233","2017-12-17T03:53:00","FM-15","7",,,,,,,,,,,,,,,,,,,,,,,,,,,,,,,,,,,,,,"30.16","41","43","0.01","BR:1 ||","+0.05","8","93","30.19","SCT:04 7 BKN:07 15 OVC:08 25","29.69","5.00","42","170",,"13",,,,,,,,,,,,,,,,,,,,,,,,,,,,,,,,,,,,,"MET16312/17/17 03:53:02 METAR KSEA 171153Z 17011KT 5SM BR SCT007 BKN015 OVC025 06/05 A3016 RMK AO2 RAB1057E50 SLP223 P0001 60009 70016 T00610050 10061 20056 58018 $ (LC)","FM-15","7",,,,,,,,,,,,,,,,,,,,,,,,,,,,"2007-05-17"
"72793024233","2017-12-17T04:00:00","FM-12","4",,,,,,,,,,,,,,,,,,,,,,,,,,,,,,,,,,,,,,,"41","43",,,"+0.05","8","93","30.19","8","29.68","4.97","42","170",,"13",,,,,,,,,,,,,,,,,,,,,,,,,,,,,,,,,,,,,"SYN09872793 11358 81711 10061 20050 30050 40223 58018 60021 710// 91153 333 10072 20056 70041 555 91712=","FM-12","4",,,,,,,,,,,,,,,,,,,,,,,,,,,,"2007-05-17"
"72793024233","2017-12-17T04:20:00","FM-16","7",,,,,,,,,,,,,,,,,,,,,,,,,,,,,,,,,,,,,,"30.16","42","43",,"BR:1 ||",,,"97",,"SCT:04 7 BKN:07 13 OVC:08 26","29.69","4.00","43","170",,"10",,,,,,,,,,,,,,,,,,,,,,,,,,,,,,,,,,,,,"MET10912/17/17 04:20:02 SPECI KSEA 171220Z 17009KT 4SM BR SCT007 BKN013 OVC026 06/06 A3016 RMK AO2 T00610056 $ (LC)","FM-16","7",,,,,,,,,,,,,,,,,,,,,,,,,,,,"2007-05-17"
"72793024233","2017-12-17T04:51:00","FM-16","6",,,,,,,,,,,,,,,,,,,,,,,,,,,,,,,,,,,,,,"30.15","43","43",,"BR:1 ||",,,"100",,"FEW:02 7 BKN:07 15 OVC:08 21","29.68","3.00","43","190",,"8",,,,,,,,,,,,,,,,,,,,,,,,,,,,,,,,,,,,,"MET10412/17/17 04:51:02 SPECI KSEA 171251Z 19007KT 3SM BR FEW007 BKN015 OVC021 06/06 A3015 RMK AO2 $ FIBI (LC)","FM-16","6",,,,,,,,,,,,,,,,,,,,,,,,,,,,"2007-05-17"
"72793024233","2017-12-17T04:53:00","FM-15","7",,,,,,,,,,,,,,,,,,,,,,,,,,,,,,,,,,,,,,"30.15","42","43","0.00","BR:1 ||",,,"97","30.17","FEW:02 7 OVC:08 15","29.68","3.00","43","180",,"8",,,,,,,,,,,,,,,,,,,,,,,,,,,,,,,,,,,,,"MET10912/17/17 04:53:02 METAR KSEA 171253Z 18007KT 3SM BR FEW007 OVC015 06/06 A3015 RMK AO2 SLP218 T00610056 $ (LC)","FM-15","7",,,,,,,,,,,,,,,,,,,,,,,,,,,,"2007-05-17"
"72793024233","2017-12-17T05:53:00","FM-15","7",,,,,,,,,,,,,,,,,,,,,,,,,,,,,,,,,,,,,,"30.15","42","43","0.01","-RA:02 |RA |",,,"97","30.17","FEW:02 4 OVC:08 17","29.68","3.00","43","180",,"5",,,,,,,,,,,,,,,,,,,,,,,,,,,,,,,,,,,,,"MET12212/17/17 05:53:02 METAR KSEA 171353Z 18004KT 3SM -RA FEW004 OVC017 06/06 A3015 RMK AO2 RAB45 SLP217 P0000 T00610056 $ (LZ)","FM-15","7",,,,,,,,,,,,,,,,,,,,,,,,,,,,"2007-05-17"
"72793024233","2017-12-17T06:53:00","FM-15","7",,,,,,,,,,,,,,,,,,,,,,,,,,,,,,,,,,,,,,"30.12","42","43","T",,"+0.04","8","97","30.14","OVC:08 18","29.65","8.00","43","170",,"7",,,,,,,,,,,,,,,,,,,,,,,,,,,,,,,,,,,,,"MET12312/17/17 06:53:02 METAR KSEA 171453Z 17006KT 8SM OVC018 06/06 A3012 RMK AO2 RAE48 SLP208 P0001 60001 T00610056 58015 $ (LZ)","FM-15","7",,,,,,,,,,,,,,,,,,,,,,,,,,,,"2007-05-17"
"72793024233","2017-12-17T07:53:00","FM-15","7",,,,,,,,,,,,,,,,,,,,,,,,,,,,,,,,,,,,,,"30.11","42","43","0.00",,,,"97","30.13","OVC:08 16","29.64","10.00","43","180",,"8",,,,,,,,,,,,,,,,,,,,,,,,,,,,,,,,,,,,,"MET10012/17/17 07:53:02 METAR KSEA 171553Z 18007KT 10SM OVC016 06/06 A3011 RMK AO2 SLP203 T00610056 $ (LZ)","FM-15","7",,,,,,,,,,,,,,,,,,,,,,,,,,,,"2007-05-17"
"72793024233","2017-12-17T08:53:00","FM-15","7",,,,,,,,,,,,,,,,,,,,,,,,,,,,,,,,,,,,,,"30.09","42","45","0.00",,,,"90","30.11","OVC:08 16","29.62","10.00","44","200",,"13",,,,,,,,,,,,,,,,,,,,,,,,,,,,,,,,,,,,,"MET10012/17/17 08:53:02 METAR KSEA 171653Z 20011KT 10SM OVC016 07/06 A3009 RMK AO2 SLP197 T00720056 $ (LZ)","FM-15","7",,,,,,,,,,,,,,,,,,,,,,,,,,,,"2007-05-17"
"72793024233","2017-12-17T09:51:00","FM-16","6",,,,,,,,,,,,,,,,,,,,,,,,,,,,,,,,,,,,,,"30.11","43","46",,,,,"87",,"OVC:08 14","29.64","10.00","45","200",,"14",,,,,,,,,,,,,,,,,,,,,,,,,,,,,,,,,,,,,"MET08812/17/17 09:51:02 SPECI KSEA 171751Z 20012KT 10SM OVC014 08/06 A3011 RMK AO2 $ FIBI (LZ)","FM-16","6",,,,,,,,,,,,,,,,,,,,,,,,,,,,"2007-05-17"
"72793024233","2017-12-17T09:53:00","FM-15","7",,,,,,,,,,,,,,,,,,,,,,,,,,,,,,,,,,,,,,"30.11","43","46","0.00",,"+0.01","5","89","30.13","OVC:08 14","29.64","10.00","45","190",,"14",,,,,,,,,,,,,,,,,,,,,,,,,,,,,,,,,,,,,"MET12412/17/17 09:53:02 METAR KSEA 171753Z 19012KT 10SM OVC014 08/06 A3011 RMK AO2 SLP204 60001 T00780061 10078 20061 55004 $ (LZ)","FM-15","7",,,,,,,,,,,,,,,,,,,,,,,,,,,,"2007-05-17"
"72793024233","2017-12-17T10:00:00","FM-12","4",,,,,,,,,,,,,,,,,,,,,,,,,,,,,,,,,,,,,,,"43","46",,,"+0.01","5","89","30.13","15","29.63","9.94","45","190",,"14",,,,,,,,,,,,,,,,,,,,,,,,,,,,,,,,,,,,,"SYN08672793 12466 81912 10078 20061 30033 40204 55004 69931 91753 333 10078 20050 555 91718=","FM-12","4",,,,,,,,,,,,,,,,,,,,,,,,,,,,"2007-05-17"
"72793024233","2017-12-17T10:53:00","FM-15","7",,,,,,,,,,,,,,,,,,,,,,,,,,,,,,,,,,,,,,"30.08","43","47","0.00",,,,"86","30.11","OVC:08 13","29.61","10.00","45","190","26","20",,,,,,,,,,,,,,,,,,,,,,,,,,,,,,,,,,,,,"MET10312/17/17 10:53:02 METAR KSEA 171853Z 19017G23KT 10SM OVC013 08/06 A3008 RMK AO2 SLP196 T00830061 $ (LZ)","FM-15","7",,,,,,,,,,,,,,,,,,,,,,,,,,,,"2007-05-17"
"72793024233","2017-12-17T11:53:00","FM-15","7",,,,,,,,,,,,,,,,,,,,,,,,,,,,,,,,,,,,,,"30.07","44","48","0.00",,,,"86","30.09","BKN:07 12 OVC:08 17","29.60","10.00","46","190","23","18",,,,,,,,,,,,,,,,,,,,,,,,,,,,,,,,,,,,,"MET11012/17/17 11:53:02 METAR KSEA 171953Z 19016G20KT 10SM BKN012 OVC017 09/07 A3007 RMK AO2 SLP190 T00890067 $ (LZ)","FM-15","7",,,,,,,,,,,,,,,,,,,,,,,,,,,,"2007-05-17"
"72793024233","2017-12-17T12:51:00","FM-16","6",,,,,,,,,,,,,,,,,,,,,,,,,,,,,,,,,,,,,,"30.05","45","48",,,,,"87",,"SCT:04 14 OVC:08 20","29.58","10.00","47","200","28","21",,,,,,,,,,,,,,,,,,,,,,,,,,,,,,,,,,,,,"MET11612/17/17 12:51:02 SPECI KSEA 172051Z 20018G24KT 10SM SCT014 OVC020 09/07 A3005 RMK AO2 PK WND 19026/2000 $ FIBI (LZ)","FM-16","6",,,,,,,,,,,,,,,,,,,,,,,,,,,,"2007-05-17"
"72793024233","2017-12-17T12:53:00","FM-15","7",,,,,,,,,,,,,,,,,,,,,,,,,,,,,,,,,,,,,,"30.05","44","49","0.00",,"+0.06","6","83","30.07","SCT:04 14 OVC:08 20","29.58","10.00","47","190","28","21",,,,,,,,,,,,,,,,,,,,,,,,,,,,,,,,,,,,,"MET13412/17/17 12:53:02 METAR KSEA 172053Z 19018G24KT 10SM SCT014 OVC020 09/07 A3005 RMK AO2 PK WND 19026/2000 SLP183 T00940067 56021 $ (LZ)","FM-15","7",,,,,,,,,,,,,,,,,,,,,,,,,,,,"2007-05-17"
"72793024233","2017-12-17T13:53:00","FM-15","7",,,,,,,,,,,,,,,,,,,,,,,,,,,,,,,,,,,,,,"30.03","44","49","0.00",,,,"83","30.06","FEW:02 15 BKN:07 23 OVC:08 30","29.56","10.00","47","200","26","18",,,,,,,,,,,,,,,,,,,,,,,,,,,,,,,,,,,,,"MET11712/17/17 13:53:02 METAR KSEA 172153Z 20016G23KT 10SM FEW015 BKN023 OVC030 09/07 A3003 RMK AO2 SLP178 T00940067 $ (LZ)","FM-15","7",,,,,,,,,,,,,,,,,,,,,,,,,,,,"2007-05-17"
"72793024233","2017-12-17T14:51:00","FM-16","6",,,,,,,,,,,,,,,,,,,,,,,,,,,,,,,,,,,,,,"30.02","43","48",,,,,"82",,"FEW:02 15 OVC:08 32","29.55","10.00","46","200","26","15",,,,,,,,,,,,,,,,,,,,,,,,,,,,,,,,,,,,,"MET11612/17/17 14:51:02 SPECI KSEA 172251Z 20013G23KT 10SM FEW015 OVC032 09/06 A3002 RMK AO2 PK WND 20026/2229 $ FIBI (TL)","FM-16","6",,,,,,,,,,,,,,,,,,,,,,,,,,,,"2007-05-17"
"72793024233","2017-12-17T14:53:00","FM-15","7",,,,,,,,,,,,,,,,,,,,,,,,,,,,,,,,,,,,,,"30.02","43","49","0.00",,,,"80","30.04","FEW:02 15 OVC:08 32","29.55","10.00","46","200","26","16",,,,,,,,,,,,,,,,,,,,,,,,,,,,,,,,,,,,,"MET12812/17/17 14:53:02 METAR KSEA 172253Z 20014G23KT 10SM FEW015 OVC032 09/06 A3002 RMK AO2 PK WND 20026/2229 SLP174 T00940061 $ (TL)","FM-15","7",,,,,,,,,,,,,,,,,,,,,,,,,,,,"2007-05-17"
"72793024233","2017-12-17T15:53:00","FM-15","7",,,,,,,,,,,,,,,,,,,,,,,,,,,,,,,,,,,,,,"30.01","43","49","0.00",,"+0.04","6","80","30.04","FEW:02 18 BKN:07 30 OVC:08 39","29.54","10.00","46","200","28","22",,,,,,,,,,,,,,,,,,,,,,,,,,,,,,,,,,,,,"MET13512/17/17 15:53:02 METAR KSEA 172353Z 20019G24KT 10SM FEW018 BKN030 OVC039 09/06 A3001 RMK AO2 SLP172 T00940061 10100 20078 56012 $ (TL)","FM-15","7",,,,,,,,,,,,,,,,,,,,,,,,,,,,"2007-05-17"
"72793024233","2017-12-17T16:00:00","FM-12","4",,,,,,,,,,,,,,,,,,,,,,,,,,,,,,,,,,,,,,,"43","49",,,"+0.04","6","80","30.04","15","29.53","9.94","46","200",,"22",,,,,,,,,,,,,,,,,,,,,,,,,,,,,,,,,,,,,"SYN08672793 32466 82019 10094 20061 39999 40172 56012 92353 333 10100 20056 91024 555 91800=","FM-12","4",,,,,,,,,,,,,,,,,,,,,,,,,,,,"2007-05-17"
"72793024233","2017-12-17T16:53:00","FM-15","7",,,,,,,,,,,,,,,,,,,,,,,,,,,,,,,,,,,,,,"30.01","43","49","0.00",,,,"80","30.03","SCT:04 16 OVC:08 36","29.54","10.00","46","190",,"20",,,,,,,,,,,,,,,,,,,,,,,,,,,,,,,,,,,,,"MET12012/17/17 16:53:01 METAR KSEA 180053Z 19017KT 10SM SCT016 OVC036 09/06 A3001 RMK AO2 PK WND 20027/0027 SLP170 T00940061 $","FM-15","7",,,,,,,,,,,,,,,,,,,,,,,,,,,,"2007-05-17"
"72793024233","2017-12-17T17:53:00","FM-15","7",,,,,,,,,,,,,,,,,,,,,,,,,,,,,,,,,,,,,,"30.01","43","48","0.00",,,,"83","30.03","SCT:04 16 SCT:04 26 OVC:08 35","29.54","10.00","46","200","29","20",,,,,,,,,,,,,,,,,,,,,,,,,,,,,,,,,,,,,"MET13012/17/17 17:53:01 METAR KSEA 180153Z 20017G25KT 10SM SCT016 SCT026 OVC035 09/06 A3001 RMK AO2 PK WND 19028/0128 SLP169 T00890061 $","FM-15","7",,,,,,,,,,,,,,,,,,,,,,,,,,,,"2007-05-17"
"72793024233","2017-12-17T18:13:00","FM-16","7",,,,,,,,,,,,,,,,,,,,,,,,,,,,,,,,,,,,,,"30.01","43","49",,,,,"80",,"BKN:07 17 OVC:08 29","29.54","10.00","46","190","31","18",,,,,,,,,,,,,,,,,,,,,,,,,,,,,,,,,,,,,"MET11612/17/17 18:13:01 SPECI KSEA 180213Z 19016G27KT 10SM BKN017 OVC029 09/06 A3001 RMK AO2 PK WND 21027/0204 T00940061 $","FM-16","7",,,,,,,,,,,,,,,,,,,,,,,,,,,,"2007-05-17"
"72793024233","2017-12-17T18:53:00","FM-15","7",,,,,,,,,,,,,,,,,,,,,,,,,,,,,,,,,,,,,,"30.00","43","49","0.00",,"+0.01","8","80","30.02","BKN:07 21 OVC:08 29","29.53","10.00","46","190","30","20",,,,,,,,,,,,,,,,,,,,,,,,,,,,,,,,,,,,,"MET12912/17/17 18:53:02 METAR KSEA 180253Z 19017G26KT 10SM BKN021 OVC029 09/06 A3000 RMK AO2 PK WND 21027/0204 SLP166 T00940061 58005 $","FM-15","7",,,,,,,,,,,,,,,,,,,,,,,,,,,,"2007-05-17"
"72793024233","2017-12-17T19:53:00","FM-15","7",,,,,,,,,,,,,,,,,,,,,,,,,,,,,,,,,,,,,,"30.01","43","49","0.00",,,,"80","30.03","OVC:08 17","29.54","10.00","46","200","26","20",,,,,,,,,,,,,,,,,,,,,,,,,,,,,,,,,,,,,"MET09812/17/17 19:53:02 METAR KSEA 180353Z 20017G23KT 10SM OVC017 09/06 A3001 RMK AO2 SLP169 T00940061 $","FM-15","7",,,,,,,,,,,,,,,,,,,,,,,,,,,,"2007-05-17"
"72793024233","2017-12-17T20:53:00","FM-15","7",,,,,,,,,,,,,,,,,,,,,,,,,,,,,,,,,,,,,,"29.99","43","50","0.00",,,,"77","30.01","FEW:02 21 BKN:07 28 OVC:08 34","29.52","10.00","47","190","26","21",,,,,,,,,,,,,,,,,,,,,,,,,,,,,,,,,,,,,"MET11212/17/17 20:53:02 METAR KSEA 180453Z 19018G23KT 10SM FEW021 BKN028 OVC034 10/06 A2999 RMK AO2 SLP164 T01000061 $","FM-15","7",,,,,,,,,,,,,,,,,,,,,,,,,,,,"2007-05-17"
"72793024233","2017-12-17T21:53:00","FM-15","7",,,,,,,,,,,,,,,,,,,,,,,,,,,,,,,,,,,,,,"29.98","42","50","0.00",,"+0.01","8","74","30.00","FEW:02 26 BKN:07 29 OVC:08 40","29.51","10.00","46","190",,"13",,,,,,,,,,,,,,,,,,,,,,,,,,,,,,,,,,,,,"MET12712/17/17 21:53:02 METAR KSEA 180553Z 19011KT 10SM FEW026 BKN029 OVC040 10/06 A2998 RMK AO2 SLP159 T01000056 10100 20089 58005 $","FM-15","7",,,,,,,,,,,,,,,,,,,,,,,,,,,,"2007-05-17"
"72793024233","2017-12-17T22:00:00","FM-12","4",,,,,,,,,,,,,,,,,,,,,,,,,,,,,,,,,,,,,,,"42","50",,,"+0.01","8","74","30.00","26","29.50","9.94","46","190",,"13",,,,,,,,,,,,,,,,,,,,,,,,,,,,,,,,,,,,,"SYN08072793 32566 81911 10100 20056 39989 40159 58005 90553 333 10100 20056 555 91806=","FM-12","4",,,,,,,,,,,,,,,,,,,,,,,,,,,,"2007-05-17"
"72793024233","2017-12-17T22:53:00","FM-15","7",,,,,,,,,,,,,,,,,,,,,,,,,,,,,,,,,,,,,,"29.96","43","50","0.00",,,,"77","29.98","OVC:08 21","29.49","10.00","47","180","24","18",,,,,,,,,,,,,,,,,,,,,,,,,,,,,,,,,,,,,"MET09812/17/17 22:53:02 METAR KSEA 180653Z 18016G21KT 10SM OVC021 10/06 A2996 RMK AO2 SLP153 T01000061 $","FM-15","7",,,,,,,,,,,,,,,,,,,,,,,,,,,,"2007-05-17"
"72793024233","2017-12-17T23:53:00","FM-15","7",,,,,,,,,,,,,,,,,,,,,,,,,,,,,,,,,,,,,,"29.96","44","49","0.00","HZ:7 |FU |HZ",,,"83","29.98","OVC:08 19","29.49","5.00","47","190","25","20",,,,,,,,,,,,,,,,,,,,,,,,,,,,,,,,,,,,,"MET12812/17/17 23:53:02 METAR KSEA 180753Z 19017G22KT 5SM HZ OVC019 09/07 A2996 RMK AO2 PK WND 17026/0705 SLP151 T00940067 401000056 $","FM-15","7",,,,,,,,,,,,,,,,,,,,,,,,,,,,"2007-05-17"
"72793024233","2017-12-17T23:59:00","SOD  ","6",,,,,,,,,,,,,,,"43","46","86","30.09","29.62","45","15.0","0","5.8","19","50","42","190","32","0.03","0","0.0","190","24","RA BR HZ",,,,,,,,,,,,,,,,,,,,,,,,,,,,,,,,,,,,,,,,,,,,,,,,,,,,,,,,"SOD77724 HR PRECIPITATION (IN): 0.03 WEATHER(CODE):1,8  24 HR MAX TEMP (F):50 24 HR MAX TEMP TIME (LST):2346 24 HR MIN TEMP (F):42 24 HR MIN TEMP TIME (LST):0110 AVERAGE STATION PRESSURE(D):29.616 MINIMUM SEA LEVEL PRESSURE:29.97 TIME OF OCCURRENCE:2339 PEAK WIND SPEED (MPH):32  PEAK WIND DIR (DEG):190 PEAK WIND TIME (LST):1728  FASTEST 2MIN SPEED (MPH):24 FASTEST 2MIN DIR (DEG):190 FASTEST 2MIN TIME (LST):1703 AVERAGE WIND SPEED (MPH):15.0 24 HR AVG TEMP (F):46 DEPART FROM NORMAL:   6 HEATING DEGREE DAYS: 19 COOLING DEGREE DAYS:  0 LATEST DAY MAX TEMP (0700-1900 LST): 50 LATEST NIGHT MIN TEMP(1900-0800 LST):42 HOURLY INCREMENTAL PRECIPITATION VALUES (IN):     0.01T     0.01 0.00 0.01T     0.00 0.00 0.00 0.00 0.00 0.00 0.00 0.00 0.00 0.00 0.00 0.00 0.00 0.00 0.00 0.00 0.00","SOD  ","6",,,,,,,,,,,,,,,,,,,,,,,,,"0752","1619",,"2007-05-17"
"72793024233","2017-12-18T00:51:00","FM-16","6",,,,,,,,,,,,,,,,,,,,,,,,,,,,,,,,,,,,,,"29.96","30","48",,"-RA:02 |RA |",,,"50",,"BKN:07 13 OVC:08 21","29.49","5.00","40","190","28","18",,,,,,,,,,,,,,,,,,,,,,,,,,,,,,,,,,,,,"MET13812/18/17 00:51:02 SPECI KSEA 180851Z 19016G24KT 5SM -RA BKN013 OVC021 09/M01 A2996 RMK AO2 PK WND 20026/0813 RAB07E23B48 P0001 $ FIBI (LC)","FM-16","6",,,,,,,,,,,,,,,,,,,,,,,,,,,,"2007-05-17"
"72793024233","2017-12-18T00:53:00","FM-15","7",,,,,,,,,,,,,,,,,,,,,,,,,,,,,,,,,,,,,,"29.96","31","49","0.01","-RA:02 BR:1 |RA |","+0.02","5","50","29.98","BKN:07 13 OVC:08 21","29.49","5.00","41","190","28","17",,,,,,,,,,,,,,,,,,,,,,,,,,,,,,,,,,,,,"MET16512/18/17 00:53:02 METAR KSEA 180853Z 19015G24KT 5SM -RA BR BKN013 OVC021 09/M01 A2996 RMK AO2 PK WND 20026/0813 RAB07E23B48 SLP152 P0001 60001 T00941006 55008 $ (LC)","FM-15","7",,,,,,,,,,,,,,,,,,,,,,,,,,,,"2007-05-17"
"72793024233","2017-12-18T00:59:00","FM-16","7",,,,,,,,,,,,,,,,,,,,,,,,,,,,,,,,,,,,,,"29.96","46","49","T","-RA:02 BR:1 |RA |",,,"90",,"FEW:02 9 SCT:04 15 OVC:08 21","29.49","5.00","48","190","28","21",,,,,,,,,,,,,,,,,,,,,,,,,,,,,,,,,,,,,"MET12212/18/17 00:59:02 SPECI KSEA 180859Z 19018G24KT 5SM -RA BR FEW009 SCT015 OVC021 09/08 A2996 RMK AO2 P0000 T00940078 $ (LC)","FM-16","7",,,,,,,,,,,,,,,,,,,,,,,,,,,,"2007-05-17"
"72793024233","2017-12-18T01:53:00","FM-15","7",,,,,,,,,,,,,,,,,,,,,,,,,,,,,,,,,,,,,,"29.97","46","49","T","BR:1 ||",,,"90","29.98","SCT:04 11 BKN:07 21 OVC:08 33","29.50","6.00","48","190","34","18",,,,,,,,,,,,,,,,,,,,,,,,,,,,,,,,,,,,,"MET14912/18/17 01:53:02 METAR KSEA 180953Z 19016G30KT 6SM BR SCT011 BKN021 OVC033 09/08 A2997 RMK AO2 PK WND 21030/0944 RAE25 SLP154 P0000 T00940078 $ (LC)","FM-15","7",,,,,,,,,,,,,,,,,,,,,,,,,,,,"2007-05-17"
"72793024233","2017-12-18T01:59:00","FM-16","7",,,,,,,,,,,,,,,,,,,,,,,,,,,,,,,,,,,,,,"29.97","46","49",,"BR:1 ||",,,"90",,"SCT:04 9 BKN:07 14 OVC:08 21","29.50","6.00","48","190","24","16",,,,,,,,,,,,,,,,,,,,,,,,,,,,,,,,,,,,,"MET11212/18/17 01:59:02 SPECI KSEA 180959Z 19014G21KT 6SM BR SCT009 BKN014 OVC021 09/08 A2997 RMK AO2 T00940078 $ (LC)","FM-16","7",,,,,,,,,,,,,,,,,,,,,,,,,,,,"2007-05-17"
"72793024233","2017-12-18T02:53:00","FM-15","7",,,,,,,,,,,,,,,,,,,,,,,,,,,,,,,,,,,,,,"29.98","46","49","0.01",,,,"90","30.00","SCT:04 9 BKN:07 13 OVC:08 21","29.51","10.00","48","190",,"16",,,,,,,,,,,,,,,,,,,,,,,,,,,,,,,,,,,,,"MET12912/18/17 02:53:02 METAR KSEA 181053Z 19014KT 10SM SCT009 BKN013 OVC021 09/08 A2998 RMK AO2 RAB18E30 SLP159 P0001 T00940078 $ (LC)","FM-15","7",,,,,,,,,,,,,,,,,,,,,,,,,,,,"2007-05-17"
"72793024233","2017-12-18T03:01:00","FM-16","7",,,,,,,,,,,,,,,,,,,,,,,,,,,,,,,,,,,,,,"29.98","46","49",,,,,"90",,"SCT:04 7 OVC:08 19","29.51","10.00","48","190","23","18",,,,,,,,,,,,,,,,,,,,,,,,,,,,,,,,,,,,,"MET10312/18/17 03:01:02 SPECI KSEA 181101Z 19016G20KT 10SM SCT007 OVC019 09/08 A2998 RMK AO2 T00940078 $ (LC)","FM-16","7",,,,,,,,,,,,,,,,,,,,,,,,,,,,"2007-05-17"
"72793024233","2017-12-18T03:53:00","FM-15","7",,,,,,,,,,,,,,,,,,,,,,,,,,,,,,,,,,,,,,"29.97","47","49","T","-RA:02 BR:1 |RA |","-0.01","0","93","29.99","FEW:02 7 BKN:07 15 OVC:08 55","29.50","5.00","48","190","25","20",,,,,,,,,,,,,,,,,,,,,,,,,,,,,,,,,,,,,"MET16512/18/17 03:53:02 METAR KSEA 181153Z 19017G22KT 5SM -RA BR FEW007 BKN015 OVC055 09/08 A2997 RMK AO2 RAB27 SLP156 P0000 60002 70003 T00940083 10100 20094 50005 $ (LC)","FM-15","7",,,,,,,,,,,,,,,,,,,,,,,,,,,,"2007-05-17"
"72793024233","2017-12-18T04:00:00","FM-12","4",,,,,,,,,,,,,,,,,,,,,,,,,,,,,,,,,,,,,,,"47","49",,"||RA","0.01","9","93","29.99","8","29.49","4.97","48","190",,"20",,,,,,,,,,,,,,,,,,,,,,,,,,,,,,,,,,,,,"SYN11072793 11358 81917 10094 20083 39986 40156 50005 69951 761// 91153 333 10100 20089 70008 91022 96010 555 91812=","FM-12","4",,,,,,,,,,,,,,,,,,,,,,,,,,,,"2007-05-17"
"72793024233","2017-12-18T04:29:00","FM-16","7",,,,,,,,,,,,,,,,,,,,,,,,,,,,,,,,,,,,,,"29.97","47","49","0.01","-RA:02 BR:1 |RA |",,,"93",,"BKN:07 7 OVC:08 15","29.50","5.00","48","190",,"21",,,,,,,,,,,,,,,,,,,,,,,,,,,,,,,,,,,,,"MET12412/18/17 04:29:02 SPECI KSEA 181229Z 19018KT 5SM -RA BR BKN007 OVC015 09/08 A2997 RMK AO2 CIG 004V009 P0001 T00940083 $ (LC)","FM-16","7",,,,,,,,,,,,,,,,,,,,,,,,,,,,"2007-05-17"
"72793024233","2017-12-18T04:53:00","FM-15","7",,,,,,,,,,,,,,,,,,,,,,,,,,,,,,,,,,,,,,"29.97","47","49","0.02","-RA:02 BR:1 |RA |",,,"93","29.99","BKN:07 5 OVC:08 15","29.50","5.00","48","190","25","16",,,,,,,,,,,,,,,,,,,,,,,,,,,,,,,,,,,,,"MET12212/18/17 04:53:02 METAR KSEA 181253Z 19014G22KT 5SM -RA BR BKN005 OVC015 09/08 A2997 RMK AO2 SLP156 P0002 T00940083 $ (LC)","FM-15","7",,,,,,,,,,,,,,,,,,,,,,,,,,,,"2007-05-17"
"72793024233","2017-12-18T05:53:00","FM-15","7",,,,,,,,,,,,,,,,,,,,,,,,,,,,,,,,,,,,,,"29.99","47","49","T","-RA:02 BR:1 |RA |",,,"93","30.01","OVC:08 5","29.52","9.00","48","210",,"14",,,,,,,,,,,,,,,,,,,,,,,,,,,,,,,,,,,,,"MET11212/18/17 05:53:02 METAR KSEA 181353Z 21012KT 9SM -RA BR OVC005 09/08 A2999 RMK AO2 SLP164 P0000 T00940083 $ (JC)","FM-15","7",,,,,,,,,,,,,,,,,,,,,,,,,,,,"2007-05-17"
"72793024233","2017-12-18T06:53:00","FM-15","7",,,,,,,,,,,,,,,,,,,,,,,,,,,,,,,,,,,,,,"30.02","47","49","T","-RA:02 BR:1 |RA |","-0.05","3","93","30.04","OVC:08 6","29.55","10.00","48","210",,"13",,,,,,,,,,,,,,,,,,,,,,,,,,,,,,,,,,,,,"MET12312/18/17 06:53:02 METAR KSEA 181453Z 21011KT 10SM -RA BR OVC006 09/08 A3002 RMK AO2 SLP172 P0000 60002 T00940083 53016 (JC)","FM-15","7",,,,,,,,,,,,,,,,,,,,,,,,,,,,"2007-05-17"
"72793024233","2017-12-18T07:53:00","FM-15","7",,,,,,,,,,,,,,,,,,,,,,,,,,,,,,,,,,,,,,"30.04","47","49","T","-RA:02 BR:1 |RA |",,,"93","30.06","OVC:08 5","29.57","10.00","48","220",,"11",,,,,,,,,,,,,,,,,,,,,,,,,,,,,,,,,,,,,"MET11112/18/17 07:53:02 METAR KSEA 181553Z 22010KT 10SM -RA BR OVC005 09/08 A3004 RMK AO2 SLP181 P0000 T00940083 (JC)","FM-15","7",,,,,,,,,,,,,,,,,,,,,,,,,,,,"2007-05-17"
"72793024233","2017-12-18T08:53:00","FM-15","7",,,,,,,,,,,,,,,,,,,,,,,,,,,,,,,,,,,,,,"30.07","44","46","T","-RA:02 BR:1 |RA |",,,"93","30.09","OVC:08 9","29.60","4.00","45","050",,"16",,,,,,,,,,,,,,,,,,,,,,,,,,,,,,,,,,,,,"MET11012/18/17 08:53:02 METAR KSEA 181653Z 05014KT 4SM -RA BR OVC009 08/07 A3007 RMK AO2 SLP190 P0000 T00780067 (JC)","FM-15","7",,,,,,,,,,,,,,,,,,,,,,,,,,,,"2007-05-17"
"72793024233","2017-12-18T09:53:00","FM-15","7",,,,,,,,,,,,,,,,,,,,,,,,,,,,,,,,,,,,,,"30.11","43","46","0.01","-RA:02 BR:1 |RA |","-0.09","3","89","30.13","BKN:07 5 OVC:08 13","29.64","6.00","45","050","21","15",,,,,,,,,,,,,,,,,,,,,,,,,,,,,,,,,,,,,"MET14412/18/17 09:53:02 METAR KSEA 181753Z 05013G18KT 6SM -RA BR BKN005 OVC013 08/06 A3011 RMK AO2 SLP202 P0001 60003 T00780061 10094 20072 53029 (JC)","FM-15","7",,,,,,,,,,,,,,,,,,,,,,,,,,,,"2007-05-17"
"72793024233","2017-12-18T10:00:00","FM-12","4",,,,,,,,,,,,,,,,,,,,,,,,,,,,,,,,,,,,,,,"43","46",,"||RA","-0.09","3","89","30.13","5","29.63","5.59","45","050",,"15",,,,,,,,,,,,,,,,,,,,,,,,,,,,,,,,,,,,,"SYN10472793 11259 80513 10078 20061 30033 40202 53029 69981 761// 91753 333 10100 20072 91018 96010 555 91818=","FM-12","4",,,,,,,,,,,,,,,,,,,,,,,,,,,,"2007-05-17"
"72793024233","2017-12-18T10:40:00","FM-16","7",,,,,,,,,,,,,,,,,,,,,,,,,,,,,,,,,,,,,,"30.13","43","45","T","-RA:02 BR:1 |RA |",,,"93",,"SCT:04 6 OVC:08 18","29.66","5.00","44","060",,"13",,,,,,,,,,,,,,,,,,,,,,,,,,,,,,,,,,,,,"MET11012/18/17 10:40:02 SPECI KSEA 181840Z 06011KT 5SM -RA BR SCT006 OVC018 07/06 A3013 RMK AO2 P0000 T00720061 (JC)","FM-16","7",,,,,,,,,,,,,,,,,,,,,,,,,,,,"2007-05-17"
"72793024233","2017-12-18T10:53:00","FM-15","7",,,,,,,,,,,,,,,,,,,,,,,,,,,,,,,,,,,,,,"30.13","43","45","T","-RA:02 BR:1 |RA |",,,"93","30.15","SCT:04 6 OVC:08 18","29.66","5.00","44","040",,"13",,,,,,,,,,,,,,,,,,,,,,,,,,,,,,,,,,,,,"MET11712/18/17 10:53:02 METAR KSEA 181853Z 04011KT 5SM -RA BR SCT006 OVC018 07/06 A3013 RMK AO2 SLP211 P0000 T00720061 (JC)","FM-15","7",,,,,,,,,,,,,,,,,,,,,,,,,,,,"2007-05-17"
"72793024233","2017-12-18T11:53:00","FM-15","7",,,,,,,,,,,,,,,,,,,,,,,,,,,,,,,,,,,,,,"30.13","43","45","0.01","-RA:02 BR:1 |RA |",,,"93","30.15","FEW:02 5 OVC:08 22","29.66","5.00","44","080",,"8",,,,,,,,,,,,,,,,,,,,,,,,,,,,,,,,,,,,,"MET11712/18/17 11:53:02 METAR KSEA 181953Z 08007KT 5SM -RA BR FEW005 OVC022 07/06 A3013 RMK AO2 SLP211 P0001 T00720061 (JC)","FM-15","7",,,,,,,,,,,,,,,,,,,,,,,,,,,,"2007-05-17"
"72793024233","2017-12-18T12:53:00","FM-15","7",,,,,,,,,,,,,,,,,,,,,,,,,,,,,,,,,,,,,,"30.13","42","46","0.00",,"-0.02","0","86","30.15","FEW:02 8 OVC:08 21","29.66","10.00","44","080",,"11",,,,,,,,,,,,,,,,,,,,,,,,,,,,,,,,,,,,,"MET13112/18/17 12:53:02 METAR KSEA 182053Z 08010KT 10SM FEW008 OVC021 08/06 A3013 RMK AO2 RAE1957 SLP210 P0000 60001 T00780056 50007 (JC)","FM-15","7",,,,,,,,,,,,,,,,,,,,,,,,,,,,"2007-05-17"
"72793024233","2017-12-18T13:53:00","FM-15","7",,,,,,,,,,,,,,,,,,,,,,,,,,,,,,,,,,,,,,"30.14","41","46","T",,,,"83","30.16","FEW:02 12 OVC:08 21","29.67","10.00","44","080",,"13",,,,,,,,,,,,,,,,,,,,,,,,,,,,,,,,,,,,,"MET12012/18/17 13:53:02 METAR KSEA 182153Z 08011KT 10SM FEW012 OVC021 08/05 A3014 RMK AO2 RAB14E30 SLP212 P0000 T00780050 (RS)","FM-15","7",,,,,,,,,,,,,,,,,,,,,,,,,,,,"2007-05-17"
"72793024233","2017-12-18T14:53:00","FM-15","7",,,,,,,,,,,,,,,,,,,,,,,,,,,,,,,,,,,,,,"30.13","40","45","0.01","-RA:02 |RA |",,,"83","30.15","BKN:07 23 OVC:08 28","29.66","10.00","43","060",,"7",,,,,,,,,,,,,,,,,,,,,,,,,,,,,,,,,,,,,"MET12712/18/17 14:53:02 METAR KSEA 182253Z 06006KT 10SM -RA BKN023 OVC028 07/04 A3013 RMK AO2 RAB08E31B50 SLP209 P0000 T00720044 (RS)","FM-15","7",,,,,,,,,,,,,,,,,,,,,,,,,,,,"2007-05-17"
"72793024233","2017-12-18T15:53:00","FM-15","7",,,,,,,,,,,,,,,,,,,,,,,,,,,,,,,,,,,,,,"30.12","43","46","T","-RA:02 |RA |","+0.01","8","89","30.14","BKN:07 16 OVC:08 60","29.65","10.00","45","VRB",,"5",,,,,,,,,,,,,,,,,,,,,,,,,,,,,,,,,,,,,"MET13912/18/17 15:53:02 METAR KSEA 182353Z VRB04KT 10SM -RA BKN016 OVC060 08/06 A3012 RMK AO2 SLP205 P0001 60002 T00780061 10078 20072 58004 (RS)","FM-15","7",,,,,,,,,,,,,,,,,,,,,,,,,,,,"2007-05-17"
"72793024233","2017-12-18T16:00:00","FM-12","4",,,,,,,,,,,,,,,,,,,,,,,,,,,,,,,,,,,,,,,"43","46",,"||RA","+0.01","8","89","30.14","15","29.64","9.94","45",,,"5",,,,,,,,,,,,,,,,,,,,,,,,,,,,,,,,,,,,,"SYN09272793 11466 8//04 10078 20061 30036 40205 58004 69951 761// 92353 333 10094 20072 555 91900=","FM-12","4",,,,,,,,,,,,,,,,,,,,,,,,,,,,"2007-05-17"
"72793024233","2017-12-18T16:34:00","FM-16","7",,,,,,,,,,,,,,,,,,,,,,,,,,,,,,,,,,,,,,"30.12","43","44","0.12","RA:02 BR:1 |RA |",,,"96",,"FEW:02 7 BKN:07 14 OVC:08 35","29.65","4.00","44","050",,"8",,,,,,,,,,,,,,,,,,,,,,,,,,,,,,,,,,,,,"MET11112/18/17 16:34:01 SPECI KSEA 190034Z 05007KT 4SM RA BR FEW007 BKN014 OVC035 07/06 A3012 RMK AO2 P0012 T00670061","FM-16","7",,,,,,,,,,,,,,,,,,,,,,,,,,,,"2007-05-17"
"72793024233","2017-12-18T16:43:00","FM-16","7",,,,,,,,,,,,,,,,,,,,,,,,,,,,,,,,,,,,,,"30.11","43","44","0.19","-RA:02 BR:1 |RA |",,,"96",,"FEW:02 7 SCT:04 15 OVC:08 33","29.64","4.00","44","050",,"7",,,,,,,,,,,,,,,,,,,,,,,,,,,,,,,,,,,,,"MET11212/18/17 16:43:01 SPECI KSEA 190043Z 05006KT 4SM -RA BR FEW007 SCT015 OVC033 07/06 A3011 RMK AO2 P0019 T00670061","FM-16","7",,,,,,,,,,,,,,,,,,,,,,,,,,,,"2007-05-17"
"72793024233","2017-12-18T16:53:00","FM-15","7",,,,,,,,,,,,,,,,,,,,,,,,,,,,,,,,,,,,,,"30.12","43","44","0.22","RA:02 BR:1 |RA |",,,"96","30.14","FEW:02 8 SCT:04 15 OVC:08 33","29.65","4.00","44","050",,"6",,,,,,,,,,,,,,,,,,,,,,,,,,,,,,,,,,,,,"MET11812/18/17 16:53:01 METAR KSEA 190053Z 05005KT 4SM RA BR FEW008 SCT015 OVC033 07/06 A3012 RMK AO2 SLP205 P0021 T00670061","FM-15","7",,,,,,,,,,,,,,,,,,,,,,,,,,,,"2007-05-17"
"72793024233","2017-12-18T17:07:00","FM-16","7",,,,,,,,,,,,,,,,,,,,,,,,,,,,,,,,,,,,,,"30.12","43","44","0.02","-RA:02 BR:1 |RA |",,,"96",,"FEW:02 5 BKN:07 23 OVC:08 29","29.65","4.00","44","060",,"5",,,,,,,,,,,,,,,,,,,,,,,,,,,,,,,,,,,,,"MET11212/18/17 17:07:01 SPECI KSEA 190107Z 06004KT 4SM -RA BR FEW005 BKN023 OVC029 07/06 A3012 RMK AO2 P0002 T00670061","FM-16","7",,,,,,,,,,,,,,,,,,,,,,,,,,,,"2007-05-17"
"72793024233","2017-12-18T17:27:00","FM-16","7",,,,,,,,,,,,,,,,,,,,,,,,,,,,,,,,,,,,,,"30.11","43","45","0.06","-RA:02 BR:1 |RA |",,,"93",,"FEW:02 9 BKN:07 13 OVC:08 26","29.64","4.00","44","130",,"6",,,,,,,,,,,,,,,,,,,,,,,,,,,,,,,,,,,,,"MET11212/18/17 17:27:01 SPECI KSEA 190127Z 13005KT 4SM -RA BR FEW009 BKN013 OVC026 07/06 A3011 RMK AO2 P0006 T00720061","FM-16","7",,,,,,,,,,,,,,,,,,,,,,,,,,,,"2007-05-17"
"72793024233","2017-12-18T17:44:00","FM-16","7",,,,,,,,,,,,,,,,,,,,,,,,,,,,,,,,,,,,,,"30.11","43","45","0.10","RA:02 BR:1 |RA |",,,"93",,"BKN:07 9 OVC:08 13","29.64","3.00","44","120",,"7",,,,,,,,,,,,,,,,,,,,,,,,,,,,,,,,,,,,,"MET11612/18/17 17:44:01 SPECI KSEA 190144Z 12006KT 3SM RA BR BKN009 OVC013 07/06 A3011 RMK AO2 CIG 005V010 P0010 T00720061","FM-16","7",,,,,,,,,,,,,,,,,,,,,,,,,,,,"2007-05-17"
"72793024233","2017-12-18T17:53:00","FM-15","7",,,,,,,,,,,,,,,,,,,,,,,,,,,,,,,,,,,,,,"30.10","44","45","0.11","-RA:02 BR:1 |RA |",,,"97","30.12","BKN:07 9 OVC:08 13","29.63","3.00","45","130",,"7",,,,,,,,,,,,,,,,,,,,,,,,,,,,,,,,,,,,,"MET11212/18/17 17:53:01 METAR KSEA 190153Z 13006KT 3SM -RA BR BKN009 OVC013 07/07 A3010 RMK AO2 SLP201 P0011 T00720067","FM-15","7",,,,,,,,,,,,,,,,,,,,,,,,,,,,"2007-05-17"
"72793024233","2017-12-18T18:53:00","FM-15","7",,,,,,,,,,,,,,,,,,,,,,,,,,,,,,,,,,,,,,"30.09","43","44","0.03","-RA:02 BR:1 |RA |","+0.03","8","96","30.11","OVC:08 5","29.62","5.00","44","130",,"9",,,,,,,,,,,,,,,,,,,,,,,,,,,,,,,,,,,,,"MET12912/18/17 18:53:02 METAR KSEA 190253Z 13008KT 5SM -RA BR OVC005 07/06 A3009 RMK AO2 CIG 003V011 SLP197 P0004 60036 T00670061 58009","FM-15","7",,,,,,,,,,,,,,,,,,,,,,,,,,,,"2007-05-17"
"72793024233","2017-12-18T19:38:00","FM-16","7",,,,,,,,,,,,,,,,,,,,,,,,,,,,,,,,,,,,,,"30.09","42","44","0.03","-RA:02 BR:1 |RA |",,,"93",,"SCT:04 5 BKN:07 11 OVC:08 23","29.62","6.00","43","120",,"9",,,,,,,,,,,,,,,,,,,,,,,,,,,,,,,,,,,,,"MET11212/18/17 19:38:02 SPECI KSEA 190338Z 12008KT 6SM -RA BR SCT005 BKN011 OVC023 07/06 A3009 RMK AO2 P0003 T00670056","FM-16","7",,,,,,,,,,,,,,,,,,,,,,,,,,,,"2007-05-17"
"72793024233","2017-12-18T19:53:00","FM-15","7",,,,,,,,,,,,,,,,,,,,,,,,,,,,,,,,,,,,,,"30.08","42","43","0.04","-RA:02 |RA |",,,"97","30.11","SCT:04 5 BKN:07 11 OVC:08 23","29.61","7.00","43","130",,"9",,,,,,,,,,,,,,,,,,,,,,,,,,,,,,,,,,,,,"MET11612/18/17 19:53:02 METAR KSEA 190353Z 13008KT 7SM -RA SCT005 BKN011 OVC023 06/06 A3008 RMK AO2 SLP195 P0004 T00610056","FM-15","7",,,,,,,,,,,,,,,,,,,,,,,,,,,,"2007-05-17"
"72793024233","2017-12-18T20:07:00","FM-16","7",,,,,,,,,,,,,,,,,,,,,,,,,,,,,,,,,,,,,,"30.07","42","43","0.01","-RA:02 |RA |",,,"97",,"FEW:02 5 BKN:07 25 OVC:08 29","29.60","7.00","43","120",,"8",,,,,,,,,,,,,,,,,,,,,,,,,,,,,,,,,,,,,"MET10912/18/17 20:07:02 SPECI KSEA 190407Z 12007KT 7SM -RA FEW005 BKN025 OVC029 06/06 A3007 RMK AO2 P0001 T00610056","FM-16","7",,,,,,,,,,,,,,,,,,,,,,,,,,,,"2007-05-17"
"72793024233","2017-12-18T20:51:00","FM-16","6",,,,,,,,,,,,,,,,,,,,,,,,,,,,,,,,,,,,,,"30.06","41","43",,"-RA:02 BR:1 |RA |",,,"93",,"SCT:04 3 BKN:07 12 OVC:08 29","29.59","6.00","42","110",,"8",,,,,,,,,,,,,,,,,,,,,,,,,,,,,,,,,,,,,"MET11212/18/17 20:51:03 SPECI KSEA 190451Z 11007KT 6SM -RA BR SCT003 BKN012 OVC029 06/05 A3006 RMK AO2 P0004 FIBI (RS)","FM-16","6",,,,,,,,,,,,,,,,,,,,,,,,,,,,"2007-05-17"
"72793024233","2017-12-18T20:53:00","FM-15","7",,,,,,,,,,,,,,,,,,,,,,,,,,,,,,,,,,,,,,"30.05","41","43","0.05","-RA:02 BR:1 |RA |",,,"93","30.08","SCT:04 3 BKN:07 12 OVC:08 29","29.58","6.00","42","110",,"8",,,,,,,,,,,,,,,,,,,,,,,,,,,,,,,,,,,,,"MET11912/18/17 20:53:02 METAR KSEA 190453Z 11007KT 6SM -RA BR SCT003 BKN012 OVC029 06/05 A3005 RMK AO2 SLP186 P0005 T00610050","FM-15","7",,,,,,,,,,,,,,,,,,,,,,,,,,,,"2007-05-17"
"72793024233","2017-12-18T21:11:00","FM-16","7",,,,,,,,,,,,,,,,,,,,,,,,,,,,,,,,,,,,,,"30.04","41","43","0.01","-RA:02 BR:1 |RA |",,,"93",,"SCT:04 5 BKN:07 21 OVC:08 29","29.57","6.00","42","080",,"9",,,,,,,,,,,,,,,,,,,,,,,,,,,,,,,,,,,,,"MET11212/18/17 21:11:02 SPECI KSEA 190511Z 08008KT 6SM -RA BR SCT005 BKN021 OVC029 06/05 A3004 RMK AO2 P0001 T00610050","FM-16","7",,,,,,,,,,,,,,,,,,,,,,,,,,,,"2007-05-17"
"72793024233","2017-12-18T21:36:00","FM-16","7",,,,,,,,,,,,,,,,,,,,,,,,,,,,,,,,,,,,,,"30.03","40","42","0.03","-RA:02 |RA |",,,"92",,"FEW:02 5 SCT:04 21 OVC:08 33","29.56","8.00","41","080",,"7",,,,,,,,,,,,,,,,,,,,,,,,,,,,,,,,,,,,,"MET10912/18/17 21:36:02 SPECI KSEA 190536Z 08006KT 8SM -RA FEW005 SCT021 OVC033 06/04 A3003 RMK AO2 P0003 T00560044","FM-16","7",,,,,,,,,,,,,,,,,,,,,,,,,,,,"2007-05-17"
"72793024233","2017-12-18T21:53:00","FM-15","7",,,,,,,,,,,,,,,,,,,,,,,,,,,,,,,,,,,,,,"30.02","40","42","0.04","-RA:02 |RA |","+0.07","8","92","30.04","FEW:02 8 OVC:08 35","29.55","8.00","41","070",,"7",,,,,,,,,,,,,,,,,,,,,,,,,,,,,,,,,,,,,"MET13312/18/17 21:53:02 METAR KSEA 190553Z 07006KT 8SM -RA FEW008 OVC035 06/04 A3002 RMK AO2 SLP173 P0003 60048 T00560044 10078 20056 58025","FM-15","7",,,,,,,,,,,,,,,,,,,,,,,,,,,,"2007-05-17"
"72793024233","2017-12-18T22:00:00","FM-12","4",,,,,,,,,,,,,,,,,,,,,,,,,,,,,,,,,,,,,,,"40","42",,"||RA","+0.07","8","92","30.04","8","29.54","7.46","41","070",,"7",,,,,,,,,,,,,,,,,,,,,,,,,,,,,,,,,,,,,"SYN09272793 11362 80706 10056 20044 30003 40173 58025 60121 761// 90553 333 10100 20056 555 91906=","FM-12","4",,,,,,,,,,,,,,,,,,,,,,,,,,,,"2007-05-17"
"72793024233","2017-12-18T22:53:00","FM-15","7",,,,,,,,,,,,,,,,,,,,,,,,,,,,,,,,,,,,,,"29.99","40","42","0.05","-RA:02 |RA |",,,"92","30.01","OVC:08 38","29.52","7.00","41","030",,"6",,,,,,,,,,,,,,,,,,,,,,,,,,,,,,,,,,,,,"MET10212/18/17 22:53:02 METAR KSEA 190653Z 03005KT 7SM -RA OVC038 06/04 A2999 RMK AO2 SLP163 P0006 T00560044","FM-15","7",,,,,,,,,,,,,,,,,,,,,,,,,,,,"2007-05-17"
"72793024233","2017-12-18T23:53:00","FM-15","7",,,,,,,,,,,,,,,,,,,,,,,,,,,,,,,,,,,,,,"29.95","39","41","0.09","-RA:02 BR:1 |RA |",,,"93","29.98","FEW:02 10 OVC:08 39","29.48","4.00","40","030",,"7",,,,,,,,,,,,,,,,,,,,,,,,,,,,,,,,,,,,,"MET12212/18/17 23:53:02 METAR KSEA 190753Z 03006KT 4SM -RA BR FEW010 OVC039 05/04 A2995 RMK AO2 SLP151 P0008 T00500039 400940050","FM-15","7",,,,,,,,,,,,,,,,,,,,,,,,,,,,"2007-05-17"
"72793024233","2017-12-18T23:59:00","SOD  ","6",,,,,,,,,,,,,,,"43","45","92","30.07","29.59","45","11.3","0","4.8","20","49","41","210","35","0.70","0","0.0","190","25","RA BR",,,,,,,,,,,,,,,,,,,,,,,,,,,,,,,,,,,,,,,,,,,,,,,,,,,,,,,,"SOD77524 HR PRECIPITATION (IN): 0.70 WEATHER(CODE):1  24 HR MAX TEMP (F):49 24 HR MAX TEMP TIME (LST):0814 24 HR MIN TEMP (F):41 24 HR MIN TEMP TIME (LST):2359 AVERAGE STATION PRESSURE(D):29.585 MINIMUM SEA LEVEL PRESSURE:29.97 TIME OF OCCURRENCE:2359 PEAK WIND SPEED (MPH):35  PEAK WIND DIR (DEG):210 PEAK WIND TIME (LST):0144  FASTEST 2MIN SPEED (MPH):25 FASTEST 2MIN DIR (DEG):190 FASTEST 2MIN TIME (LST):0147 AVERAGE WIND SPEED (MPH):11.3 24 HR AVG TEMP (F):45 DEPART FROM NORMAL:   5 HEATING DEGREE DAYS: 20 COOLING DEGREE DAYS:  0 LATEST DAY MAX TEMP (0700-1900 LST): 49 LATEST NIGHT MIN TEMP(1900-0800 LST):49 HOURLY INCREMENTAL PRECIPITATION VALUES (IN):0.01T     0.01T     0.02T    T    T    T     0.01T     0.01 0.00T     0.01T     0.22 0.11 0.03 0.04 0.05 0.04 0.05 0.09","SOD  ","6",,,,,,,,,,,,,,,,,,,,,,,,,"0752","1620",,"2007-05-17"
"72793024233","2017-12-19T00:12:00","FM-16","7",,,,,,,,,,,,,,,,,,,,,,,,,,,,,,,,,,,,,,"29.94","40","41","0.02","-RA:02 BR:1 |RA |",,,"96",,"FEW:02 3 OVC:08 37","29.47","4.00","41","020",,"7",,,,,,,,,,,,,,,,,,,,,,,,,,,,,,,,,,,,,"MET11012/19/17 00:12:02 SPECI KSEA 190812Z 02006KT 4SM -RA BR FEW003 OVC037 05/04 A2994 RMK AO2 P0002 T00500044 (LC)","FM-16","7",,,,,,,,,,,,,,,,,,,,,,,,,,,,"2007-05-17"
"72793024233","2017-12-19T00:53:00","FM-15","7",,,,,,,,,,,,,,,,,,,,,,,,,,,,,,,,,,,,,,"29.90","40","41","0.05","-RA:02 BR:1 |RA |","+0.11","8","96","29.93","SCT:04 3 OVC:08 31","29.44","4.00","41","050",,"5",,,,,,,,,,,,,,,,,,,,,,,,,,,,,,,,,,,,,"MET12912/19/17 00:53:02 METAR KSEA 190853Z 05004KT 4SM -RA BR SCT003 OVC031 05/04 A2990 RMK AO2 SLP134 P0006 60020 T00500044 58038 (LC)","FM-15","7",,,,,,,,,,,,,,,,,,,,,,,,,,,,"2007-05-17"
"72793024233","2017-12-19T01:05:00","FM-16","7",,,,,,,,,,,,,,,,,,,,,,,,,,,,,,,,,,,,,,"29.90","40","41","0.01","-RA:02 BR:1 |RA |",,,"96",,"FEW:02 4 SCT:04 25 OVC:08 29","29.44","5.00","41","040",,"3",,,,,,,,,,,,,,,,,,,,,,,,,,,,,,,,,,,,,"MET11712/19/17 01:05:02 SPECI KSEA 190905Z 04003KT 5SM -RA BR FEW004 SCT025 OVC029 05/04 A2990 RMK AO2 P0001 T00500044 (LC)","FM-16","7",,,,,,,,,,,,,,,,,,,,,,,,,,,,"2007-05-17"
"72793024233","2017-12-19T01:53:00","FM-15","7",,,,,,,,,,,,,,,,,,,,,,,,,,,,,,,,,,,,,,"29.85","40","41","0.05","-RA:02 BR:1 |RA |",,,"96","29.88","FEW:02 3 SCT:04 11 OVC:08 23","29.39","5.00","41","000",,"0",,,,,,,,,,,,,,,,,,,,,,,,,,,,,,,,,,,,,"MET12412/19/17 01:53:02 METAR KSEA 190953Z 00000KT 5SM -RA BR FEW003 SCT011 OVC023 05/04 A2985 RMK AO2 SLP117 P0004 T00500044 (LC)","FM-15","7",,,,,,,,,,,,,,,,,,,,,,,,,,,,"2007-05-17"
"72793024233","2017-12-19T01:55:00","FM-16","6",,,,,,,,,,,,,,,,,,,,,,,,,,,,,,,,,,,,,,"29.85","40","41",,"-RA:02 BR:1 |RA |",,,"96",,"FEW:02 3 BKN:07 11 OVC:08 23","29.39","4.00","41","000",,"0",,,,,,,,,,,,,,,,,,,,,,,,,,,,,,,,,,,,,"MET11712/19/17 01:55:02 SPECI KSEA 190955Z 00000KT 4SM -RA BR FEW003 BKN011 OVC023 05/04 A2985 RMK AO2 P0000 T00500044 (LC)","FM-16","6",,,,,,,,,,,,,,,,,,,,,,,,,,,,"2007-05-17"
"72793024233","2017-12-19T01:57:00","FM-16","7",,,,,,,,,,,,,,,,,,,,,,,,,,,,,,,,,,,,,,"29.85","40","41","0.01","-RA:02 BR:1 |RA |",,,"96",,"FEW:02 3 BKN:07 11 OVC:08 23","29.39","4.00","41","000",,"0",,,,,,,,,,,,,,,,,,,,,,,,,,,,,,,,,,,,,"MET11712/19/17 01:57:02 SPECI KSEA 190957Z 00000KT 4SM -RA BR FEW003 BKN011 OVC023 05/04 A2985 RMK AO2 P0001 T00500044 (LC)","FM-16","7",,,,,,,,,,,,,,,,,,,,,,,,,,,,"2007-05-17"
"72793024233","2017-12-19T01:58:00","FM-16","7",,,,,,,,,,,,,,,,,,,,,,,,,,,,,,,,,,,,,,"29.85","40","41","0.01","-RA:02 BR:1 |RA |",,,"96",,"FEW:02 3 BKN:07 11 OVC:08 23","29.39","4.00","41","000",,"0",,,,,,,,,,,,,,,,,,,,,,,,,,,,,,,,,,,,,"MET11712/19/17 01:58:02 SPECI KSEA 190958Z 00000KT 4SM -RA BR FEW003 BKN011 OVC023 05/04 A2985 RMK AO2 P0001 T00500044 (LC)","FM-16","7",,,,,,,,,,,,,,,,,,,,,,,,,,,,"2007-05-17"
"72793024233","2017-12-19T02:21:00","FM-16","7",,,,,,,,,,,,,,,,,,,,,,,,,,,,,,,,,,,,,,"29.84","40","41","0.03","-RA:02 BR:1 |RA |",,,"96",,"BKN:07 6 OVC:08 9","29.38","2.00","41","300",,"6",,,,,,,,,,,,,,,,,,,,,,,,,,,,,,,,,,,,,"MET11012/19/17 02:21:02 SPECI KSEA 191021Z 30005KT 2SM -RA BR BKN006 OVC009 05/04 A2984 RMK AO2 P0003 T00500044 (LC)","FM-16","7",,,,,,,,,,,,,,,,,,,,,,,,,,,,"2007-05-17"
"72793024233","2017-12-19T02:53:00","FM-15","7",,,,,,,,,,,,,,,,,,,,,,,,,,,,,,,,,,,,,,"29.82","40","41","0.07","-RA:02 BR:1 |RA |",,,"96","29.84","BKN:07 5 OVC:08 11","29.36","2.00","41","320",,"5",,,,,,,,,,,,,,,,,,,,,,,,,,,,,,,,,,,,,"MET11712/19/17 02:53:02 METAR KSEA 191053Z 32004KT 2SM -RA BR BKN005 OVC011 05/04 A2982 RMK AO2 SLP105 P0007 T00500044 (LC)","FM-15","7",,,,,,,,,,,,,,,,,,,,,,,,,,,,"2007-05-17"
"72793024233","2017-12-19T03:12:00","FM-16","7",,,,,,,,,,,,,,,,,,,,,,,,,,,,,,,,,,,,,,"29.80","40","41","0.03","-RA:02 BR:1 |RA |",,,"96",,"BKN:07 6 OVC:08 17","29.34","1.00","41","000",,"0",,,,,,,,,,,,,,,,,,,,,,,,,,,,,,,,,,,,,"MET12312/19/17 03:12:02 SPECI KSEA 191112Z 00000KT 1SM R16L/P6000FT -RA BR BKN006 OVC017 05/04 A2980 RMK AO2 P0003 T00500044 (LC)","FM-16","7",,,,,,,,,,,,,,,,,,,,,,,,,,,,"2007-05-17"
"72793024233","2017-12-19T03:53:00","FM-15","7",,,,,,,,,,,,,,,,,,,,,,,,,,,,,,,,,,,,,,"29.75","39","41","0.06","-RA:02 BR:1 |RA |","+0.15","8","93","29.78","FEW:02 3 BKN:07 6 OVC:08 17","29.29","1.50","40","050",,"5",,,,,,,,,,,,,,,,,,,,,,,,,,,,,,,,,,,,,"MET16512/19/17 03:53:02 METAR KSEA 191153Z 05004KT 1 1/2SM -RA BR FEW003 BKN006 OVC017 05/04 A2975 RMK AO2 PRESFR SLP083 P0007 60038 70091 T00500039 10056 20050 58050 (LC)","FM-15","7",,,,,,,,,,,,,,,,,,,,,,,,,,,,"2007-05-17"
"72793024233","2017-12-19T04:00:00","FM-12","4",,,,,,,,,,,,,,,,,,,,,,,,,,,,,,,,,,,,,,,"39","41",,"||RA","+0.15","8","93","29.78","2","29.27","1.49","40","050",,"5",,,,,,,,,,,,,,,,,,,,,,,,,,,,,,,,,,,,,"SYN10472793 11124 80504 10050 20039 39912 40083 58050 60101 761// 91153 333 10094 20050 70231 96010 555 91912=","FM-12","4",,,,,,,,,,,,,,,,,,,,,,,,,,,,"2007-05-17"
"72793024233","2017-12-19T04:51:00","FM-16","6",,,,,,,,,,,,,,,,,,,,,,,,,,,,,,,,,,,,,,"29.72","39","39",,"RA:02 BR:1 |RA |",,,"100",,"SCT:04 2 BKN:07 10 OVC:08 22","29.26","2.00","39","000",,"0",,,,,,,,,,,,,,,,,,,,,,,,,,,,,,,,,,,,,"MET11112/19/17 04:51:02 SPECI KSEA 191251Z 00000KT 2SM RA BR SCT002 BKN010 OVC022 04/04 A2972 RMK AO2 P0009 FIBI (LC)","FM-16","6",,,,,,,,,,,,,,,,,,,,,,,,,,,,"2007-05-17"
"72793024233","2017-12-19T04:53:00","FM-15","7",,,,,,,,,,,,,,,,,,,,,,,,,,,,,,,,,,,,,,"29.72","40","41","0.11","RA:02 BR:1 |RA |",,,"96","29.74","SCT:04 2 BKN:07 10 OVC:08 22","29.26","1.50","41","000",,"0",,,,,,,,,,,,,,,,,,,,,,,,,,,,,,,,,,,,,"MET12712/19/17 04:53:02 METAR KSEA 191253Z 00000KT 1 1/2SM RA BR SCT002 BKN010 OVC022 05/04 A2972 RMK AO2 SLP071 P0010 T00500044 (LC)","FM-15","7",,,,,,,,,,,,,,,,,,,,,,,,,,,,"2007-05-17"
"72793024233","2017-12-19T05:44:00","FM-16","7",,,,,,,,,,,,,,,,,,,,,,,,,,,,,,,,,,,,,,"29.69","40","42","0.12","-RA:02 BR:1 |RA |",,,"92",,"FEW:02 2 SCT:04 14 OVC:08 40","29.23","3.00","41","120",,"8",,,,,,,,,,,,,,,,,,,,,,,,,,,,,,,,,,,,,"MET11712/19/17 05:44:02 SPECI KSEA 191344Z 12007KT 3SM -RA BR FEW002 SCT014 OVC040 06/04 A2969 RMK AO2 P0012 T00560044 (LC)","FM-16","7",,,,,,,,,,,,,,,,,,,,,,,,,,,,"2007-05-17"
"72793024233","2017-12-19T05:53:00","FM-15","7",,,,,,,,,,,,,,,,,,,,,,,,,,,,,,,,,,,,,,"29.68","41","42","0.15","RA:02 BR:1 |RA |",,,"96","29.70","FEW:02 2 SCT:04 14 OVC:08 40","29.22","3.00","42","120",,"10",,,,,,,,,,,,,,,,,,,,,,,,,,,,,,,,,,,,,"MET12312/19/17 05:53:02 METAR KSEA 191353Z 12009KT 3SM RA BR FEW002 SCT014 OVC040 06/05 A2968 RMK AO2 SLP057 P0015 T00560050 (LC)","FM-15","7",,,,,,,,,,,,,,,,,,,,,,,,,,,,"2007-05-17"
"72793024233","2017-12-19T06:46:00","FM-16","7",,,,,,,,,,,,,,,,,,,,,,,,,,,,,,,,,,,,,,"29.63","42","43","0.12","RA:02 BR:1 |RA |",,,"97",,"SCT:04 4 OVC:08 36","29.17","1.50","43","130",,"10",,,,,,,,,,,,,,,,,,,,,,,,,,,,,,,,,,,,,"MET12312/19/17 06:46:02 SPECI KSEA 191446Z 13009KT 1 1/2SM RA BR SCT004 OVC036 06/06 A2963 RMK AO2 SFC VIS 2 P0012 T00610056 (JC)","FM-16","7",,,,,,,,,,,,,,,,,,,,,,,,,,,,"2007-05-17"
"72793024233","2017-12-19T06:53:00","FM-15","7",,,,,,,,,,,,,,,,,,,,,,,,,,,,,,,,,,,,,,"29.62","42","43","0.15","RA:02 BR:1 |RA |","+0.13","8","97","29.64","SCT:04 3 OVC:08 36","29.16","1.50","43","120",,"16",,,,,,,,,,,,,,,,,,,,,,,,,,,,,,,,,,,,,"MET14912/19/17 06:53:02 METAR KSEA 191453Z 12014KT 1 1/2SM RA BR SCT003 OVC036 06/06 A2962 RMK AO2 SFC VIS 2 PRESFR SLP038 P0014 60039 T00610056 58044 (JC)","FM-15","7",,,,,,,,,,,,,,,,,,,,,,,,,,,,"2007-05-17"
"72793024233","2017-12-19T07:06:00","FM-16","7",,,,,,,,,,,,,,,,,,,,,,,,,,,,,,,,,,,,,,"29.60","43","44","0.03","RA:02 BR:1 |RA |",,,"96",,"FEW:02 3 OVC:08 36","29.14","4.00","44","120",,"20",,,,,,,,,,,,,,,,,,,,,,,,,,,,,,,,,,,,,"MET11612/19/17 07:06:02 SPECI KSEA 191506Z 12017KT 4SM RA BR FEW003 OVC036 07/06 A2960 RMK AO2 PRESFR P0003 T00670061 (JC)","FM-16","7",,,,,,,,,,,,,,,,,,,,,,,,,,,,"2007-05-17"
"72793024233","2017-12-19T07:53:00","FM-15","7",,,,,,,,,,,,,,,,,,,,,,,,,,,,,,,,,,,,,,"29.54","44","45","0.11","-RA:02 BR:1 |RA |",,,"97","29.56","BKN:07 42 OVC:08 60","29.08","6.00","45","130","29","21",,,,,,,,,,,,,,,,,,,,,,,,,,,,,,,,,,,,,"MET14512/19/17 07:53:02 METAR KSEA 191553Z 13018G25KT 6SM -RA BR BKN042 OVC060 07/07 A2954 RMK AO2 PK WND 13029/1511 PRESFR SLP010 P0012 T00720067 (JC)","FM-15","7",,,,,,,,,,,,,,,,,,,,,,,,,,,,"2007-05-17"
"72793024233","2017-12-19T08:53:00","FM-15","7",,,,,,,,,,,,,,,,,,,,,,,,,,,,,,,,,,,,,,"29.49","45","47","0.07","-RA:02 BR:1 |RA |",,,"93","29.51","BKN:07 48 OVC:08 60","29.03","6.00","46","150",,"23",,,,,,,,,,,,,,,,,,,,,,,,,,,,,,,,,,,,,"MET11912/19/17 08:53:02 METAR KSEA 191653Z 15020KT 6SM -RA BR BKN048 OVC060 08/07 A2949 RMK AO2 SLP994 P0007 T00830072 $ (JC)","FM-15","7",,,,,,,,,,,,,,,,,,,,,,,,,,,,"2007-05-17"
"72793024233","2017-12-19T09:53:00","FM-15","7",,,,,,,,,,,,,,,,,,,,,,,,,,,,,,,,,,,,,,"29.47","45","47","0.05","-RA:02 BR:1 |RA |","+0.15","6","93","29.49","BKN:07 49 OVC:08 60","29.01","5.00","46","160","30","21",,,,,,,,,,,,,,,,,,,,,,,,,,,,,,,,,,,,,"MET16412/19/17 09:53:02 METAR KSEA 191753Z 16018G26KT 5SM -RA BR BKN049 OVC060 08/07 A2947 RMK AO2 PK WND 17027/1724 SLP985 P0006 60064 T00830072 10083 20044 56052 $ (JC)","FM-15","7",,,,,,,,,,,,,,,,,,,,,,,,,,,,"2007-05-17"
"72793024233","2017-12-19T10:00:00","FM-12","4",,,,,,,,,,,,,,,,,,,,,,,,,,,,,,,,,,,,,,,"45","47",,"||RA","+0.15","6","93","29.49","41","29.00","4.97","46","160",,"21",,,,,,,,,,,,,,,,,,,,,,,,,,,,,,,,,,,,,"SYN10472793 11658 81618 10083 20072 39819 49985 56052 60161 761// 91753 333 10083 20044 91026 96010 555 91918=","FM-12","4",,,,,,,,,,,,,,,,,,,,,,,,,,,,"2007-05-17"
"72793024233","2017-12-19T10:53:00","FM-15","7",,,,,,,,,,,,,,,,,,,,,,,,,,,,,,,,,,,,,,"29.48","47","50","0.06","-RA:02 BR:1 |RA |",,,"89","29.51","FEW:02 20 BKN:07 35 OVC:08 42","29.02","5.00","48","190","32","21",,,,,,,,,,,,,,,,,,,,,,,,,,,,,,,,,,,,,"MET14512/19/17 10:53:02 METAR KSEA 191853Z 19018G28KT 5SM -RA BR FEW020 BKN035 OVC042 10/08 A2948 RMK AO2 PK WND 15029/1810 SLP992 P0004 T01000083 (JC)","FM-15","7",,,,,,,,,,,,,,,,,,,,,,,,,,,,"2007-05-17"
"72793024233","2017-12-19T11:12:00","FM-16","7",,,,,,,,,,,,,,,,,,,,,,,,,,,,,,,,,,,,,,"29.48","48","50","0.03","-RA:02 BR:1 |RA |",,,"93",,"SCT:04 16 BKN:07 28 OVC:08 50","29.02","5.00","49","200","29","17",,,,,,,,,,,,,,,,,,,,,,,,,,,,,,,,,,,,,"MET13812/19/17 11:12:02 SPECI KSEA 191912Z 20015G25KT 5SM -RA BR SCT016 BKN028 OVC050 10/09 A2948 RMK AO2 PK WND 19030/1901 P0003 T01000089 (JC)","FM-16","7",,,,,,,,,,,,,,,,,,,,,,,,,,,,"2007-05-17"
"72793024233","2017-12-19T11:53:00","FM-15","7",,,,,,,,,,,,,,,,,,,,,,,,,,,,,,,,,,,,,,"29.50","46","48","0.07","-RA:02 BR:1 |RA |",,,"93","29.52","SCT:04 12 BKN:07 18 OVC:08 43","29.04","4.00","47","230","33","21",,,,,,,,,,,,,,,,,,,,,,,,,,,,,,,,,,,,,"MET15212/19/17 11:53:02 METAR KSEA 191953Z 23018G29KT 4SM -RA BR SCT012 BKN018 OVC043 09/08 A2950 RMK AO2 PK WND 20030/1934 PRESRR SLP998 P0008 T00890078 (JC)","FM-15","7",,,,,,,,,,,,,,,,,,,,,,,,,,,,"2007-05-17"
"72793024233","2017-12-19T12:16:00","FM-16","7",,,,,,,,,,,,,,,,,,,,,,,,,,,,,,,,,,,,,,"29.51","43","46","0.01","-RA:02 |RA |",,,"89",,"FEW:02 9 SCT:04 17 OVC:08 45","29.05","10.00","45","220","29","18",,,,,,,,,,,,,,,,,,,,,,,,,,,,,,,,,,,,,"MET13612/19/17 12:16:02 SPECI KSEA 192016Z 22016G25KT 10SM -RA FEW009 SCT017 OVC045 08/06 A2951 RMK AO2 PK WND 23027/2006 P0001 T00780061 (JC)","FM-16","7",,,,,,,,,,,,,,,,,,,,,,,,,,,,"2007-05-17"
"72793024233","2017-12-19T12:53:00","FM-15","7",,,,,,,,,,,,,,,,,,,,,,,,,,,,,,,,,,,,,,"29.51","41","44","T",,"-0.04","1","89","29.53","FEW:02 9 BKN:07 60 BKN:07 85","29.05","10.00","43","220","36","25",,,,,,,,,,,,,,,,,,,,,,,,,,,,,,,,,,,,,"MET15712/19/17 12:53:02 METAR KSEA 192053Z 22022G31KT 10SM FEW009 BKN060 BKN085 07/05 A2951 RMK AO2 PK WND 22031/2050 RAE25 SLP001 P0001 60013 T00670050 51015 (JC)","FM-15","7",,,,,,,,,,,,,,,,,,,,,,,,,,,,"2007-05-17"
"72793024233","2017-12-19T13:53:00","FM-15","7",,,,,,,,,,,,,,,,,,,,,,,,,,,,,,,,,,,,,,"29.52","38","43","0.00",,,,"82","29.54","FEW:02 8 SCT:04 19 SCT:04 60","29.06","10.00","41","210","32","21",,,,,,,,,,,,,,,,,,,,,,,,,,,,,,,,,,,,,"MET13312/19/17 13:53:02 METAR KSEA 192153Z 21018G28KT 10SM FEW008 SCT019 SCT060 06/03 A2952 RMK AO2 PK WND 20032/2138 SLP004 T00610033 (RS)","FM-15","7",,,,,,,,,,,,,,,,,,,,,,,,,,,,"2007-05-17"
"72793024233","2017-12-19T14:36:00","FM-16","7",,,,,,,,,,,,,,,,,,,,,,,,,,,,,,,,,,,,,,"29.54","38","43",,,,,"82",,"BKN:07 19 BKN:07 120","29.08","10.00","41","200","36","21",,,,,,,,,,,,,,,,,,,,,,,,,,,,,,,,,,,,,"MET11912/19/17 14:36:02 SPECI KSEA 192236Z 20018G31KT 10SM BKN019 BKN120 06/03 A2954 RMK AO2 PK WND 21033/2200 T00610033 (RS)","FM-16","7",,,,,,,,,,,,,,,,,,,,,,,,,,,,"2007-05-17"
"72793024233","2017-12-19T14:53:00","FM-15","7",,,,,,,,,,,,,,,,,,,,,,,,,,,,,,,,,,,,,,"29.54","38","43","0.00",,,,"82","29.56","BKN:07 19 BKN:07 120","29.08","10.00","41","190","31","23",,,,,,,,,,,,,,,,,,,,,,,,,,,,,,,,,,,,,"MET12612/19/17 14:53:02 METAR KSEA 192253Z 19020G27KT 10SM BKN019 BKN120 06/03 A2954 RMK AO2 PK WND 21033/2200 SLP011 T00610033 (RS)","FM-15","7",,,,,,,,,,,,,,,,,,,,,,,,,,,,"2007-05-17"
"72793024233","2017-12-19T15:53:00","FM-15","7",,,,,,,,,,,,,,,,,,,,,,,,,,,,,,,,,,,,,,"29.58","39","43","0.00",,"-0.07","3","86","29.60","BKN:07 19 BKN:07 120","29.12","10.00","41","190","30","17",,,,,,,,,,,,,,,,,,,,,,,,,,,,,,,,,,,,,"MET15012/19/17 15:53:02 METAR KSEA 192353Z 19015G26KT 10SM BKN019 BKN120 06/04 A2958 RMK AO2 PK WND 20029/2308 SLP025 60013 T00610039 10100 20061 53024 (RS)","FM-15","7",,,,,,,,,,,,,,,,,,,,,,,,,,,,"2007-05-17"
"72793024233","2017-12-19T16:00:00","FM-12","4",,,,,,,,,,,,,,,,,,,,,,,,,,,,,,,,,,,,,,,"39","43",,,"-0.07","3","86","29.60","15","29.10","9.94","41","190",,"17",,,,,,,,,,,,,,,,,,,,,,,,,,,,,,,,,,,,,"SYN09272793 12466 61915 10061 20039 39856 40025 53024 60031 92353 333 10100 20050 91026 555 92000=","FM-12","4",,,,,,,,,,,,,,,,,,,,,,,,,,,,"2007-05-17"
"72793024233","2017-12-19T16:53:00","FM-15","7",,,,,,,,,,,,,,,,,,,,,,,,,,,,,,,,,,,,,,"29.59","38","43","0.00",,,,"82","29.62","BKN:07 16","29.13","10.00","41","180","24","15",,,,,,,,,,,,,,,,,,,,,,,,,,,,,,,,,,,,,"MET09612/19/17 16:53:01 METAR KSEA 200053Z 18013G21KT 10SM BKN016 06/03 A2959 RMK AO2 SLP029 T00610033","FM-15","7",,,,,,,,,,,,,,,,,,,,,,,,,,,,"2007-05-17"
"72793024233","2017-12-19T17:53:00","FM-15","7",,,,,,,,,,,,,,,,,,,,,,,,,,,,,,,,,,,,,,"29.61","38","42","0.00",,,,"85","29.63","BKN:07 17","29.15","10.00","40","180",,"9",,,,,,,,,,,,,,,,,,,,,,,,,,,,,,,,,,,,,"MET09312/19/17 17:53:01 METAR KSEA 200153Z 18008KT 10SM BKN017 06/03 A2961 RMK AO2 SLP035 T00560033","FM-15","7",,,,,,,,,,,,,,,,,,,,,,,,,,,,"2007-05-17"
"72793024233","2017-12-19T18:15:00","FM-16","7",,,,,,,,,,,,,,,,,,,,,,,,,,,,,,,,,,,,,,"29.62","39","42","T","-RA:02 |RA |",,,"89",,"BKN:07 13 OVC:08 18","29.16","10.00","41","190",,"11",,,,,,,,,,,,,,,,,,,,,,,,,,,,,,,,,,,,,"MET10912/19/17 18:15:01 SPECI KSEA 200215Z 19010KT 10SM -RA BKN013 OVC018 06/04 A2962 RMK AO2 RAB12 P0000 T00560039","FM-16","7",,,,,,,,,,,,,,,,,,,,,,,,,,,,"2007-05-17"
"72793024233","2017-12-19T18:49:00","FM-16","7",,,,,,,,,,,,,,,,,,,,,,,,,,,,,,,,,,,,,,"29.62","37","43","T","-RA:02 |RA |",,,"81",,"OVC:08 15","29.16","10.00","40","200","22","17",,,,,,,,,,,,,,,,,,,,,,,,,,,,,,,,,,,,,"MET09512/19/17 18:49:01 SPECI KSEA 200249Z 20015G19KT 10SM -RA OVC015 06/03 A2962 RMK AO2 RAB12 P0000","FM-16","7",,,,,,,,,,,,,,,,,,,,,,,,,,,,"2007-05-17"
"72793024233","2017-12-19T18:53:00","FM-15","7",,,,,,,,,,,,,,,,,,,,,,,,,,,,,,,,,,,,,,"29.63","38","42","T","-RA:02 |RA |","-0.03","1","85","29.65","OVC:08 15","29.17","10.00","40","200","22","15",,,,,,,,,,,,,,,,,,,,,,,,,,,,,,,,,,,,,"MET12412/19/17 18:53:02 METAR KSEA 200253Z 20013G19KT 10SM -RA OVC015 06/03 A2963 RMK AO2 RAB12 SLP040 P0000 60000 T00560033 51010","FM-15","7",,,,,,,,,,,,,,,,,,,,,,,,,,,,"2007-05-17"
"72793024233","2017-12-19T19:53:00","FM-15","7",,,,,,,,,,,,,,,,,,,,,,,,,,,,,,,,,,,,,,"29.64","37","41","T",,,,"86","29.66","BKN:07 15","29.18","10.00","39","190",,"16",,,,,,,,,,,,,,,,,,,,,,,,,,,,,,,,,,,,,"MET10512/19/17 19:53:02 METAR KSEA 200353Z 19014KT 10SM BKN015 05/03 A2964 RMK AO2 RAE48 SLP045 P0000 T00500028","FM-15","7",,,,,,,,,,,,,,,,,,,,,,,,,,,,"2007-05-17"
"72793024233","2017-12-19T20:53:00","FM-15","7",,,,,,,,,,,,,,,,,,,,,,,,,,,,,,,,,,,,,,"29.67","37","41","0.00",,,,"86","29.69","BKN:07 19","29.21","10.00","39","190","23","13",,,,,,,,,,,,,,,,,,,,,,,,,,,,,,,,,,,,,"MET09612/19/17 20:53:02 METAR KSEA 200453Z 19011G20KT 10SM BKN019 05/03 A2967 RMK AO2 SLP055 T00500028","FM-15","7",,,,,,,,,,,,,,,,,,,,,,,,,,,,"2007-05-17"
"72793024233","2017-12-19T21:53:00","FM-15","7",,,,,,,,,,,,,,,,,,,,,,,,,,,,,,,,,,,,,,"29.69","36","40","0.00",,"-0.06","3","86","29.71","BKN:07 18","29.23","10.00","38","200",,"20",,,,,,,,,,,,,,,,,,,,,,,,,,,,,,,,,,,,,"MET11712/19/17 21:53:02 METAR KSEA 200553Z 20017KT 10SM BKN018 04/02 A2969 RMK AO2 SLP061 60000 T00440022 10061 20044 53021","FM-15","7",,,,,,,,,,,,,,,,,,,,,,,,,,,,"2007-05-17"
"72793024233","2017-12-19T22:00:00","FM-12","4",,,,,,,,,,,,,,,,,,,,,,,,,,,,,,,,,,,,,,,"36","40",,,"-0.06","3","86","29.71","15","29.21","9.94","38","200",,"20",,,,,,,,,,,,,,,,,,,,,,,,,,,,,,,,,,,,,"SYN08672793 12466 62017 10044 20022 39892 40061 53021 69901 90553 333 10061 20044 555 92006=","FM-12","4",,,,,,,,,,,,,,,,,,,,,,,,,,,,"2007-05-17"
"72793024233","2017-12-19T22:53:00","FM-15","7",,,,,,,,,,,,,,,,,,,,,,,,,,,,,,,,,,,,,,"29.72","36","40","0.00",,,,"86","29.75","BKN:07 15 OVC:08 80","29.26","10.00","38","200",,"14",,,,,,,,,,,,,,,,,,,,,,,,,,,,,,,,,,,,,"MET10012/19/17 22:53:02 METAR KSEA 200653Z 20012KT 10SM BKN015 OVC080 04/02 A2972 RMK AO2 SLP073 T00440022","FM-15","7",,,,,,,,,,,,,,,,,,,,,,,,,,,,"2007-05-17"
"72793024233","2017-12-19T23:53:00","FM-15","7",,,,,,,,,,,,,,,,,,,,,,,,,,,,,,,,,,,,,,"29.76","36","40","0.00",,,,"86","29.78","OVC:08 15","29.30","10.00","38","210",,"11",,,,,,,,,,,,,,,,,,,,,,,,,,,,,,,,,,,,,"MET10312/19/17 23:53:02 METAR KSEA 200753Z 21010KT 10SM OVC015 04/02 A2976 RMK AO2 SLP085 T00440022 401000044","FM-15","7",,,,,,,,,,,,,,,,,,,,,,,,,,,,"2007-05-17"
"72793024233","2017-12-19T23:59:00","SOD  ","6",,,,,,,,,,,,,,,"40","45","90","29.66","29.21","42","14.4","0","4.8","20","50","40","210","38","1.00","0","0.0","210","31","RA BR",,,,,,,,,,,,,,,,,,,,,,,,,,,,,,,,,,,,,,,,,,,,,,,,,,,,,,,,"SOD77524 HR PRECIPITATION (IN): 1.00 WEATHER(CODE):1  24 HR MAX TEMP (F):50 24 HR MAX TEMP TIME (LST):1120 24 HR MIN TEMP (F):40 24 HR MIN TEMP TIME (LST):2359 AVERAGE STATION PRESSURE(D):29.206 MINIMUM SEA LEVEL PRESSURE:29.48 TIME OF OCCURRENCE:1022 PEAK WIND SPEED (MPH):38  PEAK WIND DIR (DEG):210 PEAK WIND TIME (LST):1400  FASTEST 2MIN SPEED (MPH):31 FASTEST 2MIN DIR (DEG):210 FASTEST 2MIN TIME (LST):1400 AVERAGE WIND SPEED (MPH):14.4 24 HR AVG TEMP (F):45 DEPART FROM NORMAL:   5 HEATING DEGREE DAYS: 20 COOLING DEGREE DAYS:  0 LATEST DAY MAX TEMP (0700-1900 LST): 50 LATEST NIGHT MIN TEMP(1900-0800 LST):40 HOURLY INCREMENTAL PRECIPITATION VALUES (IN):0.05 0.05 0.07 0.06 0.11 0.15 0.15 0.11 0.07 0.05 0.06 0.07T     0.00 0.00 0.00 0.00 0.00T    T     0.00 0.00 0.00 0.00","SOD  ","6",,,,,,,,,,,,,,,,,,,,,,,,,"0753","1620",,"2007-05-17"
"72793024233","2017-12-20T00:03:00","FM-16","7",,,,,,,,,,,,,,,,,,,,,,,,,,,,,,,,,,,,,,"29.76","36","40",,,,,"86",,"BKN:07 13 OVC:08 18","29.30","10.00","38","210",,"11",,,,,,,,,,,,,,,,,,,,,,,,,,,,,,,,,,,,,"MET09812/20/17 00:03:02 SPECI KSEA 200803Z 21010KT 10SM BKN013 OVC018 04/02 A2976 RMK AO2 T00440022 (TL)","FM-16","7",,,,,,,,,,,,,,,,,,,,,,,,,,,,"2007-05-17"
"72793024233","2017-12-20T00:53:00","FM-15","7",,,,,,,,,,,,,,,,,,,,,,,,,,,,,,,,,,,,,,"29.79","37","40","0.02","-RA:02 |RA |","-0.10","1","89","29.81","BKN:07 14 OVC:08 20","29.33","7.00","39","210",,"11",,,,,,,,,,,,,,,,,,,,,,,,,,,,,,,,,,,,,"MET13212/20/17 00:53:02 METAR KSEA 200853Z 21010KT 7SM -RA BKN014 OVC020 04/03 A2979 RMK AO2 RAB21 SLP095 P0002 60002 T00440028 51034 (TL)","FM-15","7",,,,,,,,,,,,,,,,,,,,,,,,,,,,"2007-05-17"
"72793024233","2017-12-20T01:31:00","FM-16","7",,,,,,,,,,,,,,,,,,,,,,,,,,,,,,,,,,,,,,"29.81","38","39","0.03","-RA:02 |RA |",,,"96",,"BKN:07 7 OVC:08 12","29.35","7.00","39","230",,"6",,,,,,,,,,,,,,,,,,,,,,,,,,,,,,,,,,,,,"MET10712/20/17 01:31:02 SPECI KSEA 200931Z 23005KT 7SM -RA BKN007 OVC012 04/03 A2981 RMK AO2 P0003 T00390033 (TL)","FM-16","7",,,,,,,,,,,,,,,,,,,,,,,,,,,,"2007-05-17"
"72793024233","2017-12-20T01:53:00","FM-15","7",,,,,,,,,,,,,,,,,,,,,,,,,,,,,,,,,,,,,,"29.82","38","39","0.06","-RA:02 |RA |",,,"96","29.85","BKN:07 7 OVC:08 12","29.36","9.00","39","250",,"7",,,,,,,,,,,,,,,,,,,,,,,,,,,,,,,,,,,,,"MET12612/20/17 01:53:02 METAR KSEA 200953Z 25006KT 9SM -RA BKN007 OVC012 04/03 A2982 RMK AO2 CIG 005V009 SLP108 P0006 T00390033 (TL)","FM-15","7",,,,,,,,,,,,,,,,,,,,,,,,,,,,"2007-05-17"
"72793024233","2017-12-20T02:06:00","FM-16","7",,,,,,,,,,,,,,,,,,,,,,,,,,,,,,,,,,,,,,"29.83","38","39","T","-RA:02 |RA |",,,"96",,"SCT:04 7 OVC:08 13","29.36","10.00","39","260",,"5",,,,,,,,,,,,,,,,,,,,,,,,,,,,,,,,,,,,,"MET10812/20/17 02:06:02 SPECI KSEA 201006Z 26004KT 10SM -RA SCT007 OVC013 04/03 A2983 RMK AO2 P0000 T00390033 (TL)","FM-16","7",,,,,,,,,,,,,,,,,,,,,,,,,,,,"2007-05-17"
"72793024233","2017-12-20T02:53:00","FM-15","7",,,,,,,,,,,,,,,,,,,,,,,,,,,,,,,,,,,,,,"29.86","38","39","0.04","-RA:02 BR:1 |RA |",,,"96","29.89","FEW:02 4 BKN:07 10 OVC:08 15","29.39","5.00","39","300",,"3",,,,,,,,,,,,,,,,,,,,,,,,,,,,,,,,,,,,,"MET12412/20/17 02:53:02 METAR KSEA 201053Z 30003KT 5SM -RA BR FEW004 BKN010 OVC015 04/03 A2986 RMK AO2 SLP121 P0003 T00390033 (TL)","FM-15","7",,,,,,,,,,,,,,,,,,,,,,,,,,,,"2007-05-17"
"72793024233","2017-12-20T03:12:00","FM-16","7",,,,,,,,,,,,,,,,,,,,,,,,,,,,,,,,,,,,,,"29.87","38","39","0.01","BR:1 ||",,,"96",,"BKN:07 7 BKN:07 10 OVC:08 17","29.41","5.00","39","000",,"0",,,,,,,,,,,,,,,,,,,,,,,,,,,,,,,,,,,,,"MET11912/20/17 03:12:02 SPECI KSEA 201112Z 00000KT 5SM BR BKN007 BKN010 OVC017 04/03 A2987 RMK AO2 RAE12 P0001 T00390033 (TL)","FM-16","7",,,,,,,,,,,,,,,,,,,,,,,,,,,,"2007-05-17"
"72793024233","2017-12-20T03:53:00","FM-15","7",,,,,,,,,,,,,,,,,,,,,,,,,,,,,,,,,,,,,,"29.90","37","38","0.01",,"-0.11","3","97","29.93","BKN:07 7 OVC:08 14","29.44","10.00","38","360",,"6",,,,,,,,,,,,,,,,,,,,,,,,,,,,,,,,,,,,,"MET15912/20/17 03:53:02 METAR KSEA 201153Z 36005KT 10SM BKN007 OVC014 03/03 A2990 RMK AO2 RAE12 CIG 005V010 SLP134 P0002 60013 70090 T00330028 10044 20033 53037 (TL)","FM-15","7",,,,,,,,,,,,,,,,,,,,,,,,,,,,"2007-05-17"
"72793024233","2017-12-20T04:00:00","FM-12","4",,,,,,,,,,,,,,,,,,,,,,,,,,,,,,,,,,,,,,,"37","38",,,"-0.11","3","97","29.93","8","29.42","9.94","38","360",,"6",,,,,,,,,,,,,,,,,,,,,,,,,,,,,,,,,,,,,"SYN09272793 12366 83605 10033 20028 39963 40134 53037 60031 91153 333 10100 20033 70229 555 92012=","FM-12","4",,,,,,,,,,,,,,,,,,,,,,,,,,,,"2007-05-17"
"72793024233","2017-12-20T04:27:00","FM-16","7",,,,,,,,,,,,,,,,,,,,,,,,,,,,,,,,,,,,,,"29.93","35","38",,,,,"89",,"FEW:02 9 FEW:02 18 OVC:08 30","29.47","10.00","37","350",,"11",,,,,,,,,,,,,,,,,,,,,,,,,,,,,,,,,,,,,"MET10512/20/17 04:27:02 SPECI KSEA 201227Z 35010KT 10SM FEW009 FEW018 OVC030 03/02 A2993 RMK AO2 T00330017 (TL)","FM-16","7",,,,,,,,,,,,,,,,,,,,,,,,,,,,"2007-05-17"
"72793024233","2017-12-20T04:53:00","FM-15","7",,,,,,,,,,,,,,,,,,,,,,,,,,,,,,,,,,,,,,"29.96","35","38","0.00",,,,"89","29.98","FEW:02 16 FEW:02 24 OVC:08 35","29.49","10.00","37","340",,"11",,,,,,,,,,,,,,,,,,,,,,,,,,,,,,,,,,,,,"MET11212/20/17 04:53:02 METAR KSEA 201253Z 34010KT 10SM FEW016 FEW024 OVC035 03/02 A2996 RMK AO2 SLP154 T00330017 (TL)","FM-15","7",,,,,,,,,,,,,,,,,,,,,,,,,,,,"2007-05-17"
"72793024233","2017-12-20T05:12:00","FM-16","7",,,,,,,,,,,,,,,,,,,,,,,,,,,,,,,,,,,,,,"29.97","36","38","T","-RA:02 |RA |",,,"93",,"FEW:02 16 BKN:07 27 OVC:08 35","29.50","9.00","37","360",,"10",,,,,,,,,,,,,,,,,,,,,,,,,,,,,,,,,,,,,"MET12012/20/17 05:12:02 SPECI KSEA 201312Z 36009KT 9SM -RA FEW016 BKN027 OVC035 03/02 A2997 RMK AO2 RAB08 P0000 T00330022 (TL)","FM-16","7",,,,,,,,,,,,,,,,,,,,,,,,,,,,"2007-05-17"
"72793024233","2017-12-20T05:36:00","FM-16","7",,,,,,,,,,,,,,,,,,,,,,,,,,,,,,,,,,,,,,"29.99","35","39","T",,,,"86",,"FEW:02 18 BKN:07 38 OVC:08 47","29.52","10.00","37","340",,"13",,,,,,,,,,,,,,,,,,,,,,,,,,,,,,,,,,,,,"MET12012/20/17 05:36:02 SPECI KSEA 201336Z 34011KT 10SM FEW018 BKN038 OVC047 04/02 A2999 RMK AO2 RAB08E18 P0000 T00390017 (TL)","FM-16","7",,,,,,,,,,,,,,,,,,,,,,,,,,,,"2007-05-17"
"72793024233","2017-12-20T05:53:00","FM-15","7",,,,,,,,,,,,,,,,,,,,,,,,,,,,,,,,,,,,,,"30.00","35","39","T",,,,"86","30.02","FEW:02 13 BKN:07 40","29.53","10.00","37","340","24","18",,,,,,,,,,,,,,,,,,,,,,,,,,,,,,,,,,,,,"MET12312/20/17 05:53:02 METAR KSEA 201353Z 34016G21KT 10SM FEW013 BKN040 04/02 A3000 RMK AO2 RAB08E18 SLP167 P0000 T00390017 (JC)","FM-15","7",,,,,,,,,,,,,,,,,,,,,,,,,,,,"2007-05-17"
"72793024233","2017-12-20T06:53:00","FM-15","7",,,,,,,,,,,,,,,,,,,,,,,,,,,,,,,,,,,,,,"30.02","34","38","0.00",,"-0.12","1","86","30.05","FEW:02 18 SCT:04 43 SCT:04 55","29.55","10.00","36","330",,"9",,,,,,,,,,,,,,,,,,,,,,,,,,,,,,,,,,,,,"MET12412/20/17 06:53:02 METAR KSEA 201453Z 33008KT 10SM FEW018 SCT043 SCT055 03/01 A3002 RMK AO2 SLP176 60000 T00330011 51041 (JC)","FM-15","7",,,,,,,,,,,,,,,,,,,,,,,,,,,,"2007-05-17"
"72793024233","2017-12-20T07:44:00","FM-16","7",,,,,,,,,,,,,,,,,,,,,,,,,,,,,,,,,,,,,,"30.06","34","38",,,,,"86",,"FEW:02 18 BKN:07 28 BKN:07 34","29.59","10.00","36","350",,"11",,,,,,,,,,,,,,,,,,,,,,,,,,,,,,,,,,,,,"MET10512/20/17 07:44:02 SPECI KSEA 201544Z 35010KT 10SM FEW018 BKN028 BKN034 03/01 A3006 RMK AO2 T00330011 (JC)","FM-16","7",,,,,,,,,,,,,,,,,,,,,,,,,,,,"2007-05-17"
"72793024233","2017-12-20T07:53:00","FM-15","7",,,,,,,,,,,,,,,,,,,,,,,,,,,,,,,,,,,,,,"30.06","34","39","0.00",,,,"82","30.09","BKN:07 19 BKN:07 28","29.59","10.00","37","350",,"15",,,,,,,,,,,,,,,,,,,,,,,,,,,,,,,,,,,,,"MET10512/20/17 07:53:02 METAR KSEA 201553Z 35013KT 10SM BKN019 BKN028 04/01 A3006 RMK AO2 SLP190 T00390011 (JC)","FM-15","7",,,,,,,,,,,,,,,,,,,,,,,,,,,,"2007-05-17"
"72793024233","2017-12-20T08:46:00","FM-16","7",,,,,,,,,,,,,,,,,,,,,,,,,,,,,,,,,,,,,,"30.11","32","38",,,,,"79",,"SCT:04 20 SCT:04 29","29.64","10.00","36","350",,"13",,,,,,,,,,,,,,,,,,,,,,,,,,,,,,,,,,,,,"MET09812/20/17 08:46:02 SPECI KSEA 201646Z 35011KT 10SM SCT020 SCT029 03/00 A3011 RMK AO2 T00330000 (JC)","FM-16","7",,,,,,,,,,,,,,,,,,,,,,,,,,,,"2007-05-17"
"72793024233","2017-12-20T08:53:00","FM-15","7",,,,,,,,,,,,,,,,,,,,,,,,,,,,,,,,,,,,,,"30.12","32","39","0.00",,,,"76","30.14","FEW:02 20 SCT:04 29","29.65","10.00","36","340","23","15",,,,,,,,,,,,,,,,,,,,,,,,,,,,,,,,,,,,,"MET10812/20/17 08:53:02 METAR KSEA 201653Z 34013G20KT 10SM FEW020 SCT029 04/00 A3012 RMK AO2 SLP208 T00390000 (JC)","FM-15","7",,,,,,,,,,,,,,,,,,,,,,,,,,,,"2007-05-17"
"72793024233","2017-12-20T09:53:00","FM-15","7",,,,,,,,,,,,,,,,,,,,,,,,,,,,,,,,,,,,,,"30.15","31","41","0.00",,"-0.13","1","67","30.18","FEW:02 20 SCT:04 32","29.68","10.00","37","340",,"13",,,,,,,,,,,,,,,,,,,,,,,,,,,,,,,,,,,,,"MET13012/20/17 09:53:02 METAR KSEA 201753Z 34011KT 10SM FEW020 SCT032 05/M01 A3015 RMK AO2 SLP220 60000 T00501006 10050 20033 51044 (JC)","FM-15","7",,,,,,,,,,,,,,,,,,,,,,,,,,,,"2007-05-17"
"72793024233","2017-12-20T10:00:00","FM-12","4",,,,,,,,,,,,,,,,,,,,,,,,,,,,,,,,,,,,,,,"31","41",,,"-0.13","1","67","30.18","26","29.67","9.94","37","340",,"13",,,,,,,,,,,,,,,,,,,,,,,,,,,,,,,,,,,,,"SYN08672793 12566 43411 10050 21006 30046 40220 51044 69901 91753 333 10050 20033 555 92018=","FM-12","4",,,,,,,,,,,,,,,,,,,,,,,,,,,,"2007-05-17"
"72793024233","2017-12-20T10:53:00","FM-15","7",,,,,,,,,,,,,,,,,,,,,,,,,,,,,,,,,,,,,,"30.19","30","42","0.00",,,,"62","30.22","FEW:02 22 SCT:04 36","29.72","10.00","37","340","20","13",,,,,,,,,,,,,,,,,,,,,,,,,,,,,,,,,,,,,"MET10912/20/17 10:53:02 METAR KSEA 201853Z 34011G17KT 10SM FEW022 SCT036 06/M01 A3019 RMK AO2 SLP233 T00561011 (JC)","FM-15","7",,,,,,,,,,,,,,,,,,,,,,,,,,,,"2007-05-17"
"72793024233","2017-12-20T11:53:00","FM-15","7",,,,,,,,,,,,,,,,,,,,,,,,,,,,,,,,,,,,,,"30.22","28","43","0.00",,,,"56","30.24","FEW:02 25 SCT:04 60","29.75","10.00","37","350","26","16",,,,,,,,,,,,,,,,,,,,,,,,,,,,,,,,,,,,,"MET10912/20/17 11:53:02 METAR KSEA 201953Z 35014G23KT 10SM FEW025 SCT060 06/M02 A3022 RMK AO2 SLP240 T00611022 (JC)","FM-15","7",,,,,,,,,,,,,,,,,,,,,,,,,,,,"2007-05-17"
"72793024233","2017-12-20T12:53:00","FM-15","7",,,,,,,,,,,,,,,,,,,,,,,,,,,,,,,,,,,,,,"30.24","27","43","0.00",,"-0.09","1","53","30.27","FEW:02 25 SCT:04 60","29.77","10.00","37","VRB","22","16",,,,,,,,,,,,,,,,,,,,,,,,,,,,,,,,,,,,,"MET11512/20/17 12:53:02 METAR KSEA 202053Z 34014G19KT 10SM FEW025 SCT060 06/M03 A3024 RMK AO2 SLP249 T00611028 51029 (JC)","FM-15","7",,,,,,,,,,,,,,,,,,,,,,,,,,,,"2007-05-17"
"72793024233","2017-12-20T13:53:00","FM-15","7",,,,,,,,,,,,,,,,,,,,,,,,,,,,,,,,,,,,,,"30.27","26","43","0.00",,,,"51","30.30","FEW:02 25 FEW:02 60","29.80","10.00","36","360",,"20",,,,,,,,,,,,,,,,,,,,,,,,,,,,,,,,,,,,,"MET10612/20/17 13:53:02 METAR KSEA 202153Z 36017KT 10SM FEW025 FEW060 06/M03 A3027 RMK AO2 SLP261 T00611033 (RS)","FM-15","7",,,,,,,,,,,,,,,,,,,,,,,,,,,,"2007-05-17"
"72793024233","2017-12-20T14:53:00","FM-15","7",,,,,,,,,,,,,,,,,,,,,,,,,,,,,,,,,,,,,,"30.30","26","43","0.00",,,,"51","30.33","FEW:02 25 SCT:04 50","29.83","10.00","36","350",,"14",,,,,,,,,,,,,,,,,,,,,,,,,,,,,,,,,,,,,"MET10612/20/17 14:53:02 METAR KSEA 202253Z 35012KT 10SM FEW025 SCT050 06/M03 A3030 RMK AO2 SLP271 T00611033 (RS)","FM-15","7",,,,,,,,,,,,,,,,,,,,,,,,,,,,"2007-05-17"
"72793024233","2017-12-20T15:53:00","FM-15","7",,,,,,,,,,,,,,,,,,,,,,,,,,,,,,,,,,,,,,"30.33","26","41","0.00",,"-0.09","1","55","30.36","FEW:02 40","29.86","10.00","35","350",,"8",,,,,,,,,,,,,,,,,,,,,,,,,,,,,,,,,,,,,"MET11712/20/17 15:53:02 METAR KSEA 202353Z 35007KT 10SM FEW040 05/M03 A3033 RMK AO2 SLP281 T00501033 10067 20044 51030 (RS)","FM-15","7",,,,,,,,,,,,,,,,,,,,,,,,,,,,"2007-05-17"
"72793024233","2017-12-20T16:00:00","FM-12","4",,,,,,,,,,,,,,,,,,,,,,,,,,,,,,,,,,,,,,,"26","41",,,"-0.09","1","55","30.36","41","29.84","9.94","35","350",,"8",,,,,,,,,,,,,,,,,,,,,,,,,,,,,,,,,,,,,"SYN08072793 32666 23507 10050 21033 30106 40281 51030 92353 333 10067 20033 555 92100=","FM-12","4",,,,,,,,,,,,,,,,,,,,,,,,,,,,"2007-05-17"
"72793024233","2017-12-20T16:53:00","FM-15","7",,,,,,,,,,,,,,,,,,,,,,,,,,,,,,,,,,,,,,"30.35","26","38","0.00",,,,"62","30.38","FEW:02 40","29.88","10.00","33","350",,"6",,,,,,,,,,,,,,,,,,,,,,,,,,,,,,,,,,,,,"MET09412/20/17 16:53:01 METAR KSEA 210053Z 35005KT 10SM FEW040 03/M03 A3035 RMK AO2 SLP287 T00331033","FM-15","7",,,,,,,,,,,,,,,,,,,,,,,,,,,,"2007-05-17"
"72793024233","2017-12-20T17:53:00","FM-15","7",,,,,,,,,,,,,,,,,,,,,,,,,,,,,,,,,,,,,,"30.38","26","37","0.00",,,,"65","30.40","FEW:02 40","29.91","10.00","33","360",,"7",,,,,,,,,,,,,,,,,,,,,,,,,,,,,,,,,,,,,"MET09412/20/17 17:53:01 METAR KSEA 210153Z 36006KT 10SM FEW040 03/M03 A3038 RMK AO2 SLP296 T00281033","FM-15","7",,,,,,,,,,,,,,,,,,,,,,,,,,,,"2007-05-17"
"72793024233","2017-12-20T18:53:00","FM-15","7",,,,,,,,,,,,,,,,,,,,,,,,,,,,,,,,,,,,,,"30.39","25","36","0.00",,"-0.06","1","64","30.42","FEW:02 40","29.92","10.00","32","360",,"7",,,,,,,,,,,,,,,,,,,,,,,,,,,,,,,,,,,,,"MET10012/20/17 18:53:02 METAR KSEA 210253Z 36006KT 10SM FEW040 02/M04 A3039 RMK AO2 SLP300 T00221039 51019","FM-15","7",,,,,,,,,,,,,,,,,,,,,,,,,,,,"2007-05-17"
"72793024233","2017-12-20T19:53:00","FM-15","7",,,,,,,,,,,,,,,,,,,,,,,,,,,,,,,,,,,,,,"30.39","26","37","0.00",,,,"65","30.42","CLR:00","29.92","10.00","33","060",,"7",,,,,,,,,,,,,,,,,,,,,,,,,,,,,,,,,,,,,"MET09112/20/17 19:53:02 METAR KSEA 210353Z 06006KT 10SM CLR 03/M03 A3039 RMK AO2 SLP301 T00281033","FM-15","7",,,,,,,,,,,,,,,,,,,,,,,,,,,,"2007-05-17"
"72793024233","2017-12-20T20:53:00","FM-15","7",,,,,,,,,,,,,,,,,,,,,,,,,,,,,,,,,,,,,,"30.40","25","35","0.00",,,,"67","30.43","CLR:00","29.93","10.00","31","000",,"0",,,,,,,,,,,,,,,,,,,,,,,,,,,,,,,,,,,,,"MET09112/20/17 20:53:02 METAR KSEA 210453Z 00000KT 10SM CLR 02/M04 A3040 RMK AO2 SLP305 T00171039","FM-15","7",,,,,,,,,,,,,,,,,,,,,,,,,,,,"2007-05-17"
"72793024233","2017-12-20T21:53:00","FM-15","7",,,,,,,,,,,,,,,,,,,,,,,,,,,,,,,,,,,,,,"30.42","29","35","0.00",,"-0.04","3","78","30.45","CLR:00","29.95","10.00","33","100",,"3",,,,,,,,,,,,,,,,,,,,,,,,,,,,,,,,,,,,,"MET10912/20/17 21:53:02 METAR KSEA 210553Z 10003KT 10SM CLR 02/M02 A3042 RMK AO2 SLP312 T00171017 10050 20006 53012","FM-15","7",,,,,,,,,,,,,,,,,,,,,,,,,,,,"2007-05-17"
"72793024233","2017-12-20T22:00:00","FM-12","4",,,,,,,,,,,,,,,,,,,,,,,,,,,,,,,,,,,,,,,"29","35",,,"-0.04","3","78","30.45",,"29.93","9.94","33","100",,"3",,,,,,,,,,,,,,,,,,,,,,,,,,,,,,,,,,,,,"SYN08072793 32966 01003 10017 21017 30136 40312 53012 90553 333 10050 20006 555 92106=","FM-12","4",,,,,,,,,,,,,,,,,,,,,,,,,,,,"2007-05-17"
"72793024233","2017-12-20T22:53:00","FM-15","7",,,,,,,,,,,,,,,,,,,,,,,,,,,,,,,,,,,,,,"30.44","29","32","0.00",,,,"88","30.46","CLR:00","29.97","10.00","31","150",,"6",,,,,,,,,,,,,,,,,,,,,,,,,,,,,,,,,,,,,"MET09112/20/17 22:53:02 METAR KSEA 210653Z 15005KT 10SM CLR 00/M02 A3044 RMK AO2 SLP316 T00001017","FM-15","7",,,,,,,,,,,,,,,,,,,,,,,,,,,,"2007-05-17"
"72793024233","2017-12-20T23:53:00","FM-15","7",,,,,,,,,,,,,,,,,,,,,,,,,,,,,,,,,,,,,,"30.45","28","32","0.00",,,,"85","30.48","CLR:00","29.98","10.00","31","140",,"6",,,,,,,,,,,,,,,,,,,,,,,,,,,,,,,,,,,,,"MET10112/20/17 23:53:02 METAR KSEA 210753Z 14005KT 10SM CLR 00/M02 A3045 RMK AO2 SLP321 T00001022 400940000","FM-15","7",,,,,,,,,,,,,,,,,,,,,,,,,,,,"2007-05-17"
"72793024233","2017-12-20T23:59:00","SOD  ","6",,,,,,,,,,,,,,,"30","41","73","30.21","29.65","35","9.9","0","0.9","24","49","32","350","28","0.13","0","0.0","360","22","RA BR",,,,,,,,,,,,,,,,,,,,,,,,,,,,,,,,,,,,,,,,,,,,,,,,,,,,,,,,"SOD77524 HR PRECIPITATION (IN): 0.13 WEATHER(CODE):1  24 HR MAX TEMP (F):49 24 HR MAX TEMP TIME (LST):0749 24 HR MIN TEMP (F):32 24 HR MIN TEMP TIME (LST):2356 AVERAGE STATION PRESSURE(D):29.647 MINIMUM SEA LEVEL PRESSURE:29.78 TIME OF OCCURRENCE:0001 PEAK WIND SPEED (MPH):28  PEAK WIND DIR (DEG):350 PEAK WIND TIME (LST):1333  FASTEST 2MIN SPEED (MPH):22 FASTEST 2MIN DIR (DEG):360 FASTEST 2MIN TIME (LST):1352 AVERAGE WIND SPEED (MPH): 9.9 24 HR AVG TEMP (F):41 DEPART FROM NORMAL:   1 HEATING DEGREE DAYS: 24 COOLING DEGREE DAYS:  0 LATEST DAY MAX TEMP (0700-1900 LST): 44 LATEST NIGHT MIN TEMP(1900-0800 LST):38 HOURLY INCREMENTAL PRECIPITATION VALUES (IN):0.02 0.06 0.04 0.01 0.00T     0.00 0.00 0.00 0.00 0.00 0.00 0.00 0.00 0.00 0.00 0.00 0.00 0.00 0.00 0.00 0.00 0.00 0.00","SOD  ","6",,,,,,,,,,,,,,,,,,,,,,,,,"0753","1620",,"2007-05-17"
"72793024233","2017-12-21T00:53:00","FM-15","7",,,,,,,,,,,,,,,,,,,,,,,,,,,,,,,,,,,,,,"30.46","28","33","0.00",,"-0.04","1","82","30.48","CLR:00","29.99","10.00","31","120",,"6",,,,,,,,,,,,,,,,,,,,,,,,,,,,,,,,,,,,,"MET10212/21/17 00:53:02 METAR KSEA 210853Z 12005KT 10SM CLR 01/M02 A3046 RMK AO2 SLP323 T00061022 51012 (TL)","FM-15","7",,,,,,,,,,,,,,,,,,,,,,,,,,,,"2007-05-17"
"72793024233","2017-12-21T01:53:00","FM-15","7",,,,,,,,,,,,,,,,,,,,,,,,,,,,,,,,,,,,,,"30.46","28","31","0.00",,,,"89","30.49","CLR:00","29.99","10.00","30","130",,"8",,,,,,,,,,,,,,,,,,,,,,,,,,,,,,,,,,,,,"MET09712/21/17 01:53:02 METAR KSEA 210953Z 13007KT 10SM CLR M01/M02 A3046 RMK AO2 SLP325 T10061022 (TL)","FM-15","7",,,,,,,,,,,,,,,,,,,,,,,,,,,,"2007-05-17"
"72793024233","2017-12-21T02:53:00","FM-15","7",,,,,,,,,,,,,,,,,,,,,,,,,,,,,,,,,,,,,,"30.47","27","30","0.00",,,,"88","30.49","CLR:00","30.00","10.00","29","130",,"6",,,,,,,,,,,,,,,,,,,,,,,,,,,,,,,,,,,,,"MET09712/21/17 02:53:02 METAR KSEA 211053Z 13005KT 10SM CLR M01/M03 A3047 RMK AO2 SLP326 T10111028 (TL)","FM-15","7",,,,,,,,,,,,,,,,,,,,,,,,,,,,"2007-05-17"
"72793024233","2017-12-21T03:53:00","FM-15","7",,,,,,,,,,,,,,,,,,,,,,,,,,,,,,,,,,,,,,"30.46","26","31","0.00",,"-0.00","0","82","30.49","CLR:00","29.99","10.00","29","140",,"8",,,,,,,,,,,,,,,,,,,,,,,,,,,,,,,,,,,,,"MET11512/21/17 03:53:02 METAR KSEA 211153Z 14007KT 10SM CLR M01/M03 A3046 RMK AO2 SLP325 T10061033 10017 21017 50000 (TL)","FM-15","7",,,,,,,,,,,,,,,,,,,,,,,,,,,,"2007-05-17"
"72793024233","2017-12-21T04:00:00","FM-12","4",,,,,,,,,,,,,,,,,,,,,,,,,,,,,,,,,,,,,,,"26","31",,,"0.00","9","82","30.49",,"29.97","9.94","29","140",,"8",,,,,,,,,,,,,,,,,,,,,,,,,,,,,,,,,,,,,"SYN08072793 32966 01407 11006 21033 30150 40325 50000 91153 333 10094 21017 555 92112=","FM-12","4",,,,,,,,,,,,,,,,,,,,,,,,,,,,"2007-05-17"
"72793024233","2017-12-21T04:53:00","FM-15","7",,,,,,,,,,,,,,,,,,,,,,,,,,,,,,,,,,,,,,"30.45","26","30","0.00",,,,"85","30.48","CLR:00","29.98","10.00","29","140",,"7",,,,,,,,,,,,,,,,,,,,,,,,,,,,,,,,,,,,,"MET09712/21/17 04:53:02 METAR KSEA 211253Z 14006KT 10SM CLR M01/M03 A3045 RMK AO2 SLP323 T10111033 (TL)","FM-15","7",,,,,,,,,,,,,,,,,,,,,,,,,,,,"2007-05-17"
"72793024233","2017-12-21T05:53:00","FM-15","7",,,,,,,,,,,,,,,,,,,,,,,,,,,,,,,,,,,,,,"30.44","26","30","0.00",,,,"85","30.47","BKN:07 230","29.97","10.00","29","140",,"6",,,,,,,,,,,,,,,,,,,,,,,,,,,,,,,,,,,,,"MET10012/21/17 05:53:02 METAR KSEA 211353Z 14005KT 10SM BKN230 M01/M03 A3044 RMK AO2 SLP320 T10111033 (JC)","FM-15","7",,,,,,,,,,,,,,,,,,,,,,,,,,,,"2007-05-17"
"72793024233","2017-12-21T06:53:00","FM-15","7",,,,,,,,,,,,,,,,,,,,,,,,,,,,,,,,,,,,,,"30.44","25","29","0.00",,"+0.02","6","85","30.47","FEW:02 120 SCT:04 230","29.97","10.00","28","150",,"5",,,,,,,,,,,,,,,,,,,,,,,,,,,,,,,,,,,,,"MET11312/21/17 06:53:02 METAR KSEA 211453Z 15004KT 10SM FEW120 SCT230 M02/M04 A3044 RMK AO2 SLP318 T10171039 56006 (JC)","FM-15","7",,,,,,,,,,,,,,,,,,,,,,,,,,,,"2007-05-17"
"72793024233","2017-12-21T07:34:00","FM-16","7",,,,,,,,,,,,,,,,,,,,,,,,,,,,,,,,,,,,,,"30.42","25","30",,,,,"82",,"FEW:02 7 FEW:02 230","29.95","10.00","28","130",,"7",,,,,,,,,,,,,,,,,,,,,,,,,,,,,,,,,,,,,"MET10012/21/17 07:34:02 SPECI KSEA 211534Z 13006KT 10SM FEW007 FEW230 M01/M04 A3042 RMK AO2 T10111039 (JC)","FM-16","7",,,,,,,,,,,,,,,,,,,,,,,,,,,,"2007-05-17"
"72793024233","2017-12-21T07:53:00","FM-15","7",,,,,,,,,,,,,,,,,,,,,,,,,,,,,,,,,,,,,,"30.43","25","30","0.00",,,,"82","30.46","FEW:02 7 FEW:02 230","29.96","10.00","28","150",,"7",,,,,,,,,,,,,,,,,,,,,,,,,,,,,,,,,,,,,"MET10712/21/17 07:53:02 METAR KSEA 211553Z 15006KT 10SM FEW007 FEW230 M01/M04 A3043 RMK AO2 SLP314 T10111039 (JC)","FM-15","7",,,,,,,,,,,,,,,,,,,,,,,,,,,,"2007-05-17"
"72793024233","2017-12-21T08:53:00","FM-15","7",,,,,,,,,,,,,,,,,,,,,,,,,,,,,,,,,,,,,,"30.42","27","32","0.00",,,,"82","30.45","FEW:02 7 SCT:04 180 BKN:07 250","29.95","10.00","30","160",,"6",,,,,,,,,,,,,,,,,,,,,,,,,,,,,,,,,,,,,"MET11312/21/17 08:53:02 METAR KSEA 211653Z 16005KT 10SM FEW007 SCT180 BKN250 00/M03 A3042 RMK AO2 SLP312 T00001028 (JC)","FM-15","7",,,,,,,,,,,,,,,,,,,,,,,,,,,,"2007-05-17"
"72793024233","2017-12-21T09:53:00","FM-15","7",,,,,,,,,,,,,,,,,,,,,,,,,,,,,,,,,,,,,,"30.43","29","33","0.00",,"+0.01","5","85","30.46","FEW:02 7 FEW:02 150 BKN:07 210","29.96","10.00","31","160",,"7",,,,,,,,,,,,,,,,,,,,,,,,,,,,,,,,,,,,,"MET13112/21/17 09:53:02 METAR KSEA 211753Z 16006KT 10SM FEW007 FEW150 BKN210 01/M02 A3043 RMK AO2 SLP314 T00061017 10006 21017 55004 (JC)","FM-15","7",,,,,,,,,,,,,,,,,,,,,,,,,,,,"2007-05-17"
"72793024233","2017-12-21T10:00:00","FM-12","4",,,,,,,,,,,,,,,,,,,,,,,,,,,,,,,,,,,,,,,"29","33",,,"+0.01","5","85","30.46","8","29.94","9.94","31","160",,"7",,,,,,,,,,,,,,,,,,,,,,,,,,,,,,,,,,,,,"SYN08072793 32366 61606 10006 21017 30140 40314 55004 91753 333 10017 21017 555 92118=","FM-12","4",,,,,,,,,,,,,,,,,,,,,,,,,,,,"2007-05-17"
"72793024233","2017-12-21T10:53:00","FM-15","7",,,,,,,,,,,,,,,,,,,,,,,,,,,,,,,,,,,,,,"30.43","29","34","0.00",,,,"82","30.46","FEW:02 9 BKN:07 170 BKN:07 250","29.96","10.00","32","130",,"5",,,,,,,,,,,,,,,,,,,,,,,,,,,,,,,,,,,,,"MET11312/21/17 10:53:02 METAR KSEA 211853Z 13004KT 10SM FEW009 BKN170 BKN250 01/M02 A3043 RMK AO2 SLP315 T00111017 (JC)","FM-15","7",,,,,,,,,,,,,,,,,,,,,,,,,,,,"2007-05-17"
"72793024233","2017-12-21T11:53:00","FM-15","7",,,,,,,,,,,,,,,,,,,,,,,,,,,,,,,,,,,,,,"30.40","29","37","0.00",,,,"73","30.43","FEW:02 9 FEW:02 150 BKN:07 220","29.93","10.00","34","VRB",,"5",,,,,,,,,,,,,,,,,,,,,,,,,,,,,,,,,,,,,"MET12612/21/17 11:53:02 METAR KSEA 211953Z VRB04KT 10SM FEW009 FEW150 BKN220 03/M02 A3040 RMK AO2 SLP306 ACSL DSNT SE T00281017 (JC)","FM-15","7",,,,,,,,,,,,,,,,,,,,,,,,,,,,"2007-05-17"
"72793024233","2017-12-21T12:53:00","FM-15","7",,,,,,,,,,,,,,,,,,,,,,,,,,,,,,,,,,,,,,"30.36","28","37","0.00",,"+0.06","8","70","30.39","FEW:02 15 FEW:02 120 OVC:08 210","29.89","10.00","34","140",,"7",,,,,,,,,,,,,,,,,,,,,,,,,,,,,,,,,,,,,"MET13212/21/17 12:53:02 METAR KSEA 212053Z 14006KT 10SM FEW015 FEW120 OVC210 03/M02 A3036 RMK AO2 SLP292 ACSL DSNT SE T00281022 58022 (JC)","FM-15","7",,,,,,,,,,,,,,,,,,,,,,,,,,,,"2007-05-17"
"72793024233","2017-12-21T13:53:00","FM-15","7",,,,,,,,,,,,,,,,,,,,,,,,,,,,,,,,,,,,,,"30.35","28","40","0.00",,,,"63","30.38","FEW:02 15 SCT:04 30 SCT:04 120","29.88","10.00","35","VRB",,"5",,,,,,,,,,,,,,,,,,,,,,,,,,,,,,,,,,,,,"MET12612/21/17 13:53:02 METAR KSEA 212153Z VRB04KT 10SM FEW015 SCT030 SCT120 04/M02 A3035 RMK AO2 SLP288 ACSL DSNT SE T00441022 (RS)","FM-15","7",,,,,,,,,,,,,,,,,,,,,,,,,,,,"2007-05-17"
"72793024233","2017-12-21T14:53:00","FM-15","7",,,,,,,,,,,,,,,,,,,,,,,,,,,,,,,,,,,,,,"30.33","27","40","0.00",,,,"60","30.36","BKN:07 33 BKN:07 120 BKN:07 210","29.86","10.00","35","180",,"5",,,,,,,,,,,,,,,,,,,,,,,,,,,,,,,,,,,,,"MET11312/21/17 14:53:02 METAR KSEA 212253Z 18004KT 10SM BKN033 BKN120 BKN210 04/M03 A3033 RMK AO2 SLP282 T00441028 (RS)","FM-15","7",,,,,,,,,,,,,,,,,,,,,,,,,,,,"2007-05-17"
"72793024233","2017-12-21T15:53:00","FM-15","7",,,,,,,,,,,,,,,,,,,,,,,,,,,,,,,,,,,,,,"30.33","28","39","0.00",,"+0.04","6","65","30.36","BKN:07 30 BKN:07 120 BKN:07 200","29.86","10.00","35","160",,"5",,,,,,,,,,,,,,,,,,,,,,,,,,,,,,,,,,,,,"MET13112/21/17 15:53:02 METAR KSEA 212353Z 16004KT 10SM BKN030 BKN120 BKN200 04/M02 A3033 RMK AO2 SLP280 T00391022 10050 20006 56012 (RS)","FM-15","7",,,,,,,,,,,,,,,,,,,,,,,,,,,,"2007-05-17"
"72793024233","2017-12-21T16:00:00","FM-12","4",,,,,,,,,,,,,,,,,,,,,,,,,,,,,,,,,,,,,,,"28","39",,,"+0.04","6","65","30.36","26","29.84","9.94","35","160",,"5",,,,,,,,,,,,,,,,,,,,,,,,,,,,,,,,,,,,,"SYN08072793 32566 61604 10039 21022 30106 40280 56012 92353 333 10050 21016 555 92200=","FM-12","4",,,,,,,,,,,,,,,,,,,,,,,,,,,,"2007-05-17"
"72793024233","2017-12-21T16:53:00","FM-15","7",,,,,,,,,,,,,,,,,,,,,,,,,,,,,,,,,,,,,,"30.30","28","39","0.00",,,,"65","30.33","BKN:07 30","29.83","10.00","35","150",,"6",,,,,,,,,,,,,,,,,,,,,,,,,,,,,,,,,,,,,"MET09412/21/17 16:53:01 METAR KSEA 220053Z 15005KT 10SM BKN030 04/M02 A3030 RMK AO2 SLP272 T00391022","FM-15","7",,,,,,,,,,,,,,,,,,,,,,,,,,,,"2007-05-17"
"72793024233","2017-12-21T17:12:00","FM-16","7",,,,,,,,,,,,,,,,,,,,,,,,,,,,,,,,,,,,,,"30.30","29","39",,,,,"67",,"OVC:08 28","29.83","10.00","35","150",,"5",,,,,,,,,,,,,,,,,,,,,,,,,,,,,,,,,,,,,"MET08712/21/17 17:12:01 SPECI KSEA 220112Z 15004KT 10SM OVC028 04/M02 A3030 RMK AO2 T00391017","FM-16","7",,,,,,,,,,,,,,,,,,,,,,,,,,,,"2007-05-17"
"72793024233","2017-12-21T17:53:00","FM-15","7",,,,,,,,,,,,,,,,,,,,,,,,,,,,,,,,,,,,,,"30.29","30","39","0.00",,,,"70","30.32","OVC:08 25","29.82","10.00","35","160",,"5",,,,,,,,,,,,,,,,,,,,,,,,,,,,,,,,,,,,,"MET09412/21/17 17:53:01 METAR KSEA 220153Z 16004KT 10SM OVC025 04/M01 A3029 RMK AO2 SLP268 T00391011","FM-15","7",,,,,,,,,,,,,,,,,,,,,,,,,,,,"2007-05-17"
"72793024233","2017-12-21T18:53:00","FM-15","7",,,,,,,,,,,,,,,,,,,,,,,,,,,,,,,,,,,,,,"30.29","31","39","0.00",,"+0.04","6","73","30.32","OVC:08 24","29.82","10.00","36","160",,"5",,,,,,,,,,,,,,,,,,,,,,,,,,,,,,,,,,,,,"MET10012/21/17 18:53:02 METAR KSEA 220253Z 16004KT 10SM OVC024 04/M01 A3029 RMK AO2 SLP266 T00391006 56014","FM-15","7",,,,,,,,,,,,,,,,,,,,,,,,,,,,"2007-05-17"
"72793024233","2017-12-21T19:53:00","FM-15","7",,,,,,,,,,,,,,,,,,,,,,,,,,,,,,,,,,,,,,"30.27","31","40","0.00",,,,"70","30.30","OVC:08 19","29.80","10.00","36","160",,"6",,,,,,,,,,,,,,,,,,,,,,,,,,,,,,,,,,,,,"MET09412/21/17 19:53:02 METAR KSEA 220353Z 16005KT 10SM OVC019 04/M01 A3027 RMK AO2 SLP261 T00441006","FM-15","7",,,,,,,,,,,,,,,,,,,,,,,,,,,,"2007-05-17"
"72793024233","2017-12-21T20:53:00","FM-15","7",,,,,,,,,,,,,,,,,,,,,,,,,,,,,,,,,,,,,,"30.24","31","39","0.00",,,,"73","30.27","OVC:08 25","29.77","10.00","36","120",,"9",,,,,,,,,,,,,,,,,,,,,,,,,,,,,,,,,,,,,"MET09412/21/17 20:53:02 METAR KSEA 220453Z 12008KT 10SM OVC025 04/M01 A3024 RMK AO2 SLP252 T00391006","FM-15","7",,,,,,,,,,,,,,,,,,,,,,,,,,,,"2007-05-17"
"72793024233","2017-12-21T21:53:00","FM-15","7",,,,,,,,,,,,,,,,,,,,,,,,,,,,,,,,,,,,,,"30.25","31","40","T","-RA:02 |RA |","+0.04","5","70","30.27","OVC:08 21","29.78","7.00","36","VRB",,"6",,,,,,,,,,,,,,,,,,,,,,,,,,,,,,,,,,,,,"MET13312/21/17 21:53:02 METAR KSEA 220553Z VRB05KT 7SM -RA OVC021 04/M01 A3025 RMK AO2 RAB53 SLP252 P0000 60000 T00441006 10044 20039 55013","FM-15","7",,,,,,,,,,,,,,,,,,,,,,,,,,,,"2007-05-17"
"72793024233","2017-12-21T22:00:00","FM-12","4",,,,,,,,,,,,,,,,,,,,,,,,,,,,,,,,,,,,,,,"31","40",,"||RA","+0.04","5","70","30.27","26","29.77","6.84","36",,,"6",,,,,,,,,,,,,,,,,,,,,,,,,,,,,,,,,,,,,"SYN09272793 11561 8//05 10044 21006 30080 40252 55013 69901 761// 90553 333 10044 21016 555 92206=","FM-12","4",,,,,,,,,,,,,,,,,,,,,,,,,,,,"2007-05-17"
"72793024233","2017-12-21T22:53:00","FM-15","7",,,,,,,,,,,,,,,,,,,,,,,,,,,,,,,,,,,,,,"30.24","34","39","T","-RA:02 |RA |",,,"82","30.27","OVC:08 17","29.77","5.00","37","140",,"9",,,,,,,,,,,,,,,,,,,,,,,,,,,,,,,,,,,,,"MET10212/21/17 22:53:02 METAR KSEA 220653Z 14008KT 5SM -RA OVC017 04/01 A3024 RMK AO2 SLP251 P0000 T00390011","FM-15","7",,,,,,,,,,,,,,,,,,,,,,,,,,,,"2007-05-17"
"72793024233","2017-12-21T23:26:00","FM-16","7",,,,,,,,,,,,,,,,,,,,,,,,,,,,,,,,,,,,,,"30.24","35","38","T","-RA:02 BR:1 |RA |",,,"89",,"OVC:08 13","29.77","2.00","37","140",,"8",,,,,,,,,,,,,,,,,,,,,,,,,,,,,,,,,,,,,"MET09812/21/17 23:26:02 SPECI KSEA 220726Z 14007KT 2SM -RA BR OVC013 03/02 A3024 RMK AO2 P0000 T00330017","FM-16","7",,,,,,,,,,,,,,,,,,,,,,,,,,,,"2007-05-17"
"72793024233","2017-12-21T23:41:00","FM-16","7",,,,,,,,,,,,,,,,,,,,,,,,,,,,,,,,,,,,,,"30.23","35","38","0.01","-RA:02 BR:1 |RA |",,,"89",,"OVC:08 13","29.76","3.00","37","130",,"8",,,,,,,,,,,,,,,,,,,,,,,,,,,,,,,,,,,,,"MET09812/21/17 23:41:02 SPECI KSEA 220741Z 13007KT 3SM -RA BR OVC013 03/02 A3023 RMK AO2 P0001 T00330017","FM-16","7",,,,,,,,,,,,,,,,,,,,,,,,,,,,"2007-05-17"
"72793024233","2017-12-21T23:53:00","FM-15","7",,,,,,,,,,,,,,,,,,,,,,,,,,,,,,,,,,,,,,"30.23","36","38","0.01","-DZ:01 BR:1 |DZ |",,,"93","30.26","OVC:08 12","29.76","3.00","37","130",,"9",,,,,,,,,,,,,,,,,,,,,,,,,,,,,,,,,,,,,"MET12612/21/17 23:53:02 METAR KSEA 220753Z 13008KT 3SM -DZ BR OVC012 03/02 A3023 RMK AO2 RAE52DZB52 SLP246 P0001 T00330022 400501017","FM-15","7",,,,,,,,,,,,,,,,,,,,,,,,,,,,"2007-05-17"
"72793024233","2017-12-21T23:59:00","SOD  ","6",,,,,,,,,,,,,,,"29","35","77","30.39","29.88","33","6.2","0","-5.1","30","41","29","160","14","0.01","0","0.0","150","10","RA DZ BR",,,,,,,,,,,,,,,,,,,,,,,,,,,,,,,,,,,,,,,,,,,,,,,,,,,,,,,,"SOD77524 HR PRECIPITATION (IN): 0.01 WEATHER(CODE):1  24 HR MAX TEMP (F):41 24 HR MAX TEMP TIME (LST):1413 24 HR MIN TEMP (F):29 24 HR MIN TEMP TIME (LST):0729 AVERAGE STATION PRESSURE(D):29.885 MINIMUM SEA LEVEL PRESSURE:30.25 TIME OF OCCURRENCE:2356 PEAK WIND SPEED (MPH):14  PEAK WIND DIR (DEG):160 PEAK WIND TIME (LST):2202  FASTEST 2MIN SPEED (MPH):10 FASTEST 2MIN DIR (DEG):150 FASTEST 2MIN TIME (LST):2203 AVERAGE WIND SPEED (MPH): 6.2 24 HR AVG TEMP (F):35 DEPART FROM NORMAL:  -5 HEATING DEGREE DAYS: 30 COOLING DEGREE DAYS:  0 LATEST DAY MAX TEMP (0700-1900 LST): 41 LATEST NIGHT MIN TEMP(1900-0800 LST):29 HOURLY INCREMENTAL PRECIPITATION VALUES (IN):0.00 0.00 0.00 0.00 0.00 0.00 0.00 0.00 0.00 0.00 0.00 0.00 0.00 0.00 0.00 0.00 0.00 0.00 0.00 0.00 0.00T    T     0.01","SOD  ","6",,,,,,,,,,,,,,,,,,,,,,,,,"0754","1621",,"2007-05-17"
"72793024233","2017-12-22T00:00:00","FM-16","7",,,,,,,,,,,,,,,,,,,,,,,,,,,,,,,,,,,,,,"30.23","36","38","T","-DZ:01 BR:1 |DZ |",,,"93",,"FEW:02 4 OVC:08 12","29.76","2.50","37","130",,"9",,,,,,,,,,,,,,,,,,,,,,,,,,,,,,,,,,,,,"MET11412/22/17 00:00:02 SPECI KSEA 220800Z 13008KT 2 1/2SM -DZ BR FEW004 OVC012 03/02 A3023 RMK AO2 P0000 T00330022 (TL)","FM-16","7",,,,,,,,,,,,,,,,,,,,,,,,,,,,"2007-05-17"
"72793024233","2017-12-22T00:17:00","FM-16","7",,,,,,,,,,,,,,,,,,,,,,,,,,,,,,,,,,,,,,"30.23","36","38","T","-DZ:01 BR:1 |DZ |",,,"93",,"BKN:07 4 OVC:08 10","29.76","2.50","37","130",,"9",,,,,,,,,,,,,,,,,,,,,,,,,,,,,,,,,,,,,"MET12612/22/17 00:17:02 SPECI KSEA 220817Z 13008KT 2 1/2SM -DZ BR BKN004 OVC010 03/02 A3023 RMK AO2 CIG 003V007 P0000 T00330022 (TL)","FM-16","7",,,,,,,,,,,,,,,,,,,,,,,,,,,,"2007-05-17"
"72793024233","2017-12-22T00:53:00","FM-15","7",,,,,,,,,,,,,,,,,,,,,,,,,,,,,,,,,,,,,,"30.22","36","38","0.01","-DZ:01 BR:1 |DZ |","+0.03","8","93","30.24","OVC:08 4","29.75","2.50","37","150",,"8",,,,,,,,,,,,,,,,,,,,,,,,,,,,,,,,,,,,,"MET13812/22/17 00:53:02 METAR KSEA 220853Z 15007KT 2 1/2SM -DZ BR OVC004 03/02 A3022 RMK AO2 CIG 002V008 SLP242 P0001 60002 T00330022 58010 (TL)","FM-15","7",,,,,,,,,,,,,,,,,,,,,,,,,,,,"2007-05-17"
"72793024233","2017-12-22T01:53:00","FM-15","7",,,,,,,,,,,,,,,,,,,,,,,,,,,,,,,,,,,,,,"30.21","36","37","0.01","-DZ:01 BR:1 |DZ |",,,"96","30.24","OVC:08 4","29.74","2.00","37","160",,"8",,,,,,,,,,,,,,,,,,,,,,,,,,,,,,,,,,,,,"MET12212/22/17 01:53:02 METAR KSEA 220953Z 16007KT 2SM -DZ BR OVC004 03/02 A3021 RMK AO2 CIG 002V008 SLP239 P0001 T00280022 (TL)","FM-15","7",,,,,,,,,,,,,,,,,,,,,,,,,,,,"2007-05-17"
"72793024233","2017-12-22T02:53:00","FM-15","7",,,,,,,,,,,,,,,,,,,,,,,,,,,,,,,,,,,,,,"30.21","36","38","0.01","-DZ:01 BR:1 |DZ |",,,"93","30.23","OVC:08 3","29.74","2.00","37","000",,"0",,,,,,,,,,,,,,,,,,,,,,,,,,,,,,,,,,,,,"MET11012/22/17 02:53:02 METAR KSEA 221053Z 00000KT 2SM -DZ BR OVC003 03/02 A3021 RMK AO2 SLP238 P0001 T00330022 (TL)","FM-15","7",,,,,,,,,,,,,,,,,,,,,,,,,,,,"2007-05-17"
"72793024233","2017-12-22T03:53:00","FM-15","7",,,,,,,,,,,,,,,,,,,,,,,,,,,,,,,,,,,,,,"30.20","37","38","0.01","-DZ:01 BR:1 |DZ |","+0.02","6","97","30.23","BKN:07 3 OVC:08 8","29.73","2.00","38","240",,"8",,,,,,,,,,,,,,,,,,,,,,,,,,,,,,,,,,,,,"MET15912/22/17 03:53:02 METAR KSEA 221153Z 24007KT 2SM -DZ BR BKN003 OVC008 03/03 A3020 RMK AO2 CIG 001V006 SLP236 P0001 60005 70005 T00330028 10044 20028 56006 (TL)","FM-15","7",,,,,,,,,,,,,,,,,,,,,,,,,,,,"2007-05-17"
"72793024233","2017-12-22T04:00:00","FM-12","4",,,,,,,,,,,,,,,,,,,,,,,,,,,,,,,,,,,,,,,"37","38",,"||DZ","+0.02","6","97","30.23","2","29.72","1.99","38","240",,"8",,,,,,,,,,,,,,,,,,,,,,,,,,,,,,,,,,,,,"SYN10472793 11132 82407 10033 20028 30063 40236 56006 60011 751// 91153 333 10050 20028 70013 96010 555 92212=","FM-12","4",,,,,,,,,,,,,,,,,,,,,,,,,,,,"2007-05-17"
"72793024233","2017-12-22T04:53:00","FM-15","7",,,,,,,,,,,,,,,,,,,,,,,,,,,,,,,,,,,,,,"30.20","36","38","0.02","-DZ:01 BR:1 |DZ |",,,"93","30.23","OVC:08 2","29.73","2.00","37","280",,"7",,,,,,,,,,,,,,,,,,,,,,,,,,,,,,,,,,,,,"MET11012/22/17 04:53:02 METAR KSEA 221253Z 28006KT 2SM -DZ BR OVC002 03/02 A3020 RMK AO2 SLP236 P0001 T00330022 (TL)","FM-15","7",,,,,,,,,,,,,,,,,,,,,,,,,,,,"2007-05-17"
"72793024233","2017-12-22T05:43:00","FM-16","7",,,,,,,,,,,,,,,,,,,,,,,,,,,,,,,,,,,,,,"30.20","36","38","0.03","-DZ:01 BR:1 |s DZ s |",,,"93",,"OVC:08 2","29.73","0.50","37","280",,"6",,,,,,,,,,,,,,,,,,,,,,,,,,,,,,,,,,,,,"MET14412/22/17 05:43:02 SPECI KSEA 221343Z 28005KT 1/2SM R16L/P6000FT -DZ BR OVC002 03/02 A3020 RMK AO2 SFC VIS 1 1/2 CIG 001V005 P0003 T00330022 (TL)","FM-16","7",,,,,,,,,,,,,,,,,,,,,,,,,,,,"2007-05-17"
"72793024233","2017-12-22T05:53:00","FM-15","7",,,,,,,,,,,,,,,,,,,,,,,,,,,,,,,,,,,,,,"30.20","36","37","0.02","-DZ:01 BR:1 |s DZ s |",,,"96","30.23","BKN:07 2 OVC:08 8","29.73","0.50","37","270",,"5",,,,,,,,,,,,,,,,,,,,,,,,,,,,,,,,,,,,,"MET14612/22/17 05:53:02 METAR KSEA 221353Z 27004KT 1/2SM R16L/P6000FT -DZ BR BKN002 OVC008 03/02 A3020 RMK AO2 SFC VIS 1 1/2 SLP237 P0003 T00280022 (JC)","FM-15","7",,,,,,,,,,,,,,,,,,,,,,,,,,,,"2007-05-17"
"72793024233","2017-12-22T06:38:00","FM-16","7",,,,,,,,,,,,,,,,,,,,,,,,,,,,,,,,,,,,,,"30.20","36","37","T","BR:1 ||",,,"96",,"FEW:02 2 OVC:08 10","29.73","3.00","37","000",,"0",,,,,,,,,,,,,,,,,,,,,,,,,,,,,,,,,,,,,"MET11212/22/17 06:38:02 SPECI KSEA 221438Z 00000KT 3SM BR FEW002 OVC010 03/02 A3020 RMK AO2 DZE38 P0000 T00280022 (JC)","FM-16","7",,,,,,,,,,,,,,,,,,,,,,,,,,,,"2007-05-17"
"72793024233","2017-12-22T06:53:00","FM-15","7",,,,,,,,,,,,,,,,,,,,,,,,,,,,,,,,,,,,,,"30.21","36","37","T","BR:1 ||","-0.01","3","96","30.24","SCT:04 4 OVC:08 10","29.74","3.00","37","000",,"0",,,,,,,,,,,,,,,,,,,,,,,,,,,,,,,,,,,,,"MET13112/22/17 06:53:02 METAR KSEA 221453Z 00000KT 3SM BR SCT004 OVC010 03/02 A3021 RMK AO2 DZE38 SLP239 P0000 60004 T00280022 53003 (JC)","FM-15","7",,,,,,,,,,,,,,,,,,,,,,,,,,,,"2007-05-17"
"72793024233","2017-12-22T07:00:00","FM-16","7",,,,,,,,,,,,,,,,,,,,,,,,,,,,,,,,,,,,,,"30.20","36","38",,"BR:1 ||",,,"93",,"BKN:07 5 OVC:08 11","29.73","4.00","37","000",,"0",,,,,,,,,,,,,,,,,,,,,,,,,,,,,,,,,,,,,"MET10012/22/17 07:00:02 SPECI KSEA 221500Z 00000KT 4SM BR BKN005 OVC011 03/02 A3020 RMK AO2 T00330022 (JC)","FM-16","7",,,,,,,,,,,,,,,,,,,,,,,,,,,,"2007-05-17"
"72793024233","2017-12-22T07:51:00","FM-16","6",,,,,,,,,,,,,,,,,,,,,,,,,,,,,,,,,,,,,,"30.20","37","37",,"BR:1 ||",,,"100",,"BKN:07 4 BKN:07 16 OVC:08 25","29.73","5.00","37","000",,"0",,,,,,,,,,,,,,,,,,,,,,,,,,,,,,,,,,,,,"MET11412/22/17 07:51:02 SPECI KSEA 221551Z 00000KT 5SM BR BKN004 BKN016 OVC025 03/03 A3020 RMK AO2 CIG 002V007 FIBI (JC)","FM-16","6",,,,,,,,,,,,,,,,,,,,,,,,,,,,"2007-05-17"
"72793024233","2017-12-22T07:53:00","FM-15","7",,,,,,,,,,,,,,,,,,,,,,,,,,,,,,,,,,,,,,"30.20","37","38","0.00",,,,"97","30.23","BKN:07 5 OVC:08 16","29.73","7.00","38","000",,"0",,,,,,,,,,,,,,,,,,,,,,,,,,,,,,,,,,,,,"MET10412/22/17 07:53:02 METAR KSEA 221553Z 00000KT 7SM BKN005 OVC016 03/03 A3020 RMK AO2 SLP237 T00330028 (JC)","FM-15","7",,,,,,,,,,,,,,,,,,,,,,,,,,,,"2007-05-17"
"72793024233","2017-12-22T08:05:00","FM-16","7",,,,,,,,,,,,,,,,,,,,,,,,,,,,,,,,,,,,,,"30.19","36","38",,,,,"93",,"SCT:04 5 BKN:07 14","29.72","7.00","37","000",,"0",,,,,,,,,,,,,,,,,,,,,,,,,,,,,,,,,,,,,"MET09712/22/17 08:05:02 SPECI KSEA 221605Z 00000KT 7SM SCT005 BKN014 03/02 A3019 RMK AO2 T00330022 (JC)","FM-16","7",,,,,,,,,,,,,,,,,,,,,,,,,,,,"2007-05-17"
"72793024233","2017-12-22T08:53:00","FM-15","7",,,,,,,,,,,,,,,,,,,,,,,,,,,,,,,,,,,,,,"30.22","36","38","0.00",,,,"93","30.25","SCT:04 5 BKN:07 11 OVC:08 19","29.75","7.00","37","350",,"7",,,,,,,,,,,,,,,,,,,,,,,,,,,,,,,,,,,,,"MET11112/22/17 08:53:02 METAR KSEA 221653Z 35006KT 7SM SCT005 BKN011 OVC019 03/02 A3022 RMK AO2 SLP243 T00330022 (JC)","FM-15","7",,,,,,,,,,,,,,,,,,,,,,,,,,,,"2007-05-17"
"72793024233","2017-12-22T09:10:00","FM-16","7",,,,,,,,,,,,,,,,,,,,,,,,,,,,,,,,,,,,,,"30.23","36","38",,,,,"93",,"BKN:07 6 OVC:08 11","29.76","7.00","37","350",,"7",,,,,,,,,,,,,,,,,,,,,,,,,,,,,,,,,,,,,"MET09712/22/17 09:10:02 SPECI KSEA 221710Z 35006KT 7SM BKN006 OVC011 03/02 A3023 RMK AO2 T00330022 (JC)","FM-16","7",,,,,,,,,,,,,,,,,,,,,,,,,,,,"2007-05-17"
"72793024233","2017-12-22T09:46:00","FM-16","7",,,,,,,,,,,,,,,,,,,,,,,,,,,,,,,,,,,,,,"30.24","35","38","T","BR:1 ||",,,"89",,"SCT:04 6 OVC:08 11","29.77","6.00","37","350",,"11",,,,,,,,,,,,,,,,,,,,,,,,,,,,,,,,,,,,,"MET10612/22/17 09:46:02 SPECI KSEA 221746Z 35010KT 6SM BR SCT006 OVC011 03/02 A3024 RMK AO2 P0000 T00330017 (JC)","FM-16","7",,,,,,,,,,,,,,,,,,,,,,,,,,,,"2007-05-17"
"72793024233","2017-12-22T09:53:00","FM-15","7",,,,,,,,,,,,,,,,,,,,,,,,,,,,,,,,,,,,,,"30.24","35","38","T","-DZ:01 BR:1 |DZ |","-0.03","3","89","30.27","SCT:04 6 BKN:07 11 OVC:08 20","29.77","6.00","37","360",,"9",,,,,,,,,,,,,,,,,,,,,,,,,,,,,,,,,,,,,"MET15412/22/17 09:53:02 METAR KSEA 221753Z 36008KT 6SM -DZ BR SCT006 BKN011 OVC020 03/02 A3024 RMK AO2 SLP250 DZB40 P0000 60004 T00330017 10033 20028 53010 (JC)","FM-15","7",,,,,,,,,,,,,,,,,,,,,,,,,,,,"2007-05-17"
"72793024233","2017-12-22T10:00:00","FM-12","4",,,,,,,,,,,,,,,,,,,,,,,,,,,,,,,,,,,,,,,"35","38",,"||DZ","-0.03","3","89","30.27","5","29.75","5.59","37","360",,"9",,,,,,,,,,,,,,,,,,,,,,,,,,,,,,,,,,,,,"SYN09872793 11259 83608 10033 20017 30076 40250 53010 60011 751// 91753 333 10044 20006 96010 555 92218=","FM-12","4",,,,,,,,,,,,,,,,,,,,,,,,,,,,"2007-05-17"
"72793024233","2017-12-22T10:18:00","FM-16","7",,,,,,,,,,,,,,,,,,,,,,,,,,,,,,,,,,,,,,"30.24","35","38","0.01","-RA:02 |RA |",,,"89",,"FEW:02 6 FEW:02 14 OVC:08 24","29.77","7.00","37","360",,"9",,,,,,,,,,,,,,,,,,,,,,,,,,,,,,,,,,,,,"MET12512/22/17 10:18:02 SPECI KSEA 221818Z 36008KT 7SM -RA FEW006 FEW014 OVC024 03/02 A3024 RMK AO2 DZE16RAB16 P0001 T00330017 (JC)","FM-16","7",,,,,,,,,,,,,,,,,,,,,,,,,,,,"2007-05-17"
"72793024233","2017-12-22T10:51:00","FM-16","6",,,,,,,,,,,,,,,,,,,,,,,,,,,,,,,,,,,,,,"30.23","36","37",,,,,"93",,"FEW:02 8 SCT:04 24 OVC:08 55","29.76","9.00","37","360",,"9",,,,,,,,,,,,,,,,,,,,,,,,,,,,,,,,,,,,,"MET11912/22/17 10:51:02 SPECI KSEA 221851Z 36008KT 9SM FEW008 SCT024 OVC055 03/02 A3023 RMK AO2 DZE16RAB16E50 P0001 FIBI (JC)","FM-16","6",,,,,,,,,,,,,,,,,,,,,,,,,,,,"2007-05-17"
"72793024233","2017-12-22T10:53:00","FM-15","7",,,,,,,,,,,,,,,,,,,,,,,,,,,,,,,,,,,,,,"30.23","35","38","0.01",,,,"89","30.26","FEW:02 8 SCT:04 24 OVC:08 55","29.76","9.00","37","360",,"8",,,,,,,,,,,,,,,,,,,,,,,,,,,,,,,,,,,,,"MET13112/22/17 10:53:02 METAR KSEA 221853Z 36007KT 9SM FEW008 SCT024 OVC055 03/02 A3023 RMK AO2 DZE16RAB16E50 SLP248 P0001 T00330017 (JC)","FM-15","7",,,,,,,,,,,,,,,,,,,,,,,,,,,,"2007-05-17"
"72793024233","2017-12-22T11:53:00","FM-15","7",,,,,,,,,,,,,,,,,,,,,,,,,,,,,,,,,,,,,,"30.24","35","39","T","-RA:02 |RA |",,,"86","30.27","SCT:04 6 BKN:07 44 OVC:08 55","29.77","8.00","37","360",,"7",,,,,,,,,,,,,,,,,,,,,,,,,,,,,,,,,,,,,"MET12712/22/17 11:53:02 METAR KSEA 221953Z 36006KT 8SM -RA SCT006 BKN044 OVC055 04/02 A3024 RMK AO2 RAB51 SLP250 P0000 T00390017 (JC)","FM-15","7",,,,,,,,,,,,,,,,,,,,,,,,,,,,"2007-05-17"
"72793024233","2017-12-22T12:17:00","FM-16","7",,,,,,,,,,,,,,,,,,,,,,,,,,,,,,,,,,,,,,"30.24","35","39","T","-RA:02 |RA |",,,"86",,"SCT:04 6 BKN:07 11 OVC:08 55","29.77","10.00","37","360",,"8",,,,,,,,,,,,,,,,,,,,,,,,,,,,,,,,,,,,,"MET11512/22/17 12:17:02 SPECI KSEA 222017Z 36007KT 10SM -RA SCT006 BKN011 OVC055 04/02 A3024 RMK AO2 P0000 T00390017 (JC)","FM-16","7",,,,,,,,,,,,,,,,,,,,,,,,,,,,"2007-05-17"
"72793024233","2017-12-22T12:53:00","FM-15","7",,,,,,,,,,,,,,,,,,,,,,,,,,,,,,,,,,,,,,"30.23","35","39","T",,"+0.01","8","86","30.26","FEW:02 7 BKN:07 14 BKN:07 55","29.76","10.00","37","350",,"9",,,,,,,,,,,,,,,,,,,,,,,,,,,,,,,,,,,,,"MET13612/22/17 12:53:02 METAR KSEA 222053Z 35008KT 10SM FEW007 BKN014 BKN055 04/02 A3023 RMK AO2 RAE45 SLP248 P0000 60001 T00390017 58002 (JC)","FM-15","7",,,,,,,,,,,,,,,,,,,,,,,,,,,,"2007-05-17"
"72793024233","2017-12-22T13:16:00","FM-16","7",,,,,,,,,,,,,,,,,,,,,,,,,,,,,,,,,,,,,,"30.23","35","39",,,,,"86",,"FEW:02 8 SCT:04 14 BKN:07 70","29.76","10.00","37","360",,"7",,,,,,,,,,,,,,,,,,,,,,,,,,,,,,,,,,,,,"MET10512/22/17 13:16:02 SPECI KSEA 222116Z 36006KT 10SM FEW008 SCT014 BKN070 04/02 A3023 RMK AO2 T00390017 (JC)","FM-16","7",,,,,,,,,,,,,,,,,,,,,,,,,,,,"2007-05-17"
"72793024233","2017-12-22T13:53:00","FM-15","7",,,,,,,,,,,,,,,,,,,,,,,,,,,,,,,,,,,,,,"30.23","32","39","0.00",,,,"76","30.26","FEW:02 8 FEW:02 15 BKN:07 75","29.76","10.00","36","020",,"7",,,,,,,,,,,,,,,,,,,,,,,,,,,,,,,,,,,,,"MET11212/22/17 13:53:02 METAR KSEA 222153Z 02006KT 10SM FEW008 FEW015 BKN075 04/00 A3023 RMK AO2 SLP247 T00390000 (JC)","FM-15","7",,,,,,,,,,,,,,,,,,,,,,,,,,,,"2007-05-17"
"72793024233","2017-12-22T14:53:00","FM-15","7",,,,,,,,,,,,,,,,,,,,,,,,,,,,,,,,,,,,,,"30.24","33","39","0.00",,,,"79","30.27","FEW:02 15 SCT:04 41 BKN:07 90","29.77","10.00","37","360",,"7",,,,,,,,,,,,,,,,,,,,,,,,,,,,,,,,,,,,,"MET11212/22/17 14:53:02 METAR KSEA 222253Z 36006KT 10SM FEW015 SCT041 BKN090 04/01 A3024 RMK AO2 SLP250 T00390006 (RS)","FM-15","7",,,,,,,,,,,,,,,,,,,,,,,,,,,,"2007-05-17"
"72793024233","2017-12-22T15:53:00","FM-15","7",,,,,,,,,,,,,,,,,,,,,,,,,,,,,,,,,,,,,,"30.25","27","38","0.00",,"-0.01","3","65","30.28","FEW:02 15 SCT:04 44 BKN:07 100","29.78","10.00","34","360",,"9",,,,,,,,,,,,,,,,,,,,,,,,,,,,,,,,,,,,,"MET13712/22/17 15:53:02 METAR KSEA 222353Z 36008KT 10SM FEW015 SCT044 BKN100 03/M03 A3025 RMK AO2 SLP253 60001 T00331028 10044 20028 53005 (RS)","FM-15","7",,,,,,,,,,,,,,,,,,,,,,,,,,,,"2007-05-17"
"72793024233","2017-12-22T16:00:00","FM-12","4",,,,,,,,,,,,,,,,,,,,,,,,,,,,,,,,,,,,,,,"27","38",,,"-0.01","3","65","30.28","15","29.77","9.94","34","360",,"9",,,,,,,,,,,,,,,,,,,,,,,,,,,,,,,,,,,,,"SYN08672793 12466 63608 10033 21028 30080 40253 53005 69931 92353 333 10044 20028 555 92300=","FM-12","4",,,,,,,,,,,,,,,,,,,,,,,,,,,,"2007-05-17"
"72793024233","2017-12-22T16:53:00","FM-15","7",,,,,,,,,,,,,,,,,,,,,,,,,,,,,,,,,,,,,,"30.26","26","36","0.00",,,,"67","30.29","FEW:02 45 BKN:07 95 BKN:07 250","29.79","10.00","32","340",,"8",,,,,,,,,,,,,,,,,,,,,,,,,,,,,,,,,,,,,"MET10812/22/17 16:53:01 METAR KSEA 230053Z 34007KT 10SM FEW045 BKN095 BKN250 02/M03 A3026 RMK AO2 SLP256 T00221033","FM-15","7",,,,,,,,,,,,,,,,,,,,,,,,,,,,"2007-05-17"
"72793024233","2017-12-22T17:53:00","FM-15","7",,,,,,,,,,,,,,,,,,,,,,,,,,,,,,,,,,,,,,"30.26","27","37","0.00",,,,"67","30.29","FEW:02 40 OVC:08 100","29.79","10.00","33","020",,"8",,,,,,,,,,,,,,,,,,,,,,,,,,,,,,,,,,,,,"MET10112/22/17 17:53:01 METAR KSEA 230153Z 02007KT 10SM FEW040 OVC100 03/M03 A3026 RMK AO2 SLP256 T00281028","FM-15","7",,,,,,,,,,,,,,,,,,,,,,,,,,,,"2007-05-17"
"72793024233","2017-12-22T18:53:00","FM-15","7",,,,,,,,,,,,,,,,,,,,,,,,,,,,,,,,,,,,,,"30.26","29","37","0.00",,"-0.01","0","73","30.29","OVC:08 100","29.79","10.00","34","010",,"9",,,,,,,,,,,,,,,,,,,,,,,,,,,,,,,,,,,,,"MET10012/22/17 18:53:01 METAR KSEA 230253Z 01008KT 10SM OVC100 03/M02 A3026 RMK AO2 SLP256 T00281017 50002","FM-15","7",,,,,,,,,,,,,,,,,,,,,,,,,,,,"2007-05-17"
"72793024233","2017-12-22T19:53:00","FM-15","7",,,,,,,,,,,,,,,,,,,,,,,,,,,,,,,,,,,,,,"30.27","29","36","0.00",,,,"76","30.30","SCT:04 21 OVC:08 100","29.80","10.00","33","360",,"6",,,,,,,,,,,,,,,,,,,,,,,,,,,,,,,,,,,,,"MET10112/22/17 19:53:02 METAR KSEA 230353Z 36005KT 10SM SCT021 OVC100 02/M02 A3027 RMK AO2 SLP260 T00221017","FM-15","7",,,,,,,,,,,,,,,,,,,,,,,,,,,,"2007-05-17"
"72793024233","2017-12-22T20:53:00","FM-15","7",,,,,,,,,,,,,,,,,,,,,,,,,,,,,,,,,,,,,,"30.28","30","35","0.00",,,,"82","30.30","FEW:02 20 BKN:07 110","29.81","10.00","33","360",,"10",,,,,,,,,,,,,,,,,,,,,,,,,,,,,,,,,,,,,"MET10112/22/17 20:53:02 METAR KSEA 230453Z 36009KT 10SM FEW020 BKN110 02/M01 A3028 RMK AO2 SLP262 T00171011","FM-15","7",,,,,,,,,,,,,,,,,,,,,,,,,,,,"2007-05-17"
"72793024233","2017-12-22T21:53:00","FM-15","7",,,,,,,,,,,,,,,,,,,,,,,,,,,,,,,,,,,,,,"30.29","31","35","0.00",,"-0.03","1","85","30.32","FEW:02 20 BKN:07 110","29.82","10.00","33","020",,"9",,,,,,,,,,,,,,,,,,,,,,,,,,,,,,,,,,,,,"MET11912/22/17 21:53:02 METAR KSEA 230553Z 02008KT 10SM FEW020 BKN110 02/M01 A3029 RMK AO2 SLP266 T00171006 10033 20017 51010","FM-15","7",,,,,,,,,,,,,,,,,,,,,,,,,,,,"2007-05-17"
"72793024233","2017-12-22T22:00:00","FM-12","4",,,,,,,,,,,,,,,,,,,,,,,,,,,,,,,,,,,,,,,"31","35",,,"-0.03","1","85","30.32","26","29.80","9.94","33","020",,"9",,,,,,,,,,,,,,,,,,,,,,,,,,,,,,,,,,,,,"SYN08072793 32566 60208 10017 21006 30093 40266 51010 90553 333 10044 20017 555 92306=","FM-12","4",,,,,,,,,,,,,,,,,,,,,,,,,,,,"2007-05-17"
"72793024233","2017-12-22T22:53:00","FM-15","7",,,,,,,,,,,,,,,,,,,,,,,,,,,,,,,,,,,,,,"30.31","31","36","0.00",,,,"82","30.33","SCT:04 22 OVC:08 100","29.84","10.00","34","020",,"13",,,,,,,,,,,,,,,,,,,,,,,,,,,,,,,,,,,,,"MET10112/22/17 22:53:02 METAR KSEA 230653Z 02011KT 10SM SCT022 OVC100 02/M01 A3031 RMK AO2 SLP272 T00221006","FM-15","7",,,,,,,,,,,,,,,,,,,,,,,,,,,,"2007-05-17"
"72793024233","2017-12-22T23:00:00","FM-16","7",,,,,,,,,,,,,,,,,,,,,,,,,,,,,,,,,,,,,,"30.31","30","36",,,,,"79",,"OVC:08 23","29.84","10.00","34","010",,"11",,,,,,,,,,,,,,,,,,,,,,,,,,,,,,,,,,,,,"MET08712/22/17 23:00:02 SPECI KSEA 230700Z 01010KT 10SM OVC023 02/M01 A3031 RMK AO2 T00221011","FM-16","7",,,,,,,,,,,,,,,,,,,,,,,,,,,,"2007-05-17"
"72793024233","2017-12-22T23:53:00","FM-15","7",,,,,,,,,,,,,,,,,,,,,,,,,,,,,,,,,,,,,,"30.32","28","36","0.00",,,,"73","30.35","BKN:07 26 OVC:08 100","29.85","10.00","33","360",,"13",,,,,,,,,,,,,,,,,,,,,,,,,,,,,,,,,,,,,"MET11112/22/17 23:53:02 METAR KSEA 230753Z 36011KT 10SM BKN026 OVC100 02/M02 A3032 RMK AO2 SLP276 T00221022 400440017","FM-15","7",,,,,,,,,,,,,,,,,,,,,,,,,,,,"2007-05-17"
"72793024233","2017-12-22T23:59:00","SOD  ","6",,,,,,,,,,,,,,,"33","38","84","30.27","29.77","36","7.3","0","-2.1","27","40","35","360","20","0.09","0","0.0","360","17","RA DZ BR",,,,,,,,,,,,,,,,,,,,,,,,,,,,,,,,,,,,,,,,,,,,,,,,,,,,,,,,"SOD77524 HR PRECIPITATION (IN): 0.09 WEATHER(CODE):1  24 HR MAX TEMP (F):40 24 HR MAX TEMP TIME (LST):1228 24 HR MIN TEMP (F):35 24 HR MIN TEMP TIME (LST):2359 AVERAGE STATION PRESSURE(D):29.766 MINIMUM SEA LEVEL PRESSURE:30.22 TIME OF OCCURRENCE:0811 PEAK WIND SPEED (MPH):20  PEAK WIND DIR (DEG):360 PEAK WIND TIME (LST):2342  FASTEST 2MIN SPEED (MPH):17 FASTEST 2MIN DIR (DEG):360 FASTEST 2MIN TIME (LST):2343 AVERAGE WIND SPEED (MPH): 7.3 24 HR AVG TEMP (F):38 DEPART FROM NORMAL:  -2 HEATING DEGREE DAYS: 27 COOLING DEGREE DAYS:  0 LATEST DAY MAX TEMP (0700-1900 LST): 40 LATEST NIGHT MIN TEMP(1900-0800 LST):37 HOURLY INCREMENTAL PRECIPITATION VALUES (IN):0.01 0.01 0.01 0.01 0.02 0.02T     0.00 0.00T     0.01T    T     0.00 0.00 0.00 0.00 0.00 0.00 0.00 0.00 0.00 0.00 0.00","SOD  ","6",,,,,,,,,,,,,,,,,,,,,,,,,"0754","1621",,"2007-05-17"
"72793024233","2017-12-23T00:04:00","FM-16","7",,,,,,,,,,,,,,,,,,,,,,,,,,,,,,,,,,,,,,"30.32","28","35",,,,,"76",,"SCT:04 26 OVC:08 100","29.85","10.00","32","010",,"15",,,,,,,,,,,,,,,,,,,,,,,,,,,,,,,,,,,,,"MET09912/23/17 00:04:02 SPECI KSEA 230804Z 01013KT 10SM SCT026 OVC100 02/M02 A3032 RMK AO2 T00171022 (LC)","FM-16","7",,,,,,,,,,,,,,,,,,,,,,,,,,,,"2007-05-17"
"72793024233","2017-12-23T00:53:00","FM-15","7",,,,,,,,,,,,,,,,,,,,,,,,,,,,,,,,,,,,,,"30.33","25","34","0.00",,"-0.04","1","70","30.36","SCT:04 32 BKN:07 100","29.86","10.00","31","360",,"13",,,,,,,,,,,,,,,,,,,,,,,,,,,,,,,,,,,,,"MET11212/23/17 00:53:02 METAR KSEA 230853Z 36011KT 10SM SCT032 BKN100 01/M04 A3033 RMK AO2 SLP281 T00111039 51015 (LC)","FM-15","7",,,,,,,,,,,,,,,,,,,,,,,,,,,,"2007-05-17"
"72793024233","2017-12-23T01:53:00","FM-15","7",,,,,,,,,,,,,,,,,,,,,,,,,,,,,,,,,,,,,,"30.35","25","34","0.00",,,,"70","30.38","BKN:07 95","29.88","10.00","31","010",,"15",,,,,,,,,,,,,,,,,,,,,,,,,,,,,,,,,,,,,"MET09912/23/17 01:53:02 METAR KSEA 230953Z 01013KT 10SM BKN095 01/M04 A3035 RMK AO2 SLP287 T00111039 (LC)","FM-15","7",,,,,,,,,,,,,,,,,,,,,,,,,,,,"2007-05-17"
"72793024233","2017-12-23T02:53:00","FM-15","7",,,,,,,,,,,,,,,,,,,,,,,,,,,,,,,,,,,,,,"30.37","24","34","0.00",,,,"67","30.40","BKN:07 95","29.90","10.00","30","010",,"18",,,,,,,,,,,,,,,,,,,,,,,,,,,,,,,,,,,,,"MET09912/23/17 02:53:02 METAR KSEA 231053Z 01016KT 10SM BKN095 01/M04 A3037 RMK AO2 SLP294 T00111044 (LC)","FM-15","7",,,,,,,,,,,,,,,,,,,,,,,,,,,,"2007-05-17"
"72793024233","2017-12-23T03:53:00","FM-15","7",,,,,,,,,,,,,,,,,,,,,,,,,,,,,,,,,,,,,,"30.38","21","33","0.00",,"-0.04","1","61","30.41","FEW:02 30 SCT:04 90","29.91","10.00","29","020",,"17",,,,,,,,,,,,,,,,,,,,,,,,,,,,,,,,,,,,,"MET13012/23/17 03:53:02 METAR KSEA 231153Z 02015KT 10SM FEW030 SCT090 01/M06 A3038 RMK AO2 SLP298 70005 T00061061 10022 20006 51015 (LC)","FM-15","7",,,,,,,,,,,,,,,,,,,,,,,,,,,,"2007-05-17"
"72793024233","2017-12-23T04:00:00","FM-12","4",,,,,,,,,,,,,,,,,,,,,,,,,,,,,,,,,,,,,,,"21","33",,,"-0.04","1","61","30.41","26","29.89","9.94","29","020",,"17",,,,,,,,,,,,,,,,,,,,,,,,,,,,,,,,,,,,,"SYN08672793 32566 40215 10006 21061 30123 40298 51015 91153 333 10044 20006 70013 555 92312=","FM-12","4",,,,,,,,,,,,,,,,,,,,,,,,,,,,"2007-05-17"
"72793024233","2017-12-23T04:53:00","FM-15","7",,,,,,,,,,,,,,,,,,,,,,,,,,,,,,,,,,,,,,"30.39","21","31","0.00",,,,"67","30.42","FEW:02 90","29.92","10.00","28","010",,"13",,,,,,,,,,,,,,,,,,,,,,,,,,,,,,,,,,,,,"MET10012/23/17 04:53:02 METAR KSEA 231253Z 01011KT 10SM FEW090 M01/M06 A3039 RMK AO2 SLP302 T10061061 (LC)","FM-15","7",,,,,,,,,,,,,,,,,,,,,,,,,,,,"2007-05-17"
"72793024233","2017-12-23T05:53:00","FM-15","7",,,,,,,,,,,,,,,,,,,,,,,,,,,,,,,,,,,,,,"30.39","23","30","0.00",,,,"75","30.42","CLR:00","29.92","10.00","28","010",,"10",,,,,,,,,,,,,,,,,,,,,,,,,,,,,,,,,,,,,"MET09712/23/17 05:53:02 METAR KSEA 231353Z 01009KT 10SM CLR M01/M05 A3039 RMK AO2 SLP303 T10111050 (TL)","FM-15","7",,,,,,,,,,,,,,,,,,,,,,,,,,,,"2007-05-17"
"72793024233","2017-12-23T06:53:00","FM-15","7",,,,,,,,,,,,,,,,,,,,,,,,,,,,,,,,,,,,,,"30.40","22","30","0.00",,"-0.02","1","72","30.43","CLR:00","29.93","10.00","27","020",,"13",,,,,,,,,,,,,,,,,,,,,,,,,,,,,,,,,,,,,"MET10312/23/17 06:53:02 METAR KSEA 231453Z 02011KT 10SM CLR M01/M06 A3040 RMK AO2 SLP304 T10111056 51007 (TL)","FM-15","7",,,,,,,,,,,,,,,,,,,,,,,,,,,,"2007-05-17"
"72793024233","2017-12-23T07:53:00","FM-15","7",,,,,,,,,,,,,,,,,,,,,,,,,,,,,,,,,,,,,,"30.40","23","30","0.00",,,,"75","30.43","FEW:02 20","29.93","10.00","28","020",,"11",,,,,,,,,,,,,,,,,,,,,,,,,,,,,,,,,,,,,"MET10012/23/17 07:53:02 METAR KSEA 231553Z 02010KT 10SM FEW020 M01/M05 A3040 RMK AO2 SLP306 T10111050 (TL)","FM-15","7",,,,,,,,,,,,,,,,,,,,,,,,,,,,"2007-05-17"
"72793024233","2017-12-23T08:53:00","FM-15","7",,,,,,,,,,,,,,,,,,,,,,,,,,,,,,,,,,,,,,"30.43","23","31","0.00",,,,"72","30.46","FEW:02 12","29.96","10.00","28","010",,"11",,,,,,,,,,,,,,,,,,,,,,,,,,,,,,,,,,,,,"MET10012/23/17 08:53:02 METAR KSEA 231653Z 01010KT 10SM FEW012 M01/M05 A3043 RMK AO2 SLP316 T10061050 (TL)","FM-15","7",,,,,,,,,,,,,,,,,,,,,,,,,,,,"2007-05-17"
"72793024233","2017-12-23T09:53:00","FM-15","7",,,,,,,,,,,,,,,,,,,,,,,,,,,,,,,,,,,,,,"30.47","23","33","0.00",,"-0.06","3","66","30.50","FEW:02 12","30.00","10.00","29","020",,"13",,,,,,,,,,,,,,,,,,,,,,,,,,,,,,,,,,,,,"MET11712/23/17 09:53:02 METAR KSEA 231753Z 02011KT 10SM FEW012 01/M05 A3047 RMK AO2 SLP327 T00061050 10006 21017 53022 (TL)","FM-15","7",,,,,,,,,,,,,,,,,,,,,,,,,,,,"2007-05-17"
"72793024233","2017-12-23T10:00:00","FM-12","4",,,,,,,,,,,,,,,,,,,,,,,,,,,,,,,,,,,,,,,"23","33",,,"-0.06","3","66","30.50","15","29.98","9.94","29","020",,"13",,,,,,,,,,,,,,,,,,,,,,,,,,,,,,,,,,,,,"SYN08072793 32466 20211 10006 21050 30153 40327 53022 91753 333 10022 21017 555 92318=","FM-12","4",,,,,,,,,,,,,,,,,,,,,,,,,,,,"2007-05-17"
"72793024233","2017-12-23T10:53:00","FM-15","7",,,,,,,,,,,,,,,,,,,,,,,,,,,,,,,,,,,,,,"30.49","25","35","0.00",,,,"67","30.52","FEW:02 12","30.02","10.00","31","020",,"11",,,,,,,,,,,,,,,,,,,,,,,,,,,,,,,,,,,,,"MET09912/23/17 10:53:02 METAR KSEA 231853Z 02010KT 10SM FEW012 02/M04 A3049 RMK AO2 SLP334 T00171039 (TL)","FM-15","7",,,,,,,,,,,,,,,,,,,,,,,,,,,,"2007-05-17"
"72793024233","2017-12-23T11:53:00","FM-15","7",,,,,,,,,,,,,,,,,,,,,,,,,,,,,,,,,,,,,,"30.48","26","36","0.00",,,,"67","30.51","FEW:02 20","30.01","10.00","32","020",,"13",,,,,,,,,,,,,,,,,,,,,,,,,,,,,,,,,,,,,"MET09912/23/17 11:53:02 METAR KSEA 231953Z 02011KT 10SM FEW020 02/M03 A3048 RMK AO2 SLP333 T00221033 (TL)","FM-15","7",,,,,,,,,,,,,,,,,,,,,,,,,,,,"2007-05-17"
"72793024233","2017-12-23T12:53:00","FM-15","7",,,,,,,,,,,,,,,,,,,,,,,,,,,,,,,,,,,,,,"30.47","27","37","0.00",,"-0.00","0","67","30.50","CLR:00","30.00","10.00","33","020",,"13",,,,,,,,,,,,,,,,,,,,,,,,,,,,,,,,,,,,,"MET10212/23/17 12:53:02 METAR KSEA 232053Z 02011KT 10SM CLR 03/M03 A3047 RMK AO2 SLP328 T00281028 50000 (TL)","FM-15","7",,,,,,,,,,,,,,,,,,,,,,,,,,,,"2007-05-17"
"72793024233","2017-12-23T13:53:00","FM-15","7",,,,,,,,,,,,,,,,,,,,,,,,,,,,,,,,,,,,,,"30.45","25","38","0.00",,,,"60","30.48","CLR:00","29.98","10.00","33","360",,"14",,,,,,,,,,,,,,,,,,,,,,,,,,,,,,,,,,,,,"MET09612/23/17 13:53:02 METAR KSEA 232153Z 36012KT 10SM CLR 03/M04 A3045 RMK AO2 SLP322 T00331039 (RT)","FM-15","7",,,,,,,,,,,,,,,,,,,,,,,,,,,,"2007-05-17"
"72793024233","2017-12-23T14:53:00","FM-15","7",,,,,,,,,,,,,,,,,,,,,,,,,,,,,,,,,,,,,,"30.45","24","38","0.00",,,,"57","30.48","FEW:02 20 FEW:02 120","29.98","10.00","33","350",,"13",,,,,,,,,,,,,,,,,,,,,,,,,,,,,,,,,,,,,"MET10612/23/17 14:53:02 METAR KSEA 232253Z 35011KT 10SM FEW020 FEW120 03/M04 A3045 RMK AO2 SLP323 T00331044 (RT)","FM-15","7",,,,,,,,,,,,,,,,,,,,,,,,,,,,"2007-05-17"
"72793024233","2017-12-23T15:53:00","FM-15","7",,,,,,,,,,,,,,,,,,,,,,,,,,,,,,,,,,,,,,"30.46","23","36","0.00",,"+0.01","5","59","30.49","FEW:02 120 FEW:02 250","29.99","10.00","31","010",,"13",,,,,,,,,,,,,,,,,,,,,,,,,,,,,,,,,,,,,"MET12412/23/17 15:53:02 METAR KSEA 232353Z 01011KT 10SM FEW120 FEW250 02/M05 A3046 RMK AO2 SLP324 T00221050 10033 20006 55003 (RT)","FM-15","7",,,,,,,,,,,,,,,,,,,,,,,,,,,,"2007-05-17"
"72793024233","2017-12-23T16:00:00","FM-12","4",,,,,,,,,,,,,,,,,,,,,,,,,,,,,,,,,,,,,,,"23","36",,,"+0.01","5","59","30.49",,"29.97","9.94","31","010",,"13",,,,,,,,,,,,,,,,,,,,,,,,,,,,,,,,,,,,,"SYN08072793 32966 20111 10022 21050 30150 40324 55003 92353 333 10033 20006 555 92400=","FM-12","4",,,,,,,,,,,,,,,,,,,,,,,,,,,,"2007-05-17"
"72793024233","2017-12-23T16:53:00","FM-15","7",,,,,,,,,,,,,,,,,,,,,,,,,,,,,,,,,,,,,,"30.46","22","34","0.00",,,,"61","30.49","FEW:02 120","29.99","10.00","30","020",,"13",,,,,,,,,,,,,,,,,,,,,,,,,,,,,,,,,,,,,"MET09412/23/17 16:53:01 METAR KSEA 240053Z 02011KT 10SM FEW120 01/M06 A3046 RMK AO2 SLP325 T00111056","FM-15","7",,,,,,,,,,,,,,,,,,,,,,,,,,,,"2007-05-17"
"72793024233","2017-12-23T17:53:00","FM-15","7",,,,,,,,,,,,,,,,,,,,,,,,,,,,,,,,,,,,,,"30.45","21","33","0.00",,,,"61","30.48","FEW:02 120","29.98","10.00","29","030",,"10",,,,,,,,,,,,,,,,,,,,,,,,,,,,,,,,,,,,,"MET09412/23/17 17:53:01 METAR KSEA 240153Z 03009KT 10SM FEW120 01/M06 A3045 RMK AO2 SLP323 T00061061","FM-15","7",,,,,,,,,,,,,,,,,,,,,,,,,,,,"2007-05-17"
"72793024233","2017-12-23T18:53:00","FM-15","7",,,,,,,,,,,,,,,,,,,,,,,,,,,,,,,,,,,,,,"30.44","21","32","0.00",,"+0.02","8","64","30.47","FEW:02 120","29.97","10.00","28","030",,"9",,,,,,,,,,,,,,,,,,,,,,,,,,,,,,,,,,,,,"MET10012/23/17 18:53:02 METAR KSEA 240253Z 03008KT 10SM FEW120 00/M06 A3044 RMK AO2 SLP318 T00001061 58007","FM-15","7",,,,,,,,,,,,,,,,,,,,,,,,,,,,"2007-05-17"
"72793024233","2017-12-23T19:53:00","FM-15","7",,,,,,,,,,,,,,,,,,,,,,,,,,,,,,,,,,,,,,"30.42","21","32","0.00",,,,"64","30.46","CLR:00","29.95","10.00","28","020",,"8",,,,,,,,,,,,,,,,,,,,,,,,,,,,,,,,,,,,,"MET09112/23/17 19:53:02 METAR KSEA 240353Z 02007KT 10SM CLR 00/M06 A3042 RMK AO2 SLP314 T00001061","FM-15","7",,,,,,,,,,,,,,,,,,,,,,,,,,,,"2007-05-17"
"72793024233","2017-12-23T20:53:00","FM-15","7",,,,,,,,,,,,,,,,,,,,,,,,,,,,,,,,,,,,,,"30.41","21","30","0.00",,,,"69","30.45","FEW:02 250","29.94","10.00","27","030",,"8",,,,,,,,,,,,,,,,,,,,,,,,,,,,,,,,,,,,,"MET09512/23/17 20:53:02 METAR KSEA 240453Z 03007KT 10SM FEW250 M01/M06 A3041 RMK AO2 SLP310 T10111061","FM-15","7",,,,,,,,,,,,,,,,,,,,,,,,,,,,"2007-05-17"
"72793024233","2017-12-23T21:53:00","FM-15","7",,,,,,,,,,,,,,,,,,,,,,,,,,,,,,,,,,,,,,"30.41","19","30","0.00",,"+0.03","6","64","30.44","FEW:02 250","29.94","10.00","26","020",,"6",,,,,,,,,,,,,,,,,,,,,,,,,,,,,,,,,,,,,"MET11312/23/17 21:53:02 METAR KSEA 240553Z 02005KT 10SM FEW250 M01/M07 A3041 RMK AO2 SLP308 T10111072 10022 21017 56009","FM-15","7",,,,,,,,,,,,,,,,,,,,,,,,,,,,"2007-05-17"
"72793024233","2017-12-23T22:00:00","FM-12","4",,,,,,,,,,,,,,,,,,,,,,,,,,,,,,,,,,,,,,,"19","30",,,"+0.03","6","64","30.44",,"29.92","9.94","26","020",,"6",,,,,,,,,,,,,,,,,,,,,,,,,,,,,,,,,,,,,"SYN08072793 32966 20205 11011 21072 30133 40308 56009 90553 333 10022 21017 555 92406=","FM-12","4",,,,,,,,,,,,,,,,,,,,,,,,,,,,"2007-05-17"
"72793024233","2017-12-23T22:53:00","FM-15","7",,,,,,,,,,,,,,,,,,,,,,,,,,,,,,,,,,,,,,"30.41","18","31","0.00",,,,"59","30.44","FEW:02 250","29.94","10.00","27","050",,"9",,,,,,,,,,,,,,,,,,,,,,,,,,,,,,,,,,,,,"MET09512/23/17 22:53:02 METAR KSEA 240653Z 05008KT 10SM FEW250 M01/M08 A3041 RMK AO2 SLP309 T10061078","FM-15","7",,,,,,,,,,,,,,,,,,,,,,,,,,,,"2007-05-17"
"72793024233","2017-12-23T23:53:00","FM-15","7",,,,,,,,,,,,,,,,,,,,,,,,,,,,,,,,,,,,,,"30.40","18","30","0.00",,,,"61","30.43","CLR:00","29.93","10.00","26","020",,"7",,,,,,,,,,,,,,,,,,,,,,,,,,,,,,,,,,,,,"MET10212/23/17 23:53:02 METAR KSEA 240753Z 02006KT 10SM CLR M01/M08 A3040 RMK AO2 SLP305 T10111078 400331017","FM-15","7",,,,,,,,,,,,,,,,,,,,,,,,,,,,"2007-05-17"
"72793024233","2017-12-23T23:59:00","SOD  ","6",,,,,,,,,,,,,,,"23","34","65","30.45","29.95","29","11.7","0","-6.2","31","38","29","020","24","0.00","0","0.0","010","21",,,,,,,,,,,,,,,,,,,,,,,,,,,,,,,,,,,,,,,,,,,,,,,,,,,,,,,,,"SOD75824 HR PRECIPITATION (IN): 0.00 24 HR MAX TEMP (F):38 24 HR MAX TEMP TIME (LST):1523 24 HR MIN TEMP (F):29 24 HR MIN TEMP TIME (LST):2359 AVERAGE STATION PRESSURE(D):29.946 MINIMUM SEA LEVEL PRESSURE:30.34 TIME OF OCCURRENCE:0016 PEAK WIND SPEED (MPH):24  PEAK WIND DIR (DEG): 20 PEAK WIND TIME (LST):0250  FASTEST 2MIN SPEED (MPH):21 FASTEST 2MIN DIR (DEG): 10 FASTEST 2MIN TIME (LST):0322 AVERAGE WIND SPEED (MPH):11.7 24 HR AVG TEMP (F):34 DEPART FROM NORMAL:  -6 HEATING DEGREE DAYS: 31 COOLING DEGREE DAYS:  0 LATEST DAY MAX TEMP (0700-1900 LST): 38 LATEST NIGHT MIN TEMP(1900-0800 LST):29 HOURLY INCREMENTAL PRECIPITATION VALUES (IN):0.00 0.00 0.00 0.00 0.00 0.00 0.00 0.00 0.00 0.00 0.00 0.00 0.00 0.00 0.00 0.00 0.00 0.00 0.00 0.00 0.00 0.00 0.00 0.00","SOD  ","6",,,,,,,,,,,,,,,,,,,,,,,,,"0755","1622",,"2007-05-17"
"72793024233","2017-12-24T00:53:00","FM-15","7",,,,,,,,,,,,,,,,,,,,,,,,,,,,,,,,,,,,,,"30.39","16","32","0.00",,"+0.02","8","52","30.42","CLR:00","29.92","10.00","27","070",,"13",,,,,,,,,,,,,,,,,,,,,,,,,,,,,,,,,,,,,"MET10212/24/17 00:53:02 METAR KSEA 240853Z 07011KT 10SM CLR 00/M09 A3039 RMK AO2 SLP301 T00001089 58007 (LC)","FM-15","7",,,,,,,,,,,,,,,,,,,,,,,,,,,,"2007-05-17"
"72793024233","2017-12-24T01:53:00","FM-15","7",,,,,,,,,,,,,,,,,,,,,,,,,,,,,,,,,,,,,,"30.37","16","32","0.00",,,,"52","30.40","FEW:02 200","29.90","10.00","27","060",,"9",,,,,,,,,,,,,,,,,,,,,,,,,,,,,,,,,,,,,"MET09912/24/17 01:53:02 METAR KSEA 240953Z 06008KT 10SM FEW200 00/M09 A3037 RMK AO2 SLP295 T00001089 (LC)","FM-15","7",,,,,,,,,,,,,,,,,,,,,,,,,,,,"2007-05-17"
"72793024233","2017-12-24T02:53:00","FM-15","7",,,,,,,,,,,,,,,,,,,,,,,,,,,,,,,,,,,,,,"30.36","14","32","0.00",,,,"47","30.39","SCT:04 210","29.89","10.00","26","070",,"9",,,,,,,,,,,,,,,,,,,,,,,,,,,,,,,,,,,,,"MET09912/24/17 02:53:02 METAR KSEA 241053Z 07008KT 10SM SCT210 00/M10 A3036 RMK AO2 SLP290 T00001100 (LC)","FM-15","7",,,,,,,,,,,,,,,,,,,,,,,,,,,,"2007-05-17"
"72793024233","2017-12-24T03:53:00","FM-15","7",,,,,,,,,,,,,,,,,,,,,,,,,,,,,,,,,,,,,,"30.33","14","32","0.00",,"+0.06","8","47","30.36","BKN:07 210","29.86","10.00","26","060",,"9",,,,,,,,,,,,,,,,,,,,,,,,,,,,,,,,,,,,,"MET11712/24/17 03:53:02 METAR KSEA 241153Z 06008KT 10SM BKN210 00/M10 A3033 RMK AO2 SLP281 T00001100 10006 21022 58020 (LC)","FM-15","7",,,,,,,,,,,,,,,,,,,,,,,,,,,,"2007-05-17"
"72793024233","2017-12-24T04:00:00","FM-12","4",,,,,,,,,,,,,,,,,,,,,,,,,,,,,,,,,,,,,,,"14","32",,,"+0.06","8","47","30.36",,"29.84","9.94","26","060",,"9",,,,,,,,,,,,,,,,,,,,,,,,,,,,,,,,,,,,,"SYN08072793 32966 00608 10000 21100 30106 40281 58020 91153 333 10033 21022 555 92412=","FM-12","4",,,,,,,,,,,,,,,,,,,,,,,,,,,,"2007-05-17"
"72793024233","2017-12-24T04:53:00","FM-15","7",,,,,,,,,,,,,,,,,,,,,,,,,,,,,,,,,,,,,,"30.30","13","32","0.00",,,,"45","30.33","OVC:08 160","29.83","10.00","26","060",,"8",,,,,,,,,,,,,,,,,,,,,,,,,,,,,,,,,,,,,"MET09912/24/17 04:53:02 METAR KSEA 241253Z 06007KT 10SM OVC160 00/M11 A3030 RMK AO2 SLP270 T00001106 (LC)","FM-15","7",,,,,,,,,,,,,,,,,,,,,,,,,,,,"2007-05-17"
"72793024233","2017-12-24T05:53:00","FM-15","7",,,,,,,,,,,,,,,,,,,,,,,,,,,,,,,,,,,,,,"30.27","15","32","0.00",,,,"50","30.30","OVC:08 170","29.80","10.00","27","050",,"11",,,,,,,,,,,,,,,,,,,,,,,,,,,,,,,,,,,,,"MET09912/24/17 05:53:02 METAR KSEA 241353Z 05010KT 10SM OVC170 00/M09 A3027 RMK AO2 SLP261 T00001094 (LZ)","FM-15","7",,,,,,,,,,,,,,,,,,,,,,,,,,,,"2007-05-17"
"72793024233","2017-12-24T06:53:00","FM-15","7",,,,,,,,,,,,,,,,,,,,,,,,,,,,,,,,,,,,,,"30.25","13","33","0.00",,"+0.08","6","43","30.27","BKN:07 180","29.78","10.00","27","050",,"10",,,,,,,,,,,,,,,,,,,,,,,,,,,,,,,,,,,,,"MET10512/24/17 06:53:02 METAR KSEA 241453Z 05009KT 10SM BKN180 01/M11 A3025 RMK AO2 SLP252 T00061106 56028 (LZ)","FM-15","7",,,,,,,,,,,,,,,,,,,,,,,,,,,,"2007-05-17"
"72793024233","2017-12-24T07:53:00","FM-15","7",,,,,,,,,,,,,,,,,,,,,,,,,,,,,,,,,,,,,,"30.25","12","35","0.00",,,,"38","30.28","FEW:02 100 OVC:08 160","29.78","10.00","28","110",,"5",,,,,,,,,,,,,,,,,,,,,,,,,,,,,,,,,,,,,"MET10612/24/17 07:53:02 METAR KSEA 241553Z 11004KT 10SM FEW100 OVC160 02/M11 A3025 RMK AO2 SLP253 T00171111 (LZ)","FM-15","7",,,,,,,,,,,,,,,,,,,,,,,,,,,,"2007-05-17"
"72793024233","2017-12-24T08:53:00","FM-15","7",,,,,,,,,,,,,,,,,,,,,,,,,,,,,,,,,,,,,,"30.24","10","35","0.00",,,,"35","30.27","FEW:02 90 OVC:08 150","29.77","10.00","27","100",,"10",,,,,,,,,,,,,,,,,,,,,,,,,,,,,,,,,,,,,"MET10612/24/17 08:53:02 METAR KSEA 241653Z 10009KT 10SM FEW090 OVC150 02/M12 A3024 RMK AO2 SLP250 T00171122 (LZ)","FM-15","7",,,,,,,,,,,,,,,,,,,,,,,,,,,,"2007-05-17"
"72793024233","2017-12-24T09:53:00","FM-15","7",,,,,,,,,,,,,,,,,,,,,,,,,,,,,,,,,,,,,,"30.24","9","36","0.00",,"+0.00","5","32","30.27","FEW:02 80 OVC:08 140","29.77","10.00","28","120",,"7",,,,,,,,,,,,,,,,,,,,,,,,,,,,,,,,,,,,,"MET12412/24/17 09:53:02 METAR KSEA 241753Z 12006KT 10SM FEW080 OVC140 02/M13 A3024 RMK AO2 SLP252 T00221128 10022 20000 55000 (LZ)","FM-15","7",,,,,,,,,,,,,,,,,,,,,,,,,,,,"2007-05-17"
"72793024233","2017-12-24T10:00:00","FM-12","4",,,,,,,,,,,,,,,,,,,,,,,,,,,,,,,,,,,,,,,"9","36",,,"+0.00","5","32","30.27","74","29.75","9.94","28","120",,"7",,,,,,,,,,,,,,,,,,,,,,,,,,,,,,,,,,,,,"SYN08072793 32866 81206 10022 21128 30076 40252 55000 91753 333 10022 20000 555 92418=","FM-12","4",,,,,,,,,,,,,,,,,,,,,,,,,,,,"2007-05-17"
"72793024233","2017-12-24T10:53:00","FM-15","7",,,,,,,,,,,,,,,,,,,,,,,,,,,,,,,,,,,,,,"30.23","10","37","0.00",,,,"33","30.26","SCT:04 120 OVC:08 140","29.76","10.00","29","120",,"13",,,,,,,,,,,,,,,,,,,,,,,,,,,,,,,,,,,,,"MET10612/24/17 10:53:02 METAR KSEA 241853Z 12011KT 10SM SCT120 OVC140 03/M12 A3023 RMK AO2 SLP246 T00281122 (LZ)","FM-15","7",,,,,,,,,,,,,,,,,,,,,,,,,,,,"2007-05-17"
"72793024233","2017-12-24T11:53:00","FM-15","7",,,,,,,,,,,,,,,,,,,,,,,,,,,,,,,,,,,,,,"30.21","9","38","0.00",,,,"30","30.24","OVC:08 110","29.74","10.00","29","120",,"10",,,,,,,,,,,,,,,,,,,,,,,,,,,,,,,,,,,,,"MET09912/24/17 11:53:02 METAR KSEA 241953Z 12009KT 10SM OVC110 03/M13 A3021 RMK AO2 SLP240 T00331128 (LZ)","FM-15","7",,,,,,,,,,,,,,,,,,,,,,,,,,,,"2007-05-17"
"72793024233","2017-12-24T12:53:00","FM-15","7",,,,,,,,,,,,,,,,,,,,,,,,,,,,,,,,,,,,,,"30.20","10","38","0.00",,"+0.05","6","31","30.23","FEW:02 30 OVC:08 90","29.73","10.00","29","120",,"9",,,,,,,,,,,,,,,,,,,,,,,,,,,,,,,,,,,,,"MET11212/24/17 12:53:02 METAR KSEA 242053Z 12008KT 10SM FEW030 OVC090 03/M12 A3020 RMK AO2 SLP236 T00331122 56016 (LZ)","FM-15","7",,,,,,,,,,,,,,,,,,,,,,,,,,,,"2007-05-17"
"72793024233","2017-12-24T13:53:00","FM-15","7",,,,,,,,,,,,,,,,,,,,,,,,,,,,,,,,,,,,,,"30.19","11","37","0.00",,,,"34","30.22","BKN:07 50 OVC:08 75","29.72","10.00","29","140",,"10",,,,,,,,,,,,,,,,,,,,,,,,,,,,,,,,,,,,,"MET10612/24/17 13:53:02 METAR KSEA 242153Z 14009KT 10SM BKN050 OVC075 03/M12 A3019 RMK AO2 SLP233 T00281117 (TL)","FM-15","7",,,,,,,,,,,,,,,,,,,,,,,,,,,,"2007-05-17"
"72793024233","2017-12-24T14:51:00","FM-16","6",,,,,,,,,,,,,,,,,,,,,,,,,,,,,,,,,,,,,,"30.20","12","37",,"-SN:03 |SN |",,,"35",,"OVC:08 26","29.73","7.00","29","110",,"9",,,,,,,,,,,,,,,,,,,,,,,,,,,,,,,,,,,,,"MET10212/24/17 14:51:02 SPECI KSEA 242251Z 11008KT 7SM -SN OVC026 03/M11 A3020 RMK AO2 SNB48 P0000 FIBI (TL)","FM-16","6",,,,,,,,,,,,,,,,,,,,,,,,,,,,"2007-05-17"
"72793024233","2017-12-24T14:53:00","FM-15","7",,,,,,,,,,,,,,,,,,,,,,,,,,,,,,,,,,,,,,"30.20","13","37","T","-SN:03 |SN |",,,"37","30.23","OVC:08 26","29.73","6.00","29","120",,"8",,,,,,,,,,,,,,,,,,,,,,,,,,,,,,,,,,,,,"MET11412/24/17 14:53:02 METAR KSEA 242253Z 12007KT 6SM -SN OVC026 03/M11 A3020 RMK AO2 SNB48 SLP236 P0000 T00281106 (TL)","FM-15","7",,,,,,,,,,,,,,,,,,,,,,,,,,,,"2007-05-17"
"72793024233","2017-12-24T15:47:00","FM-16","7",,,,,,,,,,,,,,,,,,,,,,,,,,,,,,,,,,,,,,"30.20","25","34","T","-SN:03 |SN |",,,"70",,"OVC:08 24","29.73","2.00","31","100",,"9",,,,,,,,,,,,,,,,,,,,,,,,,,,,,,,,,,,,,"MET09112/24/17 15:47:02 SPECI KSEA 242347Z 10008KT 2SM -SN OVC024 01/M04 A3020 RMK AO2 P0000 (TL)","FM-16","7",,,,,,,,,,,,,,,,,,,,,,,,,,,,"2007-05-17"
"72793024233","2017-12-24T15:53:00","FM-15","7",,,,,,,,,,,,,,,,,,,,,,,,,,,,,,,,,,,,,,"30.20","26","32","T","-SN:03 |SN |","-0.01","0","79","30.23","OVC:08 20","29.73","2.00","30","110",,"10",,,,,,,,,,,,,,,,,,,,,,,,,,,,,,,,,,,,,"MET15012/24/17 15:53:02 METAR KSEA 242353Z 11009KT 2SM R16L/6000VP6000FT -SN OVC020 00/M03 A3020 RMK AO2 SLP236 P0000 60000 T00001033 10033 20000 50003 (TL)","FM-15","7",,,,,,,,,,,,,,,,,,,,,,,,,,,,"2007-05-17"
"72793024233","2017-12-24T15:59:00","FM-16","7",,,,,,,,,,,,,,,,,,,,,,,,,,,,,,,,,,,,,,"30.20","27","32","T","-SN:03 |SN |",,,"82",,"OVC:08 18","29.73","0.75","30","100",,"13",,,,,,,,,,,,,,,,,,,,,,,,,,,,,,,,,,,,,"MET12112/24/17 15:59:02 SPECI KSEA 242359Z 10011KT 3/4SM R16L/5500VP6000FT -SN OVC018 00/M03 A3020 RMK AO2 P0000 T00001028 (TL)","FM-16","7",,,,,,,,,,,,,,,,,,,,,,,,,,,,"2007-05-17"
"72793024233","2017-12-24T16:00:00","FM-12","4",,,,,,,,,,,,,,,,,,,,,,,,,,,,,,,,,,,,,,,"26","32",,,"0.01","9","79","30.23","26","29.72","1.99","30","110",,"10",,,,,,,,,,,,,,,,,,,,,,,,,,,,,,,,,,,,,"SYN09272793 11532 81109 10000 21033 30063 40236 50003 69901 771// 92353 333 10033 21021 555 92500=","FM-12","4",,,,,,,,,,,,,,,,,,,,,,,,,,,,"2007-05-17"
"72793024233","2017-12-24T16:14:00","FM-16","7",,,,,,,,,,,,,,,,,,,,,,,,,,,,,,,,,,,,,,"30.20","28","31","0.02","-SN:03 BR:1 |SN |",,,"89",,"OVC:08 14","29.73","0.75","30","110",,"14",,,,,,,,,,,,,,,,,,,,,,,,,,,,,,,,,,,,,"MET11912/24/17 16:14:01 SPECI KSEA 250014Z 11012KT 3/4SM R16L/5000V5500FT -SN BR OVC014 M01/M02 A3020 RMK AO2 P0002 T10061022","FM-16","7",,,,,,,,,,,,,,,,,,,,,,,,,,,,"2007-05-17"
"72793024233","2017-12-24T16:53:00","FM-15","7",,,,,,,,,,,,,,,,,,,,,,,,,,,,,,,,,,,,,,"30.18","28","31","0.06","-SN:03 BR:1 |SN |",,,"89","30.21","VV:09 14","29.71","1.00","30","100",,"9",,,,,,,,,,,,,,,,,,,,,,,,,,,,,,,,,,,,,"MET12412/24/17 16:53:01 METAR KSEA 250053Z 10008KT 1SM R16L/6000VP6000FT -SN BR VV014 M01/M02 A3018 RMK AO2 SLP231 P0006 T10061022","FM-15","7",,,,,,,,,,,,,,,,,,,,,,,,,,,,"2007-05-17"
"72793024233","2017-12-24T17:02:00","FM-16","7",,,,,,,,,,,,,,,,,,,,,,,,,,,,,,,,,,,,,,"30.18","28","31","T","-SN:03 BR:1 |SN |",,,"89",,"VV:09 15","29.71","1.00","30","090",,"9",,,,,,,,,,,,,,,,,,,,,,,,,,,,,,,,,,,,,"MET11212/24/17 17:02:01 SPECI KSEA 250102Z 09008KT 1SM R16L/P6000FT -SN BR VV015 M01/M02 A3018 RMK AO2 P0000 T10061022","FM-16","7",,,,,,,,,,,,,,,,,,,,,,,,,,,,"2007-05-17"
"72793024233","2017-12-24T17:25:00","FM-16","7",,,,,,,,,,,,,,,,,,,,,,,,,,,,,,,,,,,,,,"30.17","28","31","0.02","-SN:03 BR:1 |SN |",,,"89",,"FEW:02 4 OVC:08 21","29.70","1.00","30","090",,"11",,,,,,,,,,,,,,,,,,,,,,,,,,,,,,,,,,,,,"MET12012/24/17 17:25:01 SPECI KSEA 250125Z 09010KT 1SM R16L/P6000FT -SN BR FEW004 OVC021 M01/M02 A3017 RMK AO2 P0002 T10061022","FM-16","7",,,,,,,,,,,,,,,,,,,,,,,,,,,,"2007-05-17"
"72793024233","2017-12-24T17:53:00","FM-15","7",,,,,,,,,,,,,,,,,,,,,,,,,,,,,,,,,,,,,,"30.17","28","31","0.03","-SN:03 BR:1 |SN |",,,"89","30.20","FEW:02 4 SCT:04 14 OVC:08 28","29.70","1.00","30","070",,"7",,,,,,,,,,,,,,,,,,,,,,,,,,,,,,,,,,,,,"MET13412/24/17 17:53:01 METAR KSEA 250153Z 07006KT 1SM R16L/P6000FT -SN BR FEW004 SCT014 OVC028 M01/M02 A3017 RMK AO2 SLP227 P0003 T10061022","FM-15","7",,,,,,,,,,,,,,,,,,,,,,,,,,,,"2007-05-17"
"72793024233","2017-12-24T18:17:00","FM-16","7",,,,,,,,,,,,,,,,,,,,,,,,,,,,,,,,,,,,,,"30.17","28","31","0.01","-SN:03 BR:1 |SN |",,,"89",,"BKN:07 12 OVC:08 17","29.70","1.00","30","070",,"8",,,,,,,,,,,,,,,,,,,,,,,,,,,,,,,,,,,,,"MET12012/24/17 18:17:01 SPECI KSEA 250217Z 07007KT 1SM R16L/P6000FT -SN BR BKN012 OVC017 M01/M02 A3017 RMK AO2 P0001 T10061022","FM-16","7",,,,,,,,,,,,,,,,,,,,,,,,,,,,"2007-05-17"
"72793024233","2017-12-24T18:20:00","FM-16","7",,,,,,,,,,,,,,,,,,,,,,,,,,,,,,,,,,,,,,"30.16","28","31","0.01","-SN:03 BR:1 |SN |",,,"89",,"SCT:04 11 OVC:08 16","29.69","1.00","30","060",,"8",,,,,,,,,,,,,,,,,,,,,,,,,,,,,,,,,,,,,"MET12012/24/17 18:20:01 SPECI KSEA 250220Z 06007KT 1SM R16L/P6000FT -SN BR SCT011 OVC016 M01/M02 A3016 RMK AO2 P0001 T10061022","FM-16","7",,,,,,,,,,,,,,,,,,,,,,,,,,,,"2007-05-17"
"72793024233","2017-12-24T18:48:00","FM-16","7",,,,,,,,,,,,,,,,,,,,,,,,,,,,,,,,,,,,,,"30.16","28","30","0.02","-SN:03 BR:1 |SN |",,,"93",,"BKN:07 18 OVC:08 31","29.69","2.00","29","060",,"11",,,,,,,,,,,,,,,,,,,,,,,,,,,,,,,,,,,,,"MET09712/24/17 18:48:02 SPECI KSEA 250248Z 06010KT 2SM -SN BR BKN018 OVC031 M01/M02 A3016 RMK AO2 P0002","FM-16","7",,,,,,,,,,,,,,,,,,,,,,,,,,,,"2007-05-17"
"72793024233","2017-12-24T18:53:00","FM-15","7",,,,,,,,,,,,,,,,,,,,,,,,,,,,,,,,,,,,,,"30.16","28","31","0.02","-SN:03 BR:1 |SN |","+0.04","6","89","30.19","BKN:07 18 OVC:08 31","29.69","2.00","30","060",,"11",,,,,,,,,,,,,,,,,,,,,,,,,,,,,,,,,,,,,"MET12612/24/17 18:53:02 METAR KSEA 250253Z 06010KT 2SM -SN BR BKN018 OVC031 M01/M02 A3016 RMK AO2 SLP224 P0002 60011 T10061022 56012","FM-15","7",,,,,,,,,,,,,,,,,,,,,,,,,,,,"2007-05-17"
"72793024233","2017-12-24T19:29:00","FM-16","7",,,,,,,,,,,,,,,,,,,,,,,,,,,,,,,,,,,,,,"30.14","28","31","T","-SN:03 BR:1 |SN |",,,"89",,"OVC:08 28","29.67","5.00","30","060",,"9",,,,,,,,,,,,,,,,,,,,,,,,,,,,,,,,,,,,,"MET10012/24/17 19:29:02 SPECI KSEA 250329Z 06008KT 5SM -SN BR OVC028 M01/M02 A3014 RMK AO2 P0000 T10061022","FM-16","7",,,,,,,,,,,,,,,,,,,,,,,,,,,,"2007-05-17"
"72793024233","2017-12-24T19:53:00","FM-15","7",,,,,,,,,,,,,,,,,,,,,,,,,,,,,,,,,,,,,,"30.14","28","31","0.01","-SN:03 BR:1 |SN |",,,"89","30.17","OVC:08 24","29.67","3.00","30","050",,"7",,,,,,,,,,,,,,,,,,,,,,,,,,,,,,,,,,,,,"MET10712/24/17 19:53:02 METAR KSEA 250353Z 05006KT 3SM -SN BR OVC024 M01/M02 A3014 RMK AO2 SLP218 P0001 T10061022","FM-15","7",,,,,,,,,,,,,,,,,,,,,,,,,,,,"2007-05-17"
"72793024233","2017-12-24T20:09:00","FM-16","7",,,,,,,,,,,,,,,,,,,,,,,,,,,,,,,,,,,,,,"30.14","28","31","T","-SN:03 BR:1 |SN |",,,"89",,"OVC:08 22","29.67","2.00","30","040",,"6",,,,,,,,,,,,,,,,,,,,,,,,,,,,,,,,,,,,,"MET10012/24/17 20:09:02 SPECI KSEA 250409Z 04005KT 2SM -SN BR OVC022 M01/M02 A3014 RMK AO2 P0000 T10061022","FM-16","7",,,,,,,,,,,,,,,,,,,,,,,,,,,,"2007-05-17"
"72793024233","2017-12-24T20:14:00","FM-16","7",,,,,,,,,,,,,,,,,,,,,,,,,,,,,,,,,,,,,,"30.14","28","31","T","-SN:03 BR:1 |SN |",,,"89",,"OVC:08 22","29.67","5.00","30","080",,"5",,,,,,,,,,,,,,,,,,,,,,,,,,,,,,,,,,,,,"MET10012/24/17 20:14:02 SPECI KSEA 250414Z 08004KT 5SM -SN BR OVC022 M01/M02 A3014 RMK AO2 P0000 T10061022","FM-16","7",,,,,,,,,,,,,,,,,,,,,,,,,,,,"2007-05-17"
"72793024233","2017-12-24T20:53:00","FM-15","7",,,,,,,,,,,,,,,,,,,,,,,,,,,,,,,,,,,,,,"30.14","28","31","T","-SN:03 BR:1 |SN |",,,"89","30.17","BKN:07 17 OVC:08 35","29.67","3.00","30","040",,"7",,,,,,,,,,,,,,,,,,,,,,,,,,,,,,,,,,,,,"MET11412/24/17 20:53:02 METAR KSEA 250453Z 04006KT 3SM -SN BR BKN017 OVC035 M01/M02 A3014 RMK AO2 SLP217 P0000 T10061022","FM-15","7",,,,,,,,,,,,,,,,,,,,,,,,,,,,"2007-05-17"
"72793024233","2017-12-24T21:53:00","FM-15","7",,,,,,,,,,,,,,,,,,,,,,,,,,,,,,,,,,,,,,"30.15","29","31","T","BR:1 ||","+0.01","5","92","30.18","OVC:08 15","29.68","3.00","30","080",,"8",,,,,,,,,,,,,,,,,,,,,,,,,,,,,,,,,,,,,"MET13912/24/17 21:53:02 METAR KSEA 250553Z 08007KT 3SM BR OVC015 M01/M02 A3015 RMK AO2 SNE45 SLP219 P0000 60012 4/002 T10061017 10000 21006 55005","FM-15","7",,,,,,,,,,,,,,,,,,,,,,,,,,,,"2007-05-17"
"72793024233","2017-12-24T22:00:00","FM-12","4",,,,,,,,,,,,,,,,,,,,,,,,,,,,,,,,,,,,,,,"29","31",,,"+0.01","5","92","30.18","15","29.67","2.98","30","080",,"8",,,,,,,,,,,,,,,,,,,,,,,,,,,,,,,,,,,,,"SYN09872793 11448 80807 11006 21017 30046 40219 55005 60031 710// 90553 333 10006 21022 4/005 555 92506=","FM-12","4",,,,,,,,,,,,,,,,,,,,,,,,,,,,"2007-05-17"
"72793024233","2017-12-24T22:43:00","FM-16","7",,,,,,,,,,,,,,,,,,,,,,,,,,,,,,,,,,,,,,"30.15","29","32","T","-SN:03 BR:1 |SN |",,,"88",,"FEW:02 5 OVC:08 17","29.68","1.50","31","080",,"7",,,,,,,,,,,,,,,,,,,,,,,,,,,,,,,,,,,,,"MET11612/24/17 22:43:02 SPECI KSEA 250643Z 08006KT 1 1/2SM -SN BR FEW005 OVC017 00/M02 A3015 RMK AO2 SNB38 P0000 T00001017","FM-16","7",,,,,,,,,,,,,,,,,,,,,,,,,,,,"2007-05-17"
"72793024233","2017-12-24T22:53:00","FM-15","7",,,,,,,,,,,,,,,,,,,,,,,,,,,,,,,,,,,,,,"30.15","29","32","T","-SN:03 BR:1 |SN |",,,"88","30.18","FEW:02 5 OVC:08 17","29.68","1.50","31","090",,"7",,,,,,,,,,,,,,,,,,,,,,,,,,,,,,,,,,,,,"MET12312/24/17 22:53:02 METAR KSEA 250653Z 09006KT 1 1/2SM -SN BR FEW005 OVC017 00/M02 A3015 RMK AO2 SNB38 SLP221 P0000 T00001017","FM-15","7",,,,,,,,,,,,,,,,,,,,,,,,,,,,"2007-05-17"
"72793024233","2017-12-24T23:22:00","FM-16","7",,,,,,,,,,,,,,,,,,,,,,,,,,,,,,,,,,,,,,"30.15","30","32","T","-SN:03 BR:1 |SN |",,,"92",,"BKN:07 6 OVC:08 15","29.68","1.00","31","090",,"6",,,,,,,,,,,,,,,,,,,,,,,,,,,,,,,,,,,,,"MET13012/24/17 23:22:02 SPECI KSEA 250722Z 09005KT 1SM R16L/P6000FT -SN BR BKN006 OVC015 00/M01 A3015 RMK AO2 SNE0656B20 P0000 T00001011","FM-16","7",,,,,,,,,,,,,,,,,,,,,,,,,,,,"2007-05-17"
"72793024233","2017-12-24T23:51:00","FM-15","7",,,,,,,,,,,,,,,,,,,,,,,,,,,,,,,,,,,,,,"30.14","29","32","T","-SN:03 BR:1 |SN |",,,"88","30.17","BKN:07 6 BKN:07 12 OVC:08 23","29.67","1.00","31","090",,"7",,,,,,,,,,,,,,,,,,,,,,,,,,,,,,,,,,,,,"MET15412/24/17 23:51:02 METAR KSEA 250751Z 09006KT 1SM R16L/P6000FT -SN BR BKN006 BKN012 OVC023 00/M02 A3014 RMK AO2 SNE0656B20 SLP218 P0000 T00001017 400331022","FM-15","7",,,,,,,,,,,,,,,,,,,,,,,,,,,,"2007-05-17"
"72793024233","2017-12-24T23:59:00","SOD  ","6",,,,,,,,,,,,,,,"18","33","59","30.26","29.74","29","8.7","0","-7.2","32","38","28","120","20","0.12","0","1.6","070","17","SN BR",,,,,,,,,,,,,,,,,,,,,,,,,,,,,,,,,,,,,,,,,,,,,,,,,,,,,,,,"SOD77324 HR PRECIPITATION (IN): 0.12 WEATHER(CODE):1,8  24 HR MAX TEMP (F):38 24 HR MAX TEMP TIME (LST):1520 24 HR MIN TEMP (F):28 24 HR MIN TEMP TIME (LST):0012 AVERAGE STATION PRESSURE(D):29.737 MINIMUM SEA LEVEL PRESSURE:30.17 TIME OF OCCURRENCE:2359 PEAK WIND SPEED (MPH):20  PEAK WIND DIR (DEG):120 PEAK WIND TIME (LST):1024  FASTEST 2MIN SPEED (MPH):17 FASTEST 2MIN DIR (DEG): 70 FASTEST 2MIN TIME (LST):0105 AVERAGE WIND SPEED (MPH): 8.7 24 HR AVG TEMP (F):33 DEPART FROM NORMAL:  -7 HEATING DEGREE DAYS: 32 COOLING DEGREE DAYS:  0 LATEST DAY MAX TEMP (0700-1900 LST): 38 LATEST NIGHT MIN TEMP(1900-0800 LST):28 HOURLY INCREMENTAL PRECIPITATION VALUES (IN):0.00 0.00 0.00 0.00 0.00 0.00 0.00 0.00 0.00 0.00 0.00 0.00 0.00 0.00T    T     0.06 0.03 0.02 0.01T    T    T    T","SOD  ","6",,,,,,,,,,,,,,,,,,,,,,,,,"0755","1622",,"2007-05-17"
"72793024233","2017-12-25T00:16:00","FM-16","7",,,,,,,,,,,,,,,,,,,,,,,,,,,,,,,,,,,,,,"30.14","29","32","T","-SN:03 BR:1 |SN |",,,"88",,"BKN:07 3 BKN:07 17 OVC:08 25","29.67","1.00","31","110",,"7",,,,,,,,,,,,,,,,,,,,,,,,,,,,,,,,,,,,,"MET14212/25/17 00:16:02 SPECI KSEA 250816Z 11006KT 1SM R16L/P6000FT -SN BR BKN003 BKN017 OVC025 00/M02 A3014 RMK AO2 SNE0756B15 P0000 T00001017 (LC)","FM-16","7",,,,,,,,,,,,,,,,,,,,,,,,,,,,"2007-05-17"
"72793024233","2017-12-25T00:51:00","FM-16","7",,,,,,,,,,,,,,,,,,,,,,,,,,,,,,,,,,,,,,"30.15","28","32","T","-SN:03 BR:1 |SN |",,,"87",,"SCT:04 3 BKN:07 10 OVC:08 15","29.68","2.00","31","130",,"6",,,,,,,,,,,,,,,,,,,,,,,,,,,,,,,,,,,,,"MET11912/25/17 00:51:02 SPECI KSEA 250851Z 13005KT 2SM -SN BR SCT003 BKN010 OVC015 00/M02 A3015 RMK AO2 SNE0756B15 P0000 (LC)","FM-16","7",,,,,,,,,,,,,,,,,,,,,,,,,,,,"2007-05-17"
"72793024233","2017-12-25T00:53:00","FM-15","7",,,,,,,,,,,,,,,,,,,,,,,,,,,,,,,,,,,,,,"30.15","28","32","T","-SN:03 BR:1 |SN |","-0.01","3","85","30.18","SCT:04 3 BKN:07 10 OVC:08 15","29.68","2.00","31","120",,"6",,,,,,,,,,,,,,,,,,,,,,,,,,,,,,,,,,,,,"MET14812/25/17 00:53:02 METAR KSEA 250853Z 12005KT 2SM -SN BR SCT003 BKN010 OVC015 00/M02 A3015 RMK AO2 SNE0756B15 SLP221 P0000 60000 T00001022 53002 (LC)","FM-15","7",,,,,,,,,,,,,,,,,,,,,,,,,,,,"2007-05-17"
"72793024233","2017-12-25T01:28:00","FM-16","7",,,,,,,,,,,,,,,,,,,,,,,,,,,,,,,,,,,,,,"30.15","28","32","T","-SN:03 BR:1 |SN |",,,"85",,"FEW:02 3 OVC:08 15","29.68","3.00","31","100",,"7",,,,,,,,,,,,,,,,,,,,,,,,,,,,,,,,,,,,,"MET11112/25/17 01:28:02 SPECI KSEA 250928Z 10006KT 3SM -SN BR FEW003 OVC015 00/M02 A3015 RMK AO2 P0000 T00001022 (LC)","FM-16","7",,,,,,,,,,,,,,,,,,,,,,,,,,,,"2007-05-17"
"72793024233","2017-12-25T01:53:00","FM-15","7",,,,,,,,,,,,,,,,,,,,,,,,,,,,,,,,,,,,,,"30.16","29","32","0.01","-SN:03 BR:1 |SN |",,,"88","30.19","FEW:02 3 OVC:08 15","29.69","3.00","31","090",,"5",,,,,,,,,,,,,,,,,,,,,,,,,,,,,,,,,,,,,"MET11812/25/17 01:53:02 METAR KSEA 250953Z 09004KT 3SM -SN BR FEW003 OVC015 00/M02 A3016 RMK AO2 SLP224 P0001 T00001017 (LC)","FM-15","7",,,,,,,,,,,,,,,,,,,,,,,,,,,,"2007-05-17"
"72793024233","2017-12-25T02:36:00","FM-16","7",,,,,,,,,,,,,,,,,,,,,,,,,,,,,,,,,,,,,,"30.17","29","32","0.02","-SN:03 BR:1 |SN |",,,"88",,"BKN:07 5 OVC:08 15","29.70","1.00","31","060",,"5",,,,,,,,,,,,,,,,,,,,,,,,,,,,,,,,,,,,,"MET12412/25/17 02:36:02 SPECI KSEA 251036Z 06004KT 1SM R16L/P6000FT -SN BR BKN005 OVC015 00/M02 A3017 RMK AO2 P0002 T00001017 (LC)","FM-16","7",,,,,,,,,,,,,,,,,,,,,,,,,,,,"2007-05-17"
"72793024233","2017-12-25T02:53:00","FM-15","7",,,,,,,,,,,,,,,,,,,,,,,,,,,,,,,,,,,,,,"30.17","30","32","0.03","-SN:03 BR:1 |SN |",,,"92","30.20","OVC:08 5","29.70","1.00","31","030",,"3",,,,,,,,,,,,,,,,,,,,,,,,,,,,,,,,,,,,,"MET13612/25/17 02:53:02 METAR KSEA 251053Z 03003KT 1SM R16L/P6000FT -SN BR OVC005 00/M01 A3017 RMK AO2 CIG 003V008 SLP228 P0003 T00001011 (LC)","FM-15","7",,,,,,,,,,,,,,,,,,,,,,,,,,,,"2007-05-17"
"72793024233","2017-12-25T03:53:00","FM-15","7",,,,,,,,,,,,,,,,,,,,,,,,,,,,,,,,,,,,,,"30.19","30","32","0.01","-SN:03 BR:1 |SN |","-0.04","3","92","30.22","OVC:08 5","29.72","1.00","31","020",,"7",,,,,,,,,,,,,,,,,,,,,,,,,,,,,,,,,,,,,"MET16012/25/17 03:53:02 METAR KSEA 251153Z 02006KT 1SM R16L/P6000FT -SN BR OVC005 00/M01 A3019 RMK AO2 SLP233 P0001 60005 70017 4/002 T00001011 10000 21006 53013 (LC)","FM-15","7",,,,,,,,,,,,,,,,,,,,,,,,,,,,"2007-05-17"
"72793024233","2017-12-25T04:00:00","FM-12","4",,,,,,,,,,,,,,,,,,,,,,,,,,,,,,,,,,,,,,,"30","32",,,"-0.04","3","92","30.22","5","29.71","0.99","31","020",,"7",,,,,,,,,,,,,,,,,,,,,,,,,,,,,,,,,,,,,"SYN11072793 11216 80206 10000 21011 30060 40233 53013 60011 771// 91153 333 10033 21006 4/005 70043 96010 555 92512=","FM-12","4",,,,,,,,,,,,,,,,,,,,,,,,,,,,"2007-05-17"
"72793024233","2017-12-25T04:53:00","FM-15","7",,,,,,,,,,,,,,,,,,,,,,,,,,,,,,,,,,,,,,"30.19","30","32","0.01","-SN:03 BR:1 |SN |",,,"92","30.22","BKN:07 5 OVC:08 29","29.72","1.00","31","030",,"6",,,,,,,,,,,,,,,,,,,,,,,,,,,,,,,,,,,,,"MET13112/25/17 04:53:02 METAR KSEA 251253Z 03005KT 1SM R16L/P6000FT -SN BR BKN005 OVC029 00/M01 A3019 RMK AO2 SLP234 P0001 T00001011 (LC)","FM-15","7",,,,,,,,,,,,,,,,,,,,,,,,,,,,"2007-05-17"
"72793024233","2017-12-25T05:00:00","FM-16","7",,,,,,,,,,,,,,,,,,,,,,,,,,,,,,,,,,,,,,"30.19","30","32","T","-SN:03 BR:1 |SN |",,,"92",,"BKN:07 3 OVC:08 29","29.72","1.00","31","030",,"5",,,,,,,,,,,,,,,,,,,,,,,,,,,,,,,,,,,,,"MET13812/25/17 05:00:02 SPECI KSEA 251300Z 03004KT 1SM R16L/P6000FT -SN BR BKN003 OVC029 00/M01 A3019 RMK AO2 SFC VIS 2 1/2 P0000 T00001011 (LC)","FM-16","7",,,,,,,,,,,,,,,,,,,,,,,,,,,,"2007-05-17"
"72793024233","2017-12-25T05:53:00","FM-15","7",,,,,,,,,,,,,,,,,,,,,,,,,,,,,,,,,,,,,,"30.21","31","32","T","-SN:03 BR:1 |SN |",,,"96","30.24","BKN:07 2 OVC:08 24","29.74","2.00","32","000",,"0",,,,,,,,,,,,,,,,,,,,,,,,,,,,,,,,,,,,,"MET11812/25/17 05:53:02 METAR KSEA 251353Z 00000KT 2SM -SN BR BKN002 OVC024 00/M01 A3021 RMK AO2 SLP240 P0000 T00001006 (JC)","FM-15","7",,,,,,,,,,,,,,,,,,,,,,,,,,,,"2007-05-17"
"72793024233","2017-12-25T06:23:00","FM-16","7",,,,,,,,,,,,,,,,,,,,,,,,,,,,,,,,,,,,,,"30.22","30","32","0.01","-SN:03 BR:1 |SN |",,,"92",,"SCT:04 3 BKN:07 25 OVC:08 38","29.75","2.00","31","040",,"3",,,,,,,,,,,,,,,,,,,,,,,,,,,,,,,,,,,,,"MET11812/25/17 06:23:02 SPECI KSEA 251423Z 04003KT 2SM -SN BR SCT003 BKN025 OVC038 00/M01 A3022 RMK AO2 P0001 T00001011 (JC)","FM-16","7",,,,,,,,,,,,,,,,,,,,,,,,,,,,"2007-05-17"
"72793024233","2017-12-25T06:53:00","FM-15","7",,,,,,,,,,,,,,,,,,,,,,,,,,,,,,,,,,,,,,"30.22","30","32","0.01","-SN:03 BR:1 |SN |","-0.03","3","92","30.25","SCT:04 3 BKN:07 26 OVC:08 38","29.75","1.50","31","060",,"5",,,,,,,,,,,,,,,,,,,,,,,,,,,,,,,,,,,,,"MET14112/25/17 06:53:02 METAR KSEA 251453Z 06004KT 1 1/2SM -SN BR SCT003 BKN026 OVC038 00/M01 A3022 RMK AO2 SLP244 P0001 60002 T00001011 53010 (JC)","FM-15","7",,,,,,,,,,,,,,,,,,,,,,,,,,,,"2007-05-17"
"72793024233","2017-12-25T07:53:00","FM-15","7",,,,,,,,,,,,,,,,,,,,,,,,,,,,,,,,,,,,,,"30.24","30","32","0.01","-SN:03 BR:1 |SN |",,,"92","30.27","SCT:04 2 OVC:08 26","29.77","1.50","31","000",,"0",,,,,,,,,,,,,,,,,,,,,,,,,,,,,,,,,,,,,"MET12212/25/17 07:53:02 METAR KSEA 251553Z 00000KT 1 1/2SM -SN BR SCT002 OVC026 00/M01 A3024 RMK AO2 SLP250 P0001 T00001011 (JC)","FM-15","7",,,,,,,,,,,,,,,,,,,,,,,,,,,,"2007-05-17"
"72793024233","2017-12-25T08:00:00","FM-16","7",,,,,,,,,,,,,,,,,,,,,,,,,,,,,,,,,,,,,,"30.24","29","32","T","-SN:03 BR:1 |SN |",,,"88",,"SCT:04 4 BKN:07 13 OVC:08 26","29.77","1.50","31","000",,"0",,,,,,,,,,,,,,,,,,,,,,,,,,,,,,,,,,,,,"MET12212/25/17 08:00:02 SPECI KSEA 251600Z 00000KT 1 1/2SM -SN BR SCT004 BKN013 OVC026 00/M02 A3024 RMK AO2 P0000 T00001017 (JC)","FM-16","7",,,,,,,,,,,,,,,,,,,,,,,,,,,,"2007-05-17"
"72793024233","2017-12-25T08:18:00","FM-16","7",,,,,,,,,,,,,,,,,,,,,,,,,,,,,,,,,,,,,,"30.25","30","33","T","-SN:03 BR:1 |SN |",,,"89",,"SCT:04 4 BKN:07 13 OVC:08 26","29.78","3.00","32","000",,"0",,,,,,,,,,,,,,,,,,,,,,,,,,,,,,,,,,,,,"MET11812/25/17 08:18:02 SPECI KSEA 251618Z 00000KT 3SM -SN BR SCT004 BKN013 OVC026 01/M01 A3025 RMK AO2 P0000 T00061011 (JC)","FM-16","7",,,,,,,,,,,,,,,,,,,,,,,,,,,,"2007-05-17"
"72793024233","2017-12-25T08:50:00","FM-16","7",,,,,,,,,,,,,,,,,,,,,,,,,,,,,,,,,,,,,,"30.25","30","34","T","-SN:03 BR:1 |SN |",,,"87",,"FEW:02 4 BKN:07 28 OVC:08 34","29.78","3.00","32","060",,"3",,,,,,,,,,,,,,,,,,,,,,,,,,,,,,,,,,,,,"MET10812/25/17 08:50:02 SPECI KSEA 251650Z 06003KT 3SM -SN BR FEW004 BKN028 OVC034 01/M01 A3025 RMK AO2 P0000 (JC)","FM-16","7",,,,,,,,,,,,,,,,,,,,,,,,,,,,"2007-05-17"
"72793024233","2017-12-25T08:53:00","FM-15","7",,,,,,,,,,,,,,,,,,,,,,,,,,,,,,,,,,,,,,"30.26","29","33","T","-SN:03 BR:1 |SN |",,,"85","30.29","FEW:02 4 BKN:07 28 OVC:08 34","29.79","3.00","31","070",,"5",,,,,,,,,,,,,,,,,,,,,,,,,,,,,,,,,,,,,"MET12512/25/17 08:53:02 METAR KSEA 251653Z 07004KT 3SM -SN BR FEW004 BKN028 OVC034 01/M02 A3026 RMK AO2 SLP256 P0000 T00061017 (JC)","FM-15","7",,,,,,,,,,,,,,,,,,,,,,,,,,,,"2007-05-17"
"72793024233","2017-12-25T09:28:00","FM-16","7",,,,,,,,,,,,,,,,,,,,,,,,,,,,,,,,,,,,,,"30.27","30","33","T","-SN:03 BR:1 |SN |",,,"89",,"FEW:02 4 BKN:07 28 OVC:08 38","29.80","1.00","32","000",,"0",,,,,,,,,,,,,,,,,,,,,,,,,,,,,,,,,,,,,"MET13612/25/17 09:28:02 SPECI KSEA 251728Z 00000KT 1SM R16L/5500VP6000FT -SN BR FEW004 BKN028 OVC038 01/M01 A3027 RMK AO2 P0000 T00061011 (JC)","FM-16","7",,,,,,,,,,,,,,,,,,,,,,,,,,,,"2007-05-17"
"72793024233","2017-12-25T09:37:00","FM-16","7",,,,,,,,,,,,,,,,,,,,,,,,,,,,,,,,,,,,,,"30.28","30","33","T","-SN:03 BR:1 |SN |",,,"89",,"FEW:02 4 BKN:07 12 OVC:08 26","29.81","1.00","32","000",,"0",,,,,,,,,,,,,,,,,,,,,,,,,,,,,,,,,,,,,"MET13612/25/17 09:37:02 SPECI KSEA 251737Z 00000KT 1SM R16L/6000VP6000FT -SN BR FEW004 BKN012 OVC026 01/M01 A3028 RMK AO2 P0000 T00061011 (JC)","FM-16","7",,,,,,,,,,,,,,,,,,,,,,,,,,,,"2007-05-17"
"72793024233","2017-12-25T09:53:00","FM-15","7",,,,,,,,,,,,,,,,,,,,,,,,,,,,,,,,,,,,,,"30.28","30","33","T","-SN:03 BR:1 |SN |","-0.06","3","89","30.32","FEW:02 4 BKN:07 12 OVC:08 20","29.81","1.00","32","000",,"0",,,,,,,,,,,,,,,,,,,,,,,,,,,,,,,,,,,,,"MET17512/25/17 09:53:02 METAR KSEA 251753Z 00000KT 1SM R16L/P6000FT -SN BR FEW004 BKN012 OVC020 01/M01 A3028 RMK AO2 SLP266 P0000 60003 4/003 933004 T00061011 10006 20000 53021 (JC)","FM-15","7",,,,,,,,,,,,,,,,,,,,,,,,,,,,"2007-05-17"
"72793024233","2017-12-25T10:00:00","FM-12","4",,,,,,,,,,,,,,,,,,,,,,,,,,,,,,,,,,,,,,,"30","33",,,"-0.06","3","89","30.32","5","29.80","0.99","32","000",,"0",,,,,,,,,,,,,,,,,,,,,,,,,,,,,,,,,,,,,"SYN10472793 11216 80000 10006 21011 30090 40266 53021 69981 771// 91753 333 10006 20000 4/008 96010 555 92518=","FM-12","4",,,,,,,,,,,,,,,,,,,,,,,,,,,,"2007-05-17"
"72793024233","2017-12-25T10:48:00","FM-16","7",,,,,,,,,,,,,,,,,,,,,,,,,,,,,,,,,,,,,,"30.30","30","34","0.01","-SN:03 BR:1 |SN |",,,"87",,"BKN:07 8 OVC:08 14","29.83","1.00","32","000",,"0",,,,,,,,,,,,,,,,,,,,,,,,,,,,,,,,,,,,,"MET11912/25/17 10:48:02 SPECI KSEA 251848Z 00000KT 1SM R16L/5500VP6000FT -SN BR BKN008 OVC014 01/M01 A3030 RMK AO2 P0001 (JC)","FM-16","7",,,,,,,,,,,,,,,,,,,,,,,,,,,,"2007-05-17"
"72793024233","2017-12-25T10:53:00","FM-15","7",,,,,,,,,,,,,,,,,,,,,,,,,,,,,,,,,,,,,,"30.30","30","33","0.01","-SN:03 BR:1 |SN |",,,"89","30.33","BKN:07 8 OVC:08 14","29.83","1.00","32","000",,"0",,,,,,,,,,,,,,,,,,,,,,,,,,,,,,,,,,,,,"MET13112/25/17 10:53:02 METAR KSEA 251853Z 00000KT 1SM R16L/P6000FT -SN BR BKN008 OVC014 01/M01 A3030 RMK AO2 SLP271 P0001 T00061011 (JC)","FM-15","7",,,,,,,,,,,,,,,,,,,,,,,,,,,,"2007-05-17"
"72793024233","2017-12-25T11:53:00","FM-15","7",,,,,,,,,,,,,,,,,,,,,,,,,,,,,,,,,,,,,,"30.31","31","34","T","-SN:03 BR:1 |SN |",,,"89","30.34","BKN:07 8 OVC:08 15","29.84","1.25","33","040",,"3",,,,,,,,,,,,,,,,,,,,,,,,,,,,,,,,,,,,,"MET12212/25/17 11:53:02 METAR KSEA 251953Z 04003KT 1 1/4SM -SN BR BKN008 OVC015 01/M01 A3031 RMK AO2 SLP274 P0000 T00111006 (JC)","FM-15","7",,,,,,,,,,,,,,,,,,,,,,,,,,,,"2007-05-17"
"72793024233","2017-12-25T12:13:00","FM-16","7",,,,,,,,,,,,,,,,,,,,,,,,,,,,,,,,,,,,,,"30.31","31","34","T","BR:1 ||",,,"89",,"SCT:04 7 BKN:07 13 OVC:08 20","29.84","3.00","33","050",,"3",,,,,,,,,,,,,,,,,,,,,,,,,,,,,,,,,,,,,"MET12012/25/17 12:13:02 SPECI KSEA 252013Z 05003KT 3SM BR SCT007 BKN013 OVC020 01/M01 A3031 RMK AO2 SNE13 P0000 T00111006 (JC)","FM-16","7",,,,,,,,,,,,,,,,,,,,,,,,,,,,"2007-05-17"
"72793024233","2017-12-25T12:41:00","FM-16","7",,,,,,,,,,,,,,,,,,,,,,,,,,,,,,,,,,,,,,"30.31","31","34","T","BR:1 ||",,,"89",,"SCT:04 7 SCT:04 13 OVC:08 38","29.84","4.00","33","000",,"0",,,,,,,,,,,,,,,,,,,,,,,,,,,,,,,,,,,,,"MET12012/25/17 12:41:02 SPECI KSEA 252041Z 00000KT 4SM BR SCT007 SCT013 OVC038 01/M01 A3031 RMK AO2 SNE13 P0000 T00111006 (JC)","FM-16","7",,,,,,,,,,,,,,,,,,,,,,,,,,,,"2007-05-17"
"72793024233","2017-12-25T12:53:00","FM-15","7",,,,,,,,,,,,,,,,,,,,,,,,,,,,,,,,,,,,,,"30.31","31","34","T","BR:1 ||","-0.02","0","89","30.34","FEW:02 7 SCT:04 13 OVC:08 38","29.84","5.00","33","140",,"3",,,,,,,,,,,,,,,,,,,,,,,,,,,,,,,,,,,,,"MET13912/25/17 12:53:02 METAR KSEA 252053Z 14003KT 5SM BR FEW007 SCT013 OVC038 01/M01 A3031 RMK AO2 SNE13 SLP273 P0000 60001 T00111006 50007 (JC)","FM-15","7",,,,,,,,,,,,,,,,,,,,,,,,,,,,"2007-05-17"
"72793024233","2017-12-25T13:53:00","FM-15","7",,,,,,,,,,,,,,,,,,,,,,,,,,,,,,,,,,,,,,"30.31","31","34","0.00",,,,"89","30.35","FEW:02 7 FEW:02 13 OVC:08 33","29.84","7.00","33","000",,"0",,,,,,,,,,,,,,,,,,,,,,,,,,,,,,,,,,,,,"MET11412/25/17 13:53:02 METAR KSEA 252153Z 00000KT 7SM FEW007 FEW013 OVC033 01/M01 A3031 RMK AO2 SLP276 T00111006 $ (JC)","FM-15","7",,,,,,,,,,,,,,,,,,,,,,,,,,,,"2007-05-17"
"72793024233","2017-12-25T14:53:00","FM-15","7",,,,,,,,,,,,,,,,,,,,,,,,,,,,,,,,,,,,,,"30.33","31","34","0.00",,,,"89","30.36","FEW:02 7 FEW:02 13 OVC:08 40","29.86","7.00","33","000",,"0",,,,,,,,,,,,,,,,,,,,,,,,,,,,,,,,,,,,,"MET11412/25/17 14:53:02 METAR KSEA 252253Z 00000KT 7SM FEW007 FEW013 OVC040 01/M01 A3033 RMK AO2 SLP280 T00111006 $ (RT)","FM-15","7",,,,,,,,,,,,,,,,,,,,,,,,,,,,"2007-05-17"
"72793024233","2017-12-25T15:53:00","FM-15","7",,,,,,,,,,,,,,,,,,,,,,,,,,,,,,,,,,,,,,"30.33","30","35","0.00",,"-0.02","1","82","30.36","FEW:02 7 BKN:07 32 OVC:08 40","29.86","9.00","33","000",,"0",,,,,,,,,,,,,,,,,,,,,,,,,,,,,,,,,,,,,"MET14412/25/17 15:53:02 METAR KSEA 252353Z 00000KT 9SM FEW007 BKN032 OVC040 02/M01 A3033 RMK AO2 SLP282 60001 4/002 T00171011 10017 20006 51008 $ (RT)","FM-15","7",,,,,,,,,,,,,,,,,,,,,,,,,,,,"2007-05-17"
"72793024233","2017-12-25T16:00:00","FM-12","4",,,,,,,,,,,,,,,,,,,,,,,,,,,,,,,,,,,,,,,"30","35",,,"-0.02","1","82","30.36","8","29.84","8.70","33","000",,"0",,,,,,,,,,,,,,,,,,,,,,,,,,,,,,,,,,,,,"SYN09272793 12364 80000 10017 21011 30106 40282 51008 69931 92353 333 10017 21005 4/005 555 92600=","FM-12","4",,,,,,,,,,,,,,,,,,,,,,,,,,,,"2007-05-17"
"72793024233","2017-12-25T16:53:00","FM-15","7",,,,,,,,,,,,,,,,,,,,,,,,,,,,,,,,,,,,,,"30.34","31","34","0.00","BR:1 ||",,,"89","30.37","SCT:04 6 SCT:04 32 OVC:08 42","29.87","5.00","33","120",,"6",,,,,,,,,,,,,,,,,,,,,,,,,,,,,,,,,,,,,"MET11212/25/17 16:53:01 METAR KSEA 260053Z 12005KT 5SM BR SCT006 SCT032 OVC042 01/M01 A3034 RMK AO2 SLP284 T00111006 $","FM-15","7",,,,,,,,,,,,,,,,,,,,,,,,,,,,"2007-05-17"
"72793024233","2017-12-25T17:53:00","FM-15","7",,,,,,,,,,,,,,,,,,,,,,,,,,,,,,,,,,,,,,"30.34","31","34","0.00",,,,"89","30.37","FEW:02 7 SCT:04 32 OVC:08 42","29.87","7.00","33","130",,"6",,,,,,,,,,,,,,,,,,,,,,,,,,,,,,,,,,,,,"MET10912/25/17 17:53:01 METAR KSEA 260153Z 13005KT 7SM FEW007 SCT032 OVC042 01/M01 A3034 RMK AO2 SLP285 T00111006 $","FM-15","7",,,,,,,,,,,,,,,,,,,,,,,,,,,,"2007-05-17"
"72793024233","2017-12-25T18:53:00","FM-15","7",,,,,,,,,,,,,,,,,,,,,,,,,,,,,,,,,,,,,,"30.34","31","34","0.00",,"-0.01","0","89","30.37","SCT:04 9 SCT:04 33 OVC:08 44","29.87","7.00","33","120",,"5",,,,,,,,,,,,,,,,,,,,,,,,,,,,,,,,,,,,,"MET11512/25/17 18:53:02 METAR KSEA 260253Z 12004KT 7SM SCT009 SCT033 OVC044 01/M01 A3034 RMK AO2 SLP284 T00111006 50002 $","FM-15","7",,,,,,,,,,,,,,,,,,,,,,,,,,,,"2007-05-17"
"72793024233","2017-12-25T19:43:00","FM-16","7",,,,,,,,,,,,,,,,,,,,,,,,,,,,,,,,,,,,,,"30.34","30","34",,"BR:1 ||",,,"85",,"BKN:07 11 BKN:07 46 OVC:08 60","29.87","5.00","32","040",,"3",,,,,,,,,,,,,,,,,,,,,,,,,,,,,,,,,,,,,"MET10512/25/17 19:43:02 SPECI KSEA 260343Z 04003KT 5SM BR BKN011 BKN046 OVC060 01/M01 A3034 RMK AO2 T00111011 $","FM-16","7",,,,,,,,,,,,,,,,,,,,,,,,,,,,"2007-05-17"
"72793024233","2017-12-25T19:53:00","FM-15","7",,,,,,,,,,,,,,,,,,,,,,,,,,,,,,,,,,,,,,"30.35","30","35","0.00","BR:1 ||",,,"82","30.38","BKN:07 11 BKN:07 46 OVC:08 60","29.88","5.00","33","000",,"0",,,,,,,,,,,,,,,,,,,,,,,,,,,,,,,,,,,,,"MET11212/25/17 19:53:02 METAR KSEA 260353Z 00000KT 5SM BR BKN011 BKN046 OVC060 02/M01 A3035 RMK AO2 SLP287 T00171011 $","FM-15","7",,,,,,,,,,,,,,,,,,,,,,,,,,,,"2007-05-17"
"72793024233","2017-12-25T20:51:00","FM-16","6",,,,,,,,,,,,,,,,,,,,,,,,,,,,,,,,,,,,,,"30.35","30","36",,"BR:1 ||",,,"81",,"BKN:07 9 OVC:08 12","29.88","5.00","34","VRB",,"6",,,,,,,,,,,,,,,,,,,,,,,,,,,,,,,,,,,,,"MET09812/25/17 20:51:03 SPECI KSEA 260451Z VRB05KT 5SM BR BKN009 OVC012 02/M01 A3035 RMK AO2 $ FIBI (RT)","FM-16","6",,,,,,,,,,,,,,,,,,,,,,,,,,,,"2007-05-17"
"72793024233","2017-12-25T20:53:00","FM-15","7",,,,,,,,,,,,,,,,,,,,,,,,,,,,,,,,,,,,,,"30.35","30","35","0.00","BR:1 ||",,,"82","30.38","BKN:07 9 OVC:08 12","29.88","5.00","33","100",,"5",,,,,,,,,,,,,,,,,,,,,,,,,,,,,,,,,,,,,"MET10512/25/17 20:53:02 METAR KSEA 260453Z 10004KT 5SM BR BKN009 OVC012 02/M01 A3035 RMK AO2 SLP288 T00171011 $","FM-15","7",,,,,,,,,,,,,,,,,,,,,,,,,,,,"2007-05-17"
"72793024233","2017-12-25T21:12:00","FM-16","7",,,,,,,,,,,,,,,,,,,,,,,,,,,,,,,,,,,,,,"30.35","30","34",,"BR:1 ||",,,"85",,"SCT:04 9 OVC:08 12","29.88","5.00","32","VRB",,"6",,,,,,,,,,,,,,,,,,,,,,,,,,,,,,,,,,,,,"MET09812/25/17 21:12:02 SPECI KSEA 260512Z VRB05KT 5SM BR SCT009 OVC012 01/M01 A3035 RMK AO2 T00111011 $","FM-16","7",,,,,,,,,,,,,,,,,,,,,,,,,,,,"2007-05-17"
"72793024233","2017-12-25T21:51:00","FM-16","6",,,,,,,,,,,,,,,,,,,,,,,,,,,,,,,,,,,,,,"30.34","30","34",,"BR:1 ||",,,"87",,"SCT:04 12 BKN:07 45 OVC:08 60","29.87","6.00","32","110",,"6",,,,,,,,,,,,,,,,,,,,,,,,,,,,,,,,,,,,,"MET11112/25/17 21:51:03 SPECI KSEA 260551Z 11005KT 6SM BR SCT012 BKN045 OVC060 01/M01 A3034 RMK AO2 4/002 $ FIBI (LC)","FM-16","6",,,,,,,,,,,,,,,,,,,,,,,,,,,,"2007-05-17"
"72793024233","2017-12-25T21:53:00","FM-15","7",,,,,,,,,,,,,,,,,,,,,,,,,,,,,,,,,,,,,,"30.35","31","34","0.00","BR:1 ||","-0.01","0","89","30.38","SCT:04 12 BKN:07 45 OVC:08 60","29.88","6.00","33","110",,"6",,,,,,,,,,,,,,,,,,,,,,,,,,,,,,,,,,,,,"MET13612/25/17 21:53:02 METAR KSEA 260553Z 11005KT 6SM BR SCT012 BKN045 OVC060 01/M01 A3035 RMK AO2 SLP287 4/002 T00111006 10017 20006 50002 $","FM-15","7",,,,,,,,,,,,,,,,,,,,,,,,,,,,"2007-05-17"
"72793024233","2017-12-25T22:00:00","FM-12","4",,,,,,,,,,,,,,,,,,,,,,,,,,,,,,,,,,,,,,,"31","34",,,"0.01","9","89","30.38","15","29.86","5.59","33","110",,"6",,,,,,,,,,,,,,,,,,,,,,,,,,,,,,,,,,,,,"SYN09272793 31459 81105 10011 21006 30113 40287 50002 710// 90553 333 10017 21005 4/005 555 92606=","FM-12","4",,,,,,,,,,,,,,,,,,,,,,,,,,,,"2007-05-17"
"72793024233","2017-12-25T22:53:00","FM-15","7",,,,,,,,,,,,,,,,,,,,,,,,,,,,,,,,,,,,,,"30.35","30","33","0.00",,,,"89","30.38","FEW:02 12 BKN:07 65","29.88","7.00","32","050",,"3",,,,,,,,,,,,,,,,,,,,,,,,,,,,,,,,,,,,,"MET10212/25/17 22:53:02 METAR KSEA 260653Z 05003KT 7SM FEW012 BKN065 01/M01 A3035 RMK AO2 SLP288 T00061011 $","FM-15","7",,,,,,,,,,,,,,,,,,,,,,,,,,,,"2007-05-17"
"72793024233","2017-12-25T23:53:00","FM-15","7",,,,,,,,,,,,,,,,,,,,,,,,,,,,,,,,,,,,,,"30.35","29","32","0.00",,,,"88","30.38","BKN:07 60","29.88","7.00","31","000",,"0",,,,,,,,,,,,,,,,,,,,,,,,,,,,,,,,,,,,,"MET10512/25/17 23:53:02 METAR KSEA 260753Z 00000KT 7SM BKN060 00/M02 A3035 RMK AO2 SLP287 T00001017 400170000 $","FM-15","7",,,,,,,,,,,,,,,,,,,,,,,,,,,,"2007-05-17"
"72793024233","2017-12-25T23:59:00","SOD  ","6",,,,,,,,,,,,,,,"30","33","89","30.31","29.80","32","3.0","0","-7.2","32","35","31","100","13","0.09","2","1.0","120","9","SN BR",,,,,,,,,,,,,,,,,,,,,,,,,,,,,,,,,,,,,,,,,,,,,,,,,,,,,,,,"SOD77524 HR PRECIPITATION (IN): 0.09 WEATHER(CODE):1  24 HR MAX TEMP (F):35 24 HR MAX TEMP TIME (LST):2148 24 HR MIN TEMP (F):31 24 HR MIN TEMP TIME (LST):2359 AVERAGE STATION PRESSURE(D):29.801 MINIMUM SEA LEVEL PRESSURE:30.17 TIME OF OCCURRENCE:0027 PEAK WIND SPEED (MPH):13  PEAK WIND DIR (DEG):100 PEAK WIND TIME (LST):0002  FASTEST 2MIN SPEED (MPH):09 FASTEST 2MIN DIR (DEG):120 FASTEST 2MIN TIME (LST):0024 AVERAGE WIND SPEED (MPH): 3.0 24 HR AVG TEMP (F):33 DEPART FROM NORMAL:  -7 HEATING DEGREE DAYS: 32 COOLING DEGREE DAYS:  0 LATEST DAY MAX TEMP (0700-1900 LST): 35 LATEST NIGHT MIN TEMP(1900-0800 LST):31 HOURLY INCREMENTAL PRECIPITATION VALUES (IN):     0.01 0.03 0.01 0.01T     0.01 0.01T    T     0.01T    T     0.00 0.00 0.00 0.00 0.00 0.00 0.00 0.00 0.00 0.00 0.00","SOD  ","6",,,,,,,,,,,,,,,,,,,,,,,,,"0756","1623",,"2007-05-17"
"72793024233","2017-12-26T00:53:00","FM-15","7",,,,,,,,,,,,,,,,,,,,,,,,,,,,,,,,,,,,,,"30.34","30","33","0.00",,"+0.00","8","89","30.37","BKN:07 60","29.87","10.00","32","000",,"0",,,,,,,,,,,,,,,,,,,,,,,,,,,,,,,,,,,,,"MET10712/26/17 00:53:02 METAR KSEA 260853Z 00000KT 10SM BKN060 01/M01 A3034 RMK AO2 SLP285 T00061011 58001 $ (LC)","FM-15","7",,,,,,,,,,,,,,,,,,,,,,,,,,,,"2007-05-17"
"72793024233","2017-12-26T01:53:00","FM-15","7",,,,,,,,,,,,,,,,,,,,,,,,,,,,,,,,,,,,,,"30.34","29","32","0.00","BR:1 ||",,,"88","30.37","OVC:08 60","29.87","6.00","31","000",,"0",,,,,,,,,,,,,,,,,,,,,,,,,,,,,,,,,,,,,"MET10312/26/17 01:53:02 METAR KSEA 260953Z 00000KT 6SM BR OVC060 00/M02 A3034 RMK AO2 SLP285 T00001017 $ (LC)","FM-15","7",,,,,,,,,,,,,,,,,,,,,,,,,,,,"2007-05-17"
"72793024233","2017-12-26T02:53:00","FM-15","7",,,,,,,,,,,,,,,,,,,,,,,,,,,,,,,,,,,,,,"30.35","31","33","0.00",,,,"92","30.38","OVC:08 60","29.88","7.00","32","000",,"0",,,,,,,,,,,,,,,,,,,,,,,,,,,,,,,,,,,,,"MET10012/26/17 02:53:02 METAR KSEA 261053Z 00000KT 7SM OVC060 01/M01 A3035 RMK AO2 SLP287 T00061006 $ (LC)","FM-15","7",,,,,,,,,,,,,,,,,,,,,,,,,,,,"2007-05-17"
"72793024233","2017-12-26T03:53:00","FM-15","7",,,,,,,,,,,,,,,,,,,,,,,,,,,,,,,,,,,,,,"30.35","31","33","0.00",,"-0.00","3","92","30.38","OVC:08 60","29.88","7.00","32","000",,"0",,,,,,,,,,,,,,,,,,,,,,,,,,,,,,,,,,,,,"MET13012/26/17 03:53:02 METAR KSEA 261153Z 00000KT 7SM OVC060 01/M01 A3035 RMK AO2 SLP287 70004 4/002 T00061006 10011 21006 53001 $ (LC)","FM-15","7",,,,,,,,,,,,,,,,,,,,,,,,,,,,"2007-05-17"
"72793024233","2017-12-26T04:00:00","FM-12","4",,,,,,,,,,,,,,,,,,,,,,,,,,,,,,,,,,,,,,,"31","33",,,"-0.00","3","92","30.38","57","29.86","6.84","32","000",,"0",,,,,,,,,,,,,,,,,,,,,,,,,,,,,,,,,,,,,"SYN09272793 32761 80000 10006 21006 30113 40287 53001 91153 333 10017 21006 4/005 70010 555 92612=","FM-12","4",,,,,,,,,,,,,,,,,,,,,,,,,,,,"2007-05-17"
"72793024233","2017-12-26T04:53:00","FM-15","7",,,,,,,,,,,,,,,,,,,,,,,,,,,,,,,,,,,,,,"30.34","31","33","0.00","BR:1 ||",,,"92","30.37","OVC:08 60","29.87","6.00","32","000",,"0",,,,,,,,,,,,,,,,,,,,,,,,,,,,,,,,,,,,,"MET10312/26/17 04:53:02 METAR KSEA 261253Z 00000KT 6SM BR OVC060 01/M01 A3034 RMK AO2 SLP283 T00061006 $ (LC)","FM-15","7",,,,,,,,,,,,,,,,,,,,,,,,,,,,"2007-05-17"
"72793024233","2017-12-26T05:53:00","FM-15","7",,,,,,,,,,,,,,,,,,,,,,,,,,,,,,,,,,,,,,"30.33","29","34","0.00",,,,"82","30.36","OVC:08 55","29.86","10.00","32","000",,"0",,,,,,,,,,,,,,,,,,,,,,,,,,,,,,,,,,,,,"MET10112/26/17 05:53:02 METAR KSEA 261353Z 00000KT 10SM OVC055 01/M02 A3033 RMK AO2 SLP281 T00111017 $ (JC)","FM-15","7",,,,,,,,,,,,,,,,,,,,,,,,,,,,"2007-05-17"
"72793024233","2017-12-26T06:53:00","FM-15","7",,,,,,,,,,,,,,,,,,,,,,,,,,,,,,,,,,,,,,"30.33","26","34","0.00",,"+0.02","6","73","30.36","BKN:07 55","29.86","10.00","31","130",,"6",,,,,,,,,,,,,,,,,,,,,,,,,,,,,,,,,,,,,"MET10712/26/17 06:53:02 METAR KSEA 261453Z 13005KT 10SM BKN055 01/M03 A3033 RMK AO2 SLP280 T00111033 56006 $ (JC)","FM-15","7",,,,,,,,,,,,,,,,,,,,,,,,,,,,"2007-05-17"
"72793024233","2017-12-26T07:41:00","FM-16","7",,,,,,,,,,,,,,,,,,,,,,,,,,,,,,,,,,,,,,"30.32","27","32",,,,,"82",,"FEW:02 8 BKN:07 50","29.85","10.00","30","140",,"3",,,,,,,,,,,,,,,,,,,,,,,,,,,,,,,,,,,,,"MET10112/26/17 07:41:02 SPECI KSEA 261541Z 14003KT 10SM FEW008 BKN050 00/M03 A3032 RMK AO2 T00001028 $ (JC)","FM-16","7",,,,,,,,,,,,,,,,,,,,,,,,,,,,"2007-05-17"
"72793024233","2017-12-26T07:53:00","FM-15","7",,,,,,,,,,,,,,,,,,,,,,,,,,,,,,,,,,,,,,"30.31","26","32","0.00",,,,"79","30.34","FEW:02 8 BKN:07 50","29.84","10.00","30","110",,"7",,,,,,,,,,,,,,,,,,,,,,,,,,,,,,,,,,,,,"MET10812/26/17 07:53:02 METAR KSEA 261553Z 11006KT 10SM FEW008 BKN050 00/M03 A3031 RMK AO2 SLP275 T00001033 $ (JC)","FM-15","7",,,,,,,,,,,,,,,,,,,,,,,,,,,,"2007-05-17"
"72793024233","2017-12-26T08:53:00","FM-15","7",,,,,,,,,,,,,,,,,,,,,,,,,,,,,,,,,,,,,,"30.32","27","33","0.00",,,,"78","30.35","FEW:02 12 BKN:07 50","29.85","10.00","31","130",,"5",,,,,,,,,,,,,,,,,,,,,,,,,,,,,,,,,,,,,"MET10612/26/17 08:53:02 METAR KSEA 261653Z 13004KT 10SM FEW012 BKN050 01/M03 A3032 RMK AO2 SLP278 T00061028 (JC)","FM-15","7",,,,,,,,,,,,,,,,,,,,,,,,,,,,"2007-05-17"
"72793024233","2017-12-26T09:53:00","FM-15","7",,,,,,,,,,,,,,,,,,,,,,,,,,,,,,,,,,,,,,"30.31","25","35","0.00",,"+0.01","6","67","30.35","FEW:02 12 BKN:07 50","29.84","10.00","31","100",,"8",,,,,,,,,,,,,,,,,,,,,,,,,,,,,,,,,,,,,"MET13012/26/17 09:53:02 METAR KSEA 261753Z 10007KT 10SM FEW012 BKN050 02/M04 A3031 RMK AO2 SLP276 4/001 T00171039 10017 20000 56004 (JC)","FM-15","7",,,,,,,,,,,,,,,,,,,,,,,,,,,,"2007-05-17"
"72793024233","2017-12-26T10:00:00","FM-12","4",,,,,,,,,,,,,,,,,,,,,,,,,,,,,,,,,,,,,,,"25","35",,,"+0.01","6","67","30.35","15","29.83","9.94","31","100",,"8",,,,,,,,,,,,,,,,,,,,,,,,,,,,,,,,,,,,,"SYN08672793 32466 61007 10017 21039 30100 40276 56004 91753 333 10017 20000 4/003 555 92618=","FM-12","4",,,,,,,,,,,,,,,,,,,,,,,,,,,,"2007-05-17"
"72793024233","2017-12-26T10:53:00","FM-15","7",,,,,,,,,,,,,,,,,,,,,,,,,,,,,,,,,,,,,,"30.33","26","36","0.00",,,,"67","30.36","FEW:02 12 BKN:07 50 BKN:07 250","29.86","10.00","32","120",,"7",,,,,,,,,,,,,,,,,,,,,,,,,,,,,,,,,,,,,"MET11312/26/17 10:53:02 METAR KSEA 261853Z 12006KT 10SM FEW012 BKN050 BKN250 02/M03 A3033 RMK AO2 SLP282 T00221033 (JC)","FM-15","7",,,,,,,,,,,,,,,,,,,,,,,,,,,,"2007-05-17"
"72793024233","2017-12-26T11:53:00","FM-15","7",,,,,,,,,,,,,,,,,,,,,,,,,,,,,,,,,,,,,,"30.32","27","37","0.00",,,,"67","30.35","FEW:02 12 FEW:02 50 BKN:07 250","29.85","10.00","33","100",,"6",,,,,,,,,,,,,,,,,,,,,,,,,,,,,,,,,,,,,"MET11312/26/17 11:53:02 METAR KSEA 261953Z 10005KT 10SM FEW012 FEW050 BKN250 03/M03 A3032 RMK AO2 SLP276 T00281028 (JC)","FM-15","7",,,,,,,,,,,,,,,,,,,,,,,,,,,,"2007-05-17"
"72793024233","2017-12-26T12:53:00","FM-15","7",,,,,,,,,,,,,,,,,,,,,,,,,,,,,,,,,,,,,,"30.30","26","37","0.00",,"+0.01","8","65","30.33","FEW:02 12 FEW:02 180 BKN:07 250","29.83","10.00","33","090",,"6",,,,,,,,,,,,,,,,,,,,,,,,,,,,,,,,,,,,,"MET11912/26/17 12:53:02 METAR KSEA 262053Z 09005KT 10SM FEW012 FEW180 BKN250 03/M03 A3030 RMK AO2 SLP272 T00281033 58003 (JC)","FM-15","7",,,,,,,,,,,,,,,,,,,,,,,,,,,,"2007-05-17"
"72793024233","2017-12-26T13:53:00","FM-15","7",,,,,,,,,,,,,,,,,,,,,,,,,,,,,,,,,,,,,,"30.28","25","39","0.00",,,,"57","30.31","FEW:02 12 BKN:07 190","29.81","10.00","34","VRB",,"5",,,,,,,,,,,,,,,,,,,,,,,,,,,,,,,,,,,,,"MET10612/26/17 13:53:02 METAR KSEA 262153Z VRB04KT 10SM FEW012 BKN190 04/M04 A3028 RMK AO2 SLP264 T00391039 (RS)","FM-15","7",,,,,,,,,,,,,,,,,,,,,,,,,,,,"2007-05-17"
"72793024233","2017-12-26T14:53:00","FM-15","7",,,,,,,,,,,,,,,,,,,,,,,,,,,,,,,,,,,,,,"30.27","26","37","0.00",,,,"65","30.30","FEW:02 15 BKN:07 140 BKN:07 250","29.80","10.00","33","050",,"6",,,,,,,,,,,,,,,,,,,,,,,,,,,,,,,,,,,,,"MET11312/26/17 14:53:02 METAR KSEA 262253Z 05005KT 10SM FEW015 BKN140 BKN250 03/M03 A3027 RMK AO2 SLP261 T00281033 (RS)","FM-15","7",,,,,,,,,,,,,,,,,,,,,,,,,,,,"2007-05-17"
"72793024233","2017-12-26T15:53:00","FM-15","7",,,,,,,,,,,,,,,,,,,,,,,,,,,,,,,,,,,,,,"30.26","27","36","0.00",,"+0.04","6","70","30.29","FEW:02 20 BKN:07 110 OVC:08 250","29.79","10.00","33","060",,"5",,,,,,,,,,,,,,,,,,,,,,,,,,,,,,,,,,,,,"MET13712/26/17 15:53:02 METAR KSEA 262353Z 06004KT 10SM FEW020 BKN110 OVC250 02/M03 A3026 RMK AO2 SLP257 4/001 T00221028 10039 20017 56015 (RS)","FM-15","7",,,,,,,,,,,,,,,,,,,,,,,,,,,,"2007-05-17"
"72793024233","2017-12-26T16:00:00","FM-12","4",,,,,,,,,,,,,,,,,,,,,,,,,,,,,,,,,,,,,,,"27","36",,,"+0.04","6","70","30.29","26","29.78","9.94","33","060",,"5",,,,,,,,,,,,,,,,,,,,,,,,,,,,,,,,,,,,,"SYN08672793 32566 80604 10022 21028 30083 40257 56015 92353 333 10039 21005 4/003 555 92700=","FM-12","4",,,,,,,,,,,,,,,,,,,,,,,,,,,,"2007-05-17"
"72793024233","2017-12-26T16:53:00","FM-15","7",,,,,,,,,,,,,,,,,,,,,,,,,,,,,,,,,,,,,,"30.25","26","36","0.00",,,,"67","30.28","FEW:02 20 OVC:08 110","29.78","10.00","32","100",,"9",,,,,,,,,,,,,,,,,,,,,,,,,,,,,,,,,,,,,"MET10112/26/17 16:53:01 METAR KSEA 270053Z 10008KT 10SM FEW020 OVC110 02/M03 A3025 RMK AO2 SLP254 T00221033","FM-15","7",,,,,,,,,,,,,,,,,,,,,,,,,,,,"2007-05-17"
"72793024233","2017-12-26T17:53:00","FM-15","7",,,,,,,,,,,,,,,,,,,,,,,,,,,,,,,,,,,,,,"30.25","25","36","0.00",,,,"64","30.29","FEW:02 20 OVC:08 100","29.78","10.00","32","130",,"6",,,,,,,,,,,,,,,,,,,,,,,,,,,,,,,,,,,,,"MET10112/26/17 17:53:01 METAR KSEA 270153Z 13005KT 10SM FEW020 OVC100 02/M04 A3025 RMK AO2 SLP256 T00221039","FM-15","7",,,,,,,,,,,,,,,,,,,,,,,,,,,,"2007-05-17"
"72793024233","2017-12-26T18:53:00","FM-15","7",,,,,,,,,,,,,,,,,,,,,,,,,,,,,,,,,,,,,,"30.25","28","36","0.00",,"+0.01","6","73","30.28","FEW:02 20 OVC:08 95","29.78","10.00","33","100",,"5",,,,,,,,,,,,,,,,,,,,,,,,,,,,,,,,,,,,,"MET10712/26/17 18:53:02 METAR KSEA 270253Z 10004KT 10SM FEW020 OVC095 02/M02 A3025 RMK AO2 SLP253 T00221022 56004","FM-15","7",,,,,,,,,,,,,,,,,,,,,,,,,,,,"2007-05-17"
"72793024233","2017-12-26T19:53:00","FM-15","7",,,,,,,,,,,,,,,,,,,,,,,,,,,,,,,,,,,,,,"30.24","24","35","0.00",,,,"64","30.27","FEW:02 11 OVC:08 85","29.77","10.00","31","090",,"6",,,,,,,,,,,,,,,,,,,,,,,,,,,,,,,,,,,,,"MET10112/26/17 19:53:02 METAR KSEA 270353Z 09005KT 10SM FEW011 OVC085 02/M04 A3024 RMK AO2 SLP252 T00171044","FM-15","7",,,,,,,,,,,,,,,,,,,,,,,,,,,,"2007-05-17"
"72793024233","2017-12-26T20:53:00","FM-15","7",,,,,,,,,,,,,,,,,,,,,,,,,,,,,,,,,,,,,,"30.25","24","35","0.00",,,,"64","30.28","FEW:02 10 OVC:08 90","29.78","10.00","31","110",,"6",,,,,,,,,,,,,,,,,,,,,,,,,,,,,,,,,,,,,"MET10112/26/17 20:53:02 METAR KSEA 270453Z 11005KT 10SM FEW010 OVC090 02/M04 A3025 RMK AO2 SLP254 T00171044","FM-15","7",,,,,,,,,,,,,,,,,,,,,,,,,,,,"2007-05-17"
"72793024233","2017-12-26T21:53:00","FM-15","7",,,,,,,,,,,,,,,,,,,,,,,,,,,,,,,,,,,,,,"30.25","25","34","0.00",,"-0.00","3","70","30.28","OVC:08 90","29.78","10.00","31","120",,"7",,,,,,,,,,,,,,,,,,,,,,,,,,,,,,,,,,,,,"MET11812/26/17 21:53:02 METAR KSEA 270553Z 12006KT 10SM OVC090 01/M04 A3025 RMK AO2 SLP253 4/001 T00111039 10028 20011 53000","FM-15","7",,,,,,,,,,,,,,,,,,,,,,,,,,,,"2007-05-17"
"72793024233","2017-12-26T22:00:00","FM-12","4",,,,,,,,,,,,,,,,,,,,,,,,,,,,,,,,,,,,,,,"25","34",,,,,"70","30.28",,"29.77","9.94","31","120",,"7",,,,,,,,,,,,,,,,,,,,,,,,,,,,,,,,,,,,,"SYN08672793 32966 81206 10011 21039 30080 40253 53000 90553 333 10028 21005 4/003 555 92706=","FM-12","4",,,,,,,,,,,,,,,,,,,,,,,,,,,,"2007-05-17"
"72793024233","2017-12-26T22:53:00","FM-15","7",,,,,,,,,,,,,,,,,,,,,,,,,,,,,,,,,,,,,,"30.25","24","34","0.00",,,,"67","30.28","OVC:08 85","29.78","10.00","30","100",,"5",,,,,,,,,,,,,,,,,,,,,,,,,,,,,,,,,,,,,"MET09412/26/17 22:53:02 METAR KSEA 270653Z 10004KT 10SM OVC085 01/M04 A3025 RMK AO2 SLP255 T00111044","FM-15","7",,,,,,,,,,,,,,,,,,,,,,,,,,,,"2007-05-17"
"72793024233","2017-12-26T23:53:00","FM-15","7",,,,,,,,,,,,,,,,,,,,,,,,,,,,,,,,,,,,,,"30.25","25","34","0.00",,,,"70","30.28","OVC:08 85","29.78","10.00","31","140",,"5",,,,,,,,,,,,,,,,,,,,,,,,,,,,,,,,,,,,,"MET10412/26/17 23:53:02 METAR KSEA 270753Z 14004KT 10SM OVC085 01/M04 A3025 RMK AO2 SLP253 T00111039 400391006","FM-15","7",,,,,,,,,,,,,,,,,,,,,,,,,,,,"2007-05-17"
"72793024233","2017-12-26T23:59:00","SOD  ","6",,,,,,,,,,,,,,,"27","35","73","30.33","29.83","32","4.4","0","-5.3","30","39","31","080","14","0.00","2","0.0","080","12","BR",,,,,,,,,,,,,,,,,,,,,,,,,,,,,,,,,,,,,,,,,,,,,,,,,,,,,,,,"SOD77724 HR PRECIPITATION (IN): 0.00 WEATHER(CODE):1,8  24 HR MAX TEMP (F):39 24 HR MAX TEMP TIME (LST):1353 24 HR MIN TEMP (F):31 24 HR MIN TEMP TIME (LST):0043 AVERAGE STATION PRESSURE(D):29.826 MINIMUM SEA LEVEL PRESSURE:30.26 TIME OF OCCURRENCE:1512 PEAK WIND SPEED (MPH):14  PEAK WIND DIR (DEG): 80 PEAK WIND TIME (LST):1213  FASTEST 2MIN SPEED (MPH):12 FASTEST 2MIN DIR (DEG): 80 FASTEST 2MIN TIME (LST):1508 AVERAGE WIND SPEED (MPH): 4.4 24 HR AVG TEMP (F):35 DEPART FROM NORMAL:  -5 HEATING DEGREE DAYS: 30 COOLING DEGREE DAYS:  0 LATEST DAY MAX TEMP (0700-1900 LST): 39 LATEST NIGHT MIN TEMP(1900-0800 LST):31 HOURLY INCREMENTAL PRECIPITATION VALUES (IN):0.00 0.00 0.00 0.00 0.00 0.00 0.00 0.00 0.00 0.00 0.00 0.00 0.00 0.00 0.00 0.00 0.00 0.00 0.00 0.00 0.00 0.00 0.00 0.00","SOD  ","6",,,,,,,,,,,,,,,,,,,,,,,,,"0756","1624",,"2007-05-17"
"72793024233","2017-12-27T00:53:00","FM-15","7",,,,,,,,,,,,,,,,,,,,,,,,,,,,,,,,,,,,,,"30.25","25","34","0.00",,"-0.00","3","70","30.28","OVC:08 80","29.78","10.00","31","150",,"5",,,,,,,,,,,,,,,,,,,,,,,,,,,,,,,,,,,,,"MET10512/27/17 00:53:02 METAR KSEA 270853Z 15004KT 10SM OVC080 01/M04 A3025 RMK AO2 SLP255 T00111039 53001 (TL)","FM-15","7",,,,,,,,,,,,,,,,,,,,,,,,,,,,"2007-05-17"
"72793024233","2017-12-27T01:53:00","FM-15","7",,,,,,,,,,,,,,,,,,,,,,,,,,,,,,,,,,,,,,"30.25","25","34","0.00",,,,"70","30.27","OVC:08 80","29.78","10.00","31","130",,"6",,,,,,,,,,,,,,,,,,,,,,,,,,,,,,,,,,,,,"MET09912/27/17 01:53:02 METAR KSEA 270953Z 13005KT 10SM OVC080 01/M04 A3025 RMK AO2 SLP252 T00111039 (TL)","FM-15","7",,,,,,,,,,,,,,,,,,,,,,,,,,,,"2007-05-17"
"72793024233","2017-12-27T02:53:00","FM-15","7",,,,,,,,,,,,,,,,,,,,,,,,,,,,,,,,,,,,,,"30.25","29","33","0.00",,,,"85","30.28","OVC:08 80","29.78","9.00","31","140",,"6",,,,,,,,,,,,,,,,,,,,,,,,,,,,,,,,,,,,,"MET09812/27/17 02:53:02 METAR KSEA 271053Z 14005KT 9SM OVC080 01/M02 A3025 RMK AO2 SLP254 T00061017 (TL)","FM-15","7",,,,,,,,,,,,,,,,,,,,,,,,,,,,"2007-05-17"
"72793024233","2017-12-27T03:53:00","FM-15","7",,,,,,,,,,,,,,,,,,,,,,,,,,,,,,,,,,,,,,"30.25","30","33","0.00",,"-0.00","3","89","30.29","OVC:08 80","29.78","9.00","32","150",,"5",,,,,,,,,,,,,,,,,,,,,,,,,,,,,,,,,,,,,"MET12212/27/17 03:53:02 METAR KSEA 271153Z 15004KT 9SM OVC080 01/M01 A3025 RMK AO2 SLP256 4/001 T00061011 10022 20006 53001 (TL)","FM-15","7",,,,,,,,,,,,,,,,,,,,,,,,,,,,"2007-05-17"
"72793024233","2017-12-27T04:00:00","FM-12","4",,,,,,,,,,,,,,,,,,,,,,,,,,,,,,,,,,,,,,,"30","33",,,"-0.00","3","89","30.29","74","29.77","8.70","32","150",,"5",,,,,,,,,,,,,,,,,,,,,,,,,,,,,,,,,,,,,"SYN08672793 32864 81504 10006 21011 30080 40256 53001 91153 333 10039 20006 4/003 555 92712=","FM-12","4",,,,,,,,,,,,,,,,,,,,,,,,,,,,"2007-05-17"
"72793024233","2017-12-27T04:30:00","FM-16","7",,,,,,,,,,,,,,,,,,,,,,,,,,,,,,,,,,,,,,"30.25","30","33",,,,,"89",,"BKN:07 26 OVC:08 80","29.78","7.00","32","120",,"6",,,,,,,,,,,,,,,,,,,,,,,,,,,,,,,,,,,,,"MET09812/27/17 04:30:02 SPECI KSEA 271230Z 12005KT 7SM BKN026 OVC080 01/M01 A3025 RMK AO2 T00061011 (TL)","FM-16","7",,,,,,,,,,,,,,,,,,,,,,,,,,,,"2007-05-17"
"72793024233","2017-12-27T04:53:00","FM-15","7",,,,,,,,,,,,,,,,,,,,,,,,,,,,,,,,,,,,,,"30.25","30","33","0.00",,,,"89","30.28","BKN:07 26 OVC:08 80","29.78","8.00","32","120",,"6",,,,,,,,,,,,,,,,,,,,,,,,,,,,,,,,,,,,,"MET10512/27/17 04:53:02 METAR KSEA 271253Z 12005KT 8SM BKN026 OVC080 01/M01 A3025 RMK AO2 SLP254 T00061011 (TL)","FM-15","7",,,,,,,,,,,,,,,,,,,,,,,,,,,,"2007-05-17"
"72793024233","2017-12-27T05:49:00","FM-16","7",,,,,,,,,,,,,,,,,,,,,,,,,,,,,,,,,,,,,,"30.26","30","34",,,,,"87",,"SCT:04 24 BKN:07 70 BKN:07 90","29.79","10.00","32","000",,"0",,,,,,,,,,,,,,,,,,,,,,,,,,,,,,,,,,,,,"MET09612/27/17 05:49:02 SPECI KSEA 271349Z 00000KT 10SM SCT024 BKN070 BKN090 01/M01 A3026 RMK AO2 (JC)","FM-16","7",,,,,,,,,,,,,,,,,,,,,,,,,,,,"2007-05-17"
"72793024233","2017-12-27T05:53:00","FM-15","7",,,,,,,,,,,,,,,,,,,,,,,,,,,,,,,,,,,,,,"30.26","30","34","0.00",,,,"85","30.29","SCT:04 24 BKN:07 70 BKN:07 90","29.79","10.00","32","000",,"0",,,,,,,,,,,,,,,,,,,,,,,,,,,,,,,,,,,,,"MET11312/27/17 05:53:02 METAR KSEA 271353Z 00000KT 10SM SCT024 BKN070 BKN090 01/M01 A3026 RMK AO2 SLP257 T00111011 (JC)","FM-15","7",,,,,,,,,,,,,,,,,,,,,,,,,,,,"2007-05-17"
"72793024233","2017-12-27T06:16:00","FM-16","7",,,,,,,,,,,,,,,,,,,,,,,,,,,,,,,,,,,,,,"30.25","29","34",,,,,"82",,"BKN:07 24 BKN:07 70 OVC:08 95","29.78","10.00","32","000",,"0",,,,,,,,,,,,,,,,,,,,,,,,,,,,,,,,,,,,,"MET10612/27/17 06:16:02 SPECI KSEA 271416Z 00000KT 10SM BKN024 BKN070 OVC095 01/M02 A3025 RMK AO2 T00111017 (JC)","FM-16","7",,,,,,,,,,,,,,,,,,,,,,,,,,,,"2007-05-17"
"72793024233","2017-12-27T06:53:00","FM-15","7",,,,,,,,,,,,,,,,,,,,,,,,,,,,,,,,,,,,,,"30.25","28","34","0.00",,"+0.01","8","79","30.28","BKN:07 22 OVC:08 90","29.78","10.00","32","150",,"3",,,,,,,,,,,,,,,,,,,,,,,,,,,,,,,,,,,,,"MET11212/27/17 06:53:02 METAR KSEA 271453Z 15003KT 10SM BKN022 OVC090 01/M02 A3025 RMK AO2 SLP253 T00111022 58002 (JC)","FM-15","7",,,,,,,,,,,,,,,,,,,,,,,,,,,,"2007-05-17"
"72793024233","2017-12-27T07:53:00","FM-15","7",,,,,,,,,,,,,,,,,,,,,,,,,,,,,,,,,,,,,,"30.25","28","34","0.00",,,,"79","30.28","OVC:08 20","29.78","10.00","32","170",,"5",,,,,,,,,,,,,,,,,,,,,,,,,,,,,,,,,,,,,"MET09912/27/17 07:53:02 METAR KSEA 271553Z 17004KT 10SM OVC020 01/M02 A3025 RMK AO2 SLP253 T00111022 (JC)","FM-15","7",,,,,,,,,,,,,,,,,,,,,,,,,,,,"2007-05-17"
"72793024233","2017-12-27T08:53:00","FM-15","7",,,,,,,,,,,,,,,,,,,,,,,,,,,,,,,,,,,,,,"30.25","27","35","0.00",,,,"72","30.28","SCT:04 19 SCT:04 95 OVC:08 150","29.78","10.00","32","120",,"7",,,,,,,,,,,,,,,,,,,,,,,,,,,,,,,,,,,,,"MET11312/27/17 08:53:02 METAR KSEA 271653Z 12006KT 10SM SCT019 SCT095 OVC150 02/M03 A3025 RMK AO2 SLP253 T00171028 (JC)","FM-15","7",,,,,,,,,,,,,,,,,,,,,,,,,,,,"2007-05-17"
"72793024233","2017-12-27T09:24:00","FM-16","7",,,,,,,,,,,,,,,,,,,,,,,,,,,,,,,,,,,,,,"30.26","28","35",,,,,"76",,"BKN:07 20 BKN:07 95 OVC:08 150","29.79","10.00","32","190",,"3",,,,,,,,,,,,,,,,,,,,,,,,,,,,,,,,,,,,,"MET10612/27/17 09:24:02 SPECI KSEA 271724Z 19003KT 10SM BKN020 BKN095 OVC150 02/M02 A3026 RMK AO2 T00171022 (JC)","FM-16","7",,,,,,,,,,,,,,,,,,,,,,,,,,,,"2007-05-17"
"72793024233","2017-12-27T09:53:00","FM-15","7",,,,,,,,,,,,,,,,,,,,,,,,,,,,,,,,,,,,,,"30.27","28","35","0.00",,"-0.02","3","76","30.30","FEW:02 11 BKN:07 20 OVC:08 150","29.80","10.00","32","200",,"3",,,,,,,,,,,,,,,,,,,,,,,,,,,,,,,,,,,,,"MET13712/27/17 09:53:02 METAR KSEA 271753Z 20003KT 10SM FEW011 BKN020 OVC150 02/M02 A3027 RMK AO2 SLP262 4/001 T00171022 10022 20006 53008 (JC)","FM-15","7",,,,,,,,,,,,,,,,,,,,,,,,,,,,"2007-05-17"
"72793024233","2017-12-27T10:00:00","FM-12","4",,,,,,,,,,,,,,,,,,,,,,,,,,,,,,,,,,,,,,,"28","35",,,"-0.02","3","76","30.30","15","29.78","9.94","32","200",,"3",,,,,,,,,,,,,,,,,,,,,,,,,,,,,,,,,,,,,"SYN08672793 32466 82003 10017 21022 30086 40262 53008 91753 333 10022 20006 4/003 555 92718=","FM-12","4",,,,,,,,,,,,,,,,,,,,,,,,,,,,"2007-05-17"
"72793024233","2017-12-27T10:53:00","FM-15","7",,,,,,,,,,,,,,,,,,,,,,,,,,,,,,,,,,,,,,"30.27","29","37","0.00",,,,"73","30.29","FEW:02 11 BKN:07 26 OVC:08 130","29.80","10.00","34","000",,"0",,,,,,,,,,,,,,,,,,,,,,,,,,,,,,,,,,,,,"MET11312/27/17 10:53:02 METAR KSEA 271853Z 00000KT 10SM FEW011 BKN026 OVC130 03/M02 A3027 RMK AO2 SLP259 T00281017 (JC)","FM-15","7",,,,,,,,,,,,,,,,,,,,,,,,,,,,"2007-05-17"
"72793024233","2017-12-27T11:12:00","FM-16","7",,,,,,,,,,,,,,,,,,,,,,,,,,,,,,,,,,,,,,"30.27","29","37",,,,,"73",,"FEW:02 11 SCT:04 26 BKN:07 130","29.80","10.00","34","VRB",,"3",,,,,,,,,,,,,,,,,,,,,,,,,,,,,,,,,,,,,"MET10612/27/17 11:12:02 SPECI KSEA 271912Z VRB03KT 10SM FEW011 SCT026 BKN130 03/M02 A3027 RMK AO2 T00281017 (JC)","FM-16","7",,,,,,,,,,,,,,,,,,,,,,,,,,,,"2007-05-17"
"72793024233","2017-12-27T11:53:00","FM-15","7",,,,,,,,,,,,,,,,,,,,,,,,,,,,,,,,,,,,,,"30.26","31","38","0.00",,,,"76","30.29","SCT:04 26 BKN:07 160 OVC:08 250","29.79","10.00","35","200",,"5",,,,,,,,,,,,,,,,,,,,,,,,,,,,,,,,,,,,,"MET11312/27/17 11:53:02 METAR KSEA 271953Z 20004KT 10SM SCT026 BKN160 OVC250 03/M01 A3026 RMK AO2 SLP257 T00331006 (JC)","FM-15","7",,,,,,,,,,,,,,,,,,,,,,,,,,,,"2007-05-17"
"72793024233","2017-12-27T12:20:00","FM-16","7",,,,,,,,,,,,,,,,,,,,,,,,,,,,,,,,,,,,,,"30.26","32","38",,,,,"79",,"BKN:07 24 BKN:07 150 OVC:08 250","29.79","10.00","36","000",,"0",,,,,,,,,,,,,,,,,,,,,,,,,,,,,,,,,,,,,"MET10512/27/17 12:20:02 SPECI KSEA 272020Z 00000KT 10SM BKN024 BKN150 OVC250 03/00 A3026 RMK AO2 T00330000 (JC)","FM-16","7",,,,,,,,,,,,,,,,,,,,,,,,,,,,"2007-05-17"
"72793024233","2017-12-27T12:53:00","FM-15","7",,,,,,,,,,,,,,,,,,,,,,,,,,,,,,,,,,,,,,"30.26","33","39","0.00",,"+0.01","5","79","30.29","BKN:07 22 BKN:07 150 OVC:08 250","29.79","10.00","37","000",,"0",,,,,,,,,,,,,,,,,,,,,,,,,,,,,,,,,,,,,"MET11812/27/17 12:53:02 METAR KSEA 272053Z 00000KT 10SM BKN022 BKN150 OVC250 04/01 A3026 RMK AO2 SLP256 T00390006 55005 (JC)","FM-15","7",,,,,,,,,,,,,,,,,,,,,,,,,,,,"2007-05-17"
"72793024233","2017-12-27T13:53:00","FM-15","7",,,,,,,,,,,,,,,,,,,,,,,,,,,,,,,,,,,,,,"30.26","32","39","0.00",,,,"76","30.28","BKN:07 19 BKN:07 150 OVC:08 250","29.79","10.00","36","070",,"3",,,,,,,,,,,,,,,,,,,,,,,,,,,,,,,,,,,,,"MET11212/27/17 13:53:02 METAR KSEA 272153Z 07003KT 10SM BKN019 BKN150 OVC250 04/00 A3026 RMK AO2 SLP255 T00390000 (RS)","FM-15","7",,,,,,,,,,,,,,,,,,,,,,,,,,,,"2007-05-17"
"72793024233","2017-12-27T14:53:00","FM-15","7",,,,,,,,,,,,,,,,,,,,,,,,,,,,,,,,,,,,,,"30.26","31","39","0.00",,,,"73","30.29","BKN:07 16 OVC:08 120","29.79","10.00","36","150",,"6",,,,,,,,,,,,,,,,,,,,,,,,,,,,,,,,,,,,,"MET10612/27/17 14:53:02 METAR KSEA 272253Z 15005KT 10SM BKN016 OVC120 04/M01 A3026 RMK AO2 SLP256 T00391006 (RS)","FM-15","7",,,,,,,,,,,,,,,,,,,,,,,,,,,,"2007-05-17"
"72793024233","2017-12-27T15:53:00","FM-15","7",,,,,,,,,,,,,,,,,,,,,,,,,,,,,,,,,,,,,,"30.26","30","38","0.00",,"-0.01","3","73","30.29","OVC:08 16","29.79","10.00","35","110",,"5",,,,,,,,,,,,,,,,,,,,,,,,,,,,,,,,,,,,,"MET11712/27/17 15:53:02 METAR KSEA 272353Z 11004KT 10SM OVC016 03/M01 A3026 RMK AO2 SLP259 T00331011 10044 20017 53002 (RS)","FM-15","7",,,,,,,,,,,,,,,,,,,,,,,,,,,,"2007-05-17"
"72793024233","2017-12-27T16:00:00","FM-12","4",,,,,,,,,,,,,,,,,,,,,,,,,,,,,,,,,,,,,,,"30","38",,,"-0.01","3","73","30.29","15","29.78","9.94","35","110",,"5",,,,,,,,,,,,,,,,,,,,,,,,,,,,,,,,,,,,,"SYN08072793 32466 81104 10033 21011 30083 40259 53002 92353 333 10044 20006 555 92800=","FM-12","4",,,,,,,,,,,,,,,,,,,,,,,,,,,,"2007-05-17"
"72793024233","2017-12-27T16:53:00","FM-15","7",,,,,,,,,,,,,,,,,,,,,,,,,,,,,,,,,,,,,,"30.28","32","38","0.00",,,,"79","30.31","OVC:08 15","29.81","10.00","36","150",,"3",,,,,,,,,,,,,,,,,,,,,,,,,,,,,,,,,,,,,"MET09312/27/17 16:53:01 METAR KSEA 280053Z 15003KT 10SM OVC015 03/00 A3028 RMK AO2 SLP263 T00330000","FM-15","7",,,,,,,,,,,,,,,,,,,,,,,,,,,,"2007-05-17"
"72793024233","2017-12-27T17:27:00","FM-16","7",,,,,,,,,,,,,,,,,,,,,,,,,,,,,,,,,,,,,,"30.26","33","38",,,,,"83",,"OVC:08 13","29.79","10.00","36","000",,"0",,,,,,,,,,,,,,,,,,,,,,,,,,,,,,,,,,,,,"MET08612/27/17 17:27:01 SPECI KSEA 280127Z 00000KT 10SM OVC013 03/01 A3026 RMK AO2 T00330006","FM-16","7",,,,,,,,,,,,,,,,,,,,,,,,,,,,"2007-05-17"
"72793024233","2017-12-27T17:53:00","FM-15","7",,,,,,,,,,,,,,,,,,,,,,,,,,,,,,,,,,,,,,"30.26","33","39","0.00",,,,"79","30.29","OVC:08 11","29.79","10.00","37","000",,"0",,,,,,,,,,,,,,,,,,,,,,,,,,,,,,,,,,,,,"MET09312/27/17 17:53:01 METAR KSEA 280153Z 00000KT 10SM OVC011 04/01 A3026 RMK AO2 SLP257 T00390006","FM-15","7",,,,,,,,,,,,,,,,,,,,,,,,,,,,"2007-05-17"
"72793024233","2017-12-27T18:53:00","FM-15","7",,,,,,,,,,,,,,,,,,,,,,,,,,,,,,,,,,,,,,"30.25","34","39","0.00",,"+0.01","8","82","30.28","OVC:08 11","29.78","10.00","37","200",,"3",,,,,,,,,,,,,,,,,,,,,,,,,,,,,,,,,,,,,"MET09912/27/17 18:53:02 METAR KSEA 280253Z 20003KT 10SM OVC011 04/01 A3025 RMK AO2 SLP253 T00390011 58005","FM-15","7",,,,,,,,,,,,,,,,,,,,,,,,,,,,"2007-05-17"
"72793024233","2017-12-27T19:53:00","FM-15","7",,,,,,,,,,,,,,,,,,,,,,,,,,,,,,,,,,,,,,"30.26","34","39","0.00",,,,"82","30.29","OVC:08 10","29.79","10.00","37","000",,"0",,,,,,,,,,,,,,,,,,,,,,,,,,,,,,,,,,,,,"MET09312/27/17 19:53:02 METAR KSEA 280353Z 00000KT 10SM OVC010 04/01 A3026 RMK AO2 SLP257 T00390011","FM-15","7",,,,,,,,,,,,,,,,,,,,,,,,,,,,"2007-05-17"
"72793024233","2017-12-27T20:20:00","FM-16","7",,,,,,,,,,,,,,,,,,,,,,,,,,,,,,,,,,,,,,"30.26","35","39",,,,,"86",,"OVC:08 9","29.79","10.00","37","000",,"0",,,,,,,,,,,,,,,,,,,,,,,,,,,,,,,,,,,,,"MET08612/27/17 20:20:02 SPECI KSEA 280420Z 00000KT 10SM OVC009 04/02 A3026 RMK AO2 T00390017","FM-16","7",,,,,,,,,,,,,,,,,,,,,,,,,,,,"2007-05-17"
"72793024233","2017-12-27T20:53:00","FM-15","7",,,,,,,,,,,,,,,,,,,,,,,,,,,,,,,,,,,,,,"30.26","35","39","0.00",,,,"86","30.28","OVC:08 7","29.79","10.00","37","150",,"6",,,,,,,,,,,,,,,,,,,,,,,,,,,,,,,,,,,,,"MET10512/27/17 20:53:02 METAR KSEA 280453Z 15005KT 10SM OVC007 04/02 A3026 RMK AO2 CIG 006V010 SLP255 T00390017","FM-15","7",,,,,,,,,,,,,,,,,,,,,,,,,,,,"2007-05-17"
"72793024233","2017-12-27T21:53:00","FM-15","7",,,,,,,,,,,,,,,,,,,,,,,,,,,,,,,,,,,,,,"30.26","36","39","0.00",,"-0.01","1","89","30.29","OVC:08 6","29.79","10.00","38","180",,"3",,,,,,,,,,,,,,,,,,,,,,,,,,,,,,,,,,,,,"MET11112/27/17 21:53:02 METAR KSEA 280553Z 18003KT 10SM OVC006 04/02 A3026 RMK AO2 SLP257 T00390022 10044 20028 51004","FM-15","7",,,,,,,,,,,,,,,,,,,,,,,,,,,,"2007-05-17"
"72793024233","2017-12-27T22:00:00","FM-12","4",,,,,,,,,,,,,,,,,,,,,,,,,,,,,,,,,,,,,,,"36","39",,,"-0.01","1","89","30.29","5","29.78","9.94","38","180",,"3",,,,,,,,,,,,,,,,,,,,,,,,,,,,,,,,,,,,,"SYN08072793 32266 81803 10039 20022 30083 40257 51004 90553 333 10044 20006 555 92806=","FM-12","4",,,,,,,,,,,,,,,,,,,,,,,,,,,,"2007-05-17"
"72793024233","2017-12-27T22:53:00","FM-15","7",,,,,,,,,,,,,,,,,,,,,,,,,,,,,,,,,,,,,,"30.26","37","40","0.00",,,,"89","30.29","OVC:08 5","29.79","8.00","39","190",,"6",,,,,,,,,,,,,,,,,,,,,,,,,,,,,,,,,,,,,"MET09212/27/17 22:53:02 METAR KSEA 280653Z 19005KT 8SM OVC005 04/03 A3026 RMK AO2 SLP258 T00440028","FM-15","7",,,,,,,,,,,,,,,,,,,,,,,,,,,,"2007-05-17"
"72793024233","2017-12-27T23:14:00","FM-16","7",,,,,,,,,,,,,,,,,,,,,,,,,,,,,,,,,,,,,,"30.25","37","40",,"BR:1 ||",,,"89",,"OVC:08 4","29.78","6.00","39","160",,"6",,,,,,,,,,,,,,,,,,,,,,,,,,,,,,,,,,,,,"MET08812/27/17 23:14:02 SPECI KSEA 280714Z 16005KT 6SM BR OVC004 04/03 A3025 RMK AO2 T00440028","FM-16","7",,,,,,,,,,,,,,,,,,,,,,,,,,,,"2007-05-17"
"72793024233","2017-12-27T23:51:00","FM-16","6",,,,,,,,,,,,,,,,,,,,,,,,,,,,,,,,,,,,,,"30.25","37","39",,,,,"93",,"SCT:04 4 OVC:08 10","29.78","7.00","38","130",,"6",,,,,,,,,,,,,,,,,,,,,,,,,,,,,,,,,,,,,"MET09212/27/17 23:51:03 SPECI KSEA 280751Z 13005KT 7SM SCT004 OVC010 04/03 A3025 RMK AO2 FIBI (TL)","FM-16","6",,,,,,,,,,,,,,,,,,,,,,,,,,,,"2007-05-17"
"72793024233","2017-12-27T23:53:00","FM-15","7",,,,,,,,,,,,,,,,,,,,,,,,,,,,,,,,,,,,,,"30.24","37","40","0.00",,,,"89","30.27","SCT:04 4 OVC:08 10","29.77","7.00","39","130",,"5",,,,,,,,,,,,,,,,,,,,,,,,,,,,,,,,,,,,,"MET10912/27/17 23:53:02 METAR KSEA 280753Z 13004KT 7SM SCT004 OVC010 04/03 A3024 RMK AO2 SLP251 T00440028 400500006","FM-15","7",,,,,,,,,,,,,,,,,,,,,,,,,,,,"2007-05-17"
"72793024233","2017-12-27T23:59:00","SOD  ","6",,,,,,,,,,,,,,,"31","37","80","30.29","29.79","35","3.7","0","-3.3","28","41","33","130","9","0.00","1","0.0","130","8","BR",,,,,,,,,,,,,,,,,,,,,,,,,,,,,,,,,,,,,,,,,,,,,,,,,,,,,,,,"SOD77524 HR PRECIPITATION (IN): 0.00 WEATHER(CODE):1  24 HR MAX TEMP (F):41 24 HR MAX TEMP TIME (LST):2312 24 HR MIN TEMP (F):33 24 HR MIN TEMP TIME (LST):0725 AVERAGE STATION PRESSURE(D):29.788 MINIMUM SEA LEVEL PRESSURE:30.26 TIME OF OCCURRENCE:0846 PEAK WIND SPEED (MPH):09  PEAK WIND DIR (DEG):130 PEAK WIND TIME (LST):1412  FASTEST 2MIN SPEED (MPH):08 FASTEST 2MIN DIR (DEG):130 FASTEST 2MIN TIME (LST):2136 AVERAGE WIND SPEED (MPH): 3.7 24 HR AVG TEMP (F):37 DEPART FROM NORMAL:  -3 HEATING DEGREE DAYS: 28 COOLING DEGREE DAYS:  0 LATEST DAY MAX TEMP (0700-1900 LST): 40 LATEST NIGHT MIN TEMP(1900-0800 LST):33 HOURLY INCREMENTAL PRECIPITATION VALUES (IN):0.00 0.00 0.00 0.00 0.00 0.00 0.00 0.00 0.00 0.00 0.00 0.00 0.00 0.00 0.00 0.00 0.00 0.00 0.00 0.00 0.00 0.00 0.00 0.00","SOD  ","6",,,,,,,,,,,,,,,,,,,,,,,,,"0756","1625",,"2007-05-17"
"72793024233","2017-12-28T00:53:00","FM-15","7",,,,,,,,,,,,,,,,,,,,,,,,,,,,,,,,,,,,,,"30.25","37","39","0.00",,"+0.01","7","93","30.27","OVC:08 12","29.78","8.00","38","150",,"5",,,,,,,,,,,,,,,,,,,,,,,,,,,,,,,,,,,,,"MET10312/28/17 00:53:02 METAR KSEA 280853Z 15004KT 8SM OVC012 04/03 A3025 RMK AO2 SLP252 T00390028 57005 (TL)","FM-15","7",,,,,,,,,,,,,,,,,,,,,,,,,,,,"2007-05-17"
"72793024233","2017-12-28T01:21:00","FM-16","7",,,,,,,,,,,,,,,,,,,,,,,,,,,,,,,,,,,,,,"30.23","37","39",,,,,"93",,"FEW:02 5 OVC:08 11","29.76","7.00","38","160",,"8",,,,,,,,,,,,,,,,,,,,,,,,,,,,,,,,,,,,,"MET10912/28/17 01:21:02 SPECI KSEA 280921Z 16007KT 7SM FEW005 OVC011 04/03 A3023 RMK AO2 CIG 009V012 T00390028 (TL)","FM-16","7",,,,,,,,,,,,,,,,,,,,,,,,,,,,"2007-05-17"
"72793024233","2017-12-28T01:53:00","FM-15","7",,,,,,,,,,,,,,,,,,,,,,,,,,,,,,,,,,,,,,"30.22","37","40","0.00",,,,"89","30.25","BKN:07 10 OVC:08 15","29.75","10.00","39","170",,"10",,,,,,,,,,,,,,,,,,,,,,,,,,,,,,,,,,,,,"MET10512/28/17 01:53:02 METAR KSEA 280953Z 17009KT 10SM BKN010 OVC015 04/03 A3022 RMK AO2 SLP243 T00440028 (TL)","FM-15","7",,,,,,,,,,,,,,,,,,,,,,,,,,,,"2007-05-17"
"72793024233","2017-12-28T02:19:00","FM-16","7",,,,,,,,,,,,,,,,,,,,,,,,,,,,,,,,,,,,,,"30.22","38","40",,"BR:1 ||",,,"93",,"OVC:08 6","29.75","5.00","39","160",,"10",,,,,,,,,,,,,,,,,,,,,,,,,,,,,,,,,,,,,"MET10512/28/17 02:19:02 SPECI KSEA 281019Z 16009KT 5SM BR OVC006 04/03 A3022 RMK AO2 CIG 004V009 T00440033 (TL)","FM-16","7",,,,,,,,,,,,,,,,,,,,,,,,,,,,"2007-05-17"
"72793024233","2017-12-28T02:30:00","FM-16","7",,,,,,,,,,,,,,,,,,,,,,,,,,,,,,,,,,,,,,"30.22","38","40",,,,,"93",,"OVC:08 4","29.75","9.00","39","150",,"9",,,,,,,,,,,,,,,,,,,,,,,,,,,,,,,,,,,,,"MET09012/28/17 02:30:02 SPECI KSEA 281030Z 15008KT 9SM OVC004 04/03 A3022 RMK AO2 T00440033 (TL)","FM-16","7",,,,,,,,,,,,,,,,,,,,,,,,,,,,"2007-05-17"
"72793024233","2017-12-28T02:53:00","FM-15","7",,,,,,,,,,,,,,,,,,,,,,,,,,,,,,,,,,,,,,"30.21","38","40","0.00",,,,"93","30.24","OVC:08 4","29.74","7.00","39","150",,"9",,,,,,,,,,,,,,,,,,,,,,,,,,,,,,,,,,,,,"MET09712/28/17 02:53:02 METAR KSEA 281053Z 15008KT 7SM OVC004 04/03 A3021 RMK AO2 SLP240 T00440033 (TL)","FM-15","7",,,,,,,,,,,,,,,,,,,,,,,,,,,,"2007-05-17"
"72793024233","2017-12-28T03:08:00","FM-16","7",,,,,,,,,,,,,,,,,,,,,,,,,,,,,,,,,,,,,,"30.20","39","40",,,,,"97",,"BKN:07 5 BKN:07 17 OVC:08 22","29.73","9.00","40","150",,"8",,,,,,,,,,,,,,,,,,,,,,,,,,,,,,,,,,,,,"MET11612/28/17 03:08:02 SPECI KSEA 281108Z 15007KT 9SM BKN005 BKN017 OVC022 04/04 A3020 RMK AO2 CIG 004V008 T00440039 (TL)","FM-16","7",,,,,,,,,,,,,,,,,,,,,,,,,,,,"2007-05-17"
"72793024233","2017-12-28T03:41:00","FM-16","7",,,,,,,,,,,,,,,,,,,,,,,,,,,,,,,,,,,,,,"30.20","39","40",,,,,"97",,"FEW:02 5 BKN:07 17 OVC:08 22","29.73","10.00","40","190",,"7",,,,,,,,,,,,,,,,,,,,,,,,,,,,,,,,,,,,,"MET10512/28/17 03:41:02 SPECI KSEA 281141Z 19006KT 10SM FEW005 BKN017 OVC022 04/04 A3020 RMK AO2 T00440039 (TL)","FM-16","7",,,,,,,,,,,,,,,,,,,,,,,,,,,,"2007-05-17"
"72793024233","2017-12-28T03:53:00","FM-15","7",,,,,,,,,,,,,,,,,,,,,,,,,,,,,,,,,,,,,,"30.20","39","41","0.00",,"+0.05","6","93","30.22","FEW:02 5 BKN:07 17 OVC:08 22","29.73","9.00","40","190",,"8",,,,,,,,,,,,,,,,,,,,,,,,,,,,,,,,,,,,,"MET12912/28/17 03:53:02 METAR KSEA 281153Z 19007KT 9SM FEW005 BKN017 OVC022 05/04 A3020 RMK AO2 SLP235 T00500039 10050 20033 56017 (TL)","FM-15","7",,,,,,,,,,,,,,,,,,,,,,,,,,,,"2007-05-17"
"72793024233","2017-12-28T04:00:00","FM-12","4",,,,,,,,,,,,,,,,,,,,,,,,,,,,,,,,,,,,,,,"39","41",,,"+0.05","6","93","30.22","5","29.72","8.70","40","190",,"8",,,,,,,,,,,,,,,,,,,,,,,,,,,,,,,,,,,,,"SYN08072793 32264 81907 10050 20039 30063 40235 56017 91153 333 10050 20028 555 92812=","FM-12","4",,,,,,,,,,,,,,,,,,,,,,,,,,,,"2007-05-17"
"72793024233","2017-12-28T04:53:00","FM-15","7",,,,,,,,,,,,,,,,,,,,,,,,,,,,,,,,,,,,,,"30.17","41","45","0.00",,,,"86","30.19","FEW:02 17 BKN:07 22 OVC:08 30","29.70","10.00","43","180",,"15",,,,,,,,,,,,,,,,,,,,,,,,,,,,,,,,,,,,,"MET11212/28/17 04:53:02 METAR KSEA 281253Z 18013KT 10SM FEW017 BKN022 OVC030 07/05 A3017 RMK AO2 SLP223 T00720050 (TL)","FM-15","7",,,,,,,,,,,,,,,,,,,,,,,,,,,,"2007-05-17"
"72793024233","2017-12-28T05:53:00","FM-15","7",,,,,,,,,,,,,,,,,,,,,,,,,,,,,,,,,,,,,,"30.15","42","45","T","-RA:02 |RA |",,,"90","30.17","FEW:02 20 BKN:07 24 OVC:08 32","29.68","7.00","44","170",,"11",,,,,,,,,,,,,,,,,,,,,,,,,,,,,,,,,,,,,"MET12712/28/17 05:53:02 METAR KSEA 281353Z 17010KT 7SM -RA FEW020 BKN024 OVC032 07/06 A3015 RMK AO2 RAB41 SLP217 P0000 T00720056 (LC)","FM-15","7",,,,,,,,,,,,,,,,,,,,,,,,,,,,"2007-05-17"
"72793024233","2017-12-28T06:53:00","FM-15","7",,,,,,,,,,,,,,,,,,,,,,,,,,,,,,,,,,,,,,"30.13","42","45","0.01","-RA:02 |RA |","+0.07","6","90","30.15","BKN:07 20 OVC:08 32","29.66","7.00","44","140",,"7",,,,,,,,,,,,,,,,,,,,,,,,,,,,,,,,,,,,,"MET12612/28/17 06:53:02 METAR KSEA 281453Z 14006KT 7SM -RA BKN020 OVC032 07/06 A3013 RMK AO2 SLP210 P0001 60001 T00720056 56024 (LC)","FM-15","7",,,,,,,,,,,,,,,,,,,,,,,,,,,,"2007-05-17"
"72793024233","2017-12-28T07:53:00","FM-15","7",,,,,,,,,,,,,,,,,,,,,,,,,,,,,,,,,,,,,,"30.12","42","45","T","-RA:02 |RA |",,,"90","30.14","BKN:07 22 OVC:08 32","29.65","10.00","44","190",,"10",,,,,,,,,,,,,,,,,,,,,,,,,,,,,,,,,,,,,"MET11512/28/17 07:53:02 METAR KSEA 281553Z 19009KT 10SM -RA BKN022 OVC032 07/06 A3012 RMK AO2 SLP208 P0000 T00720056 (LC)","FM-15","7",,,,,,,,,,,,,,,,,,,,,,,,,,,,"2007-05-17"
"72793024233","2017-12-28T08:38:00","FM-16","7",,,,,,,,,,,,,,,,,,,,,,,,,,,,,,,,,,,,,,"30.11","42","45","0.01","-RA:02 |RA |",,,"90",,"SCT:04 24 BKN:07 40 OVC:08 65","29.64","10.00","44","180",,"14",,,,,,,,,,,,,,,,,,,,,,,,,,,,,,,,,,,,,"MET11512/28/17 08:38:02 SPECI KSEA 281638Z 18012KT 10SM -RA SCT024 BKN040 OVC065 07/06 A3011 RMK AO2 P0001 T00720056 (LC)","FM-16","7",,,,,,,,,,,,,,,,,,,,,,,,,,,,"2007-05-17"
"72793024233","2017-12-28T08:53:00","FM-15","7",,,,,,,,,,,,,,,,,,,,,,,,,,,,,,,,,,,,,,"30.11","42","45","0.01","-RA:02 |RA |",,,"90","30.13","SCT:04 24 BKN:07 40 OVC:08 65","29.64","10.00","44","180",,"15",,,,,,,,,,,,,,,,,,,,,,,,,,,,,,,,,,,,,"MET12212/28/17 08:53:02 METAR KSEA 281653Z 18013KT 10SM -RA SCT024 BKN040 OVC065 07/06 A3011 RMK AO2 SLP204 P0001 T00720056 (LC)","FM-15","7",,,,,,,,,,,,,,,,,,,,,,,,,,,,"2007-05-17"
"72793024233","2017-12-28T09:53:00","FM-15","7",,,,,,,,,,,,,,,,,,,,,,,,,,,,,,,,,,,,,,"30.10","43","46","0.02","-RA:02 |RA |","+0.03","8","89","30.12","FEW:02 25 BKN:07 37 OVC:08 60","29.63","10.00","45","190",,"15",,,,,,,,,,,,,,,,,,,,,,,,,,,,,,,,,,,,,"MET14612/28/17 09:53:02 METAR KSEA 281753Z 19013KT 10SM -RA FEW025 BKN037 OVC060 08/06 A3010 RMK AO2 SLP201 P0001 60003 T00780061 10078 20056 58009 (LC)","FM-15","7",,,,,,,,,,,,,,,,,,,,,,,,,,,,"2007-05-17"
"72793024233","2017-12-28T10:00:00","FM-12","4",,,,,,,,,,,,,,,,,,,,,,,,,,,,,,,,,,,,,,,"43","46",,"||RA","+0.03","8","89","30.12","26","29.62","9.94","45","190",,"15",,,,,,,,,,,,,,,,,,,,,,,,,,,,,,,,,,,,,"SYN09272793 11566 81913 10078 20061 30029 40201 58009 69981 761// 91753 333 10078 20017 555 92818=","FM-12","4",,,,,,,,,,,,,,,,,,,,,,,,,,,,"2007-05-17"
"72793024233","2017-12-28T10:53:00","FM-15","7",,,,,,,,,,,,,,,,,,,,,,,,,,,,,,,,,,,,,,"30.08","43","47","0.01","-RA:02 |RA |",,,"86","30.10","FEW:02 25 BKN:07 41 OVC:08 50","29.61","10.00","45","180","22","17",,,,,,,,,,,,,,,,,,,,,,,,,,,,,,,,,,,,,"MET12512/28/17 10:53:02 METAR KSEA 281853Z 18015G19KT 10SM -RA FEW025 BKN041 OVC050 08/06 A3008 RMK AO2 SLP193 P0001 T00830061 (LC)","FM-15","7",,,,,,,,,,,,,,,,,,,,,,,,,,,,"2007-05-17"
"72793024233","2017-12-28T11:53:00","FM-15","7",,,,,,,,,,,,,,,,,,,,,,,,,,,,,,,,,,,,,,"30.04","42","48","T","-RA:02 |RA |",,,"80","30.06","BKN:07 39 OVC:08 50","29.57","10.00","45","180",,"13",,,,,,,,,,,,,,,,,,,,,,,,,,,,,,,,,,,,,"MET11512/28/17 11:53:02 METAR KSEA 281953Z 18011KT 10SM -RA BKN039 OVC050 09/06 A3004 RMK AO2 SLP181 P0001 T00890056 (LC)","FM-15","7",,,,,,,,,,,,,,,,,,,,,,,,,,,,"2007-05-17"
"72793024233","2017-12-28T12:53:00","FM-15","7",,,,,,,,,,,,,,,,,,,,,,,,,,,,,,,,,,,,,,"30.02","44","47","0.02","-RA:02 |RA |","+0.08","6","90","30.04","BKN:07 38 OVC:08 55","29.55","10.00","46","200","24","14",,,,,,,,,,,,,,,,,,,,,,,,,,,,,,,,,,,,,"MET13012/28/17 12:53:02 METAR KSEA 282053Z 20012G21KT 10SM -RA BKN038 OVC055 08/07 A3002 RMK AO2 SLP174 P0002 60004 T00830067 56026 (LC)","FM-15","7",,,,,,,,,,,,,,,,,,,,,,,,,,,,"2007-05-17"
"72793024233","2017-12-28T13:53:00","FM-15","7",,,,,,,,,,,,,,,,,,,,,,,,,,,,,,,,,,,,,,"30.00","43","46","0.03","-RA:02 |RA |",,,"89","30.02","SCT:04 37 BKN:07 48 OVC:08 60","29.53","7.00","45","180",,"17",,,,,,,,,,,,,,,,,,,,,,,,,,,,,,,,,,,,,"MET12112/28/17 13:53:02 METAR KSEA 282153Z 18015KT 7SM -RA SCT037 BKN048 OVC060 08/06 A3000 RMK AO2 SLP166 P0003 T00780061 (RS)","FM-15","7",,,,,,,,,,,,,,,,,,,,,,,,,,,,"2007-05-17"
"72793024233","2017-12-28T14:53:00","FM-15","7",,,,,,,,,,,,,,,,,,,,,,,,,,,,,,,,,,,,,,"29.99","43","46","0.02","-RA:02 |RA |",,,"89","30.01","FEW:02 15 OVC:08 39","29.52","10.00","45","190",,"14",,,,,,,,,,,,,,,,,,,,,,,,,,,,,,,,,,,,,"MET12412/28/17 14:53:02 METAR KSEA 282253Z 19012KT 10SM -RA FEW015 OVC039 08/06 A2999 RMK AO2 RAE30B50 SLP164 P0002 T00780061 (RS)","FM-15","7",,,,,,,,,,,,,,,,,,,,,,,,,,,,"2007-05-17"
"72793024233","2017-12-28T15:53:00","FM-15","7",,,,,,,,,,,,,,,,,,,,,,,,,,,,,,,,,,,,,,"29.98","43","46","0.01","-RA:02 |RA |","+0.04","6","89","30.01","FEW:02 12 BKN:07 34 OVC:08 43","29.51","10.00","45","190",,"16",,,,,,,,,,,,,,,,,,,,,,,,,,,,,,,,,,,,,"MET14612/28/17 15:53:02 METAR KSEA 282353Z 19014KT 10SM -RA FEW012 BKN034 OVC043 08/06 A2998 RMK AO2 SLP162 P0001 60010 T00780061 10089 20078 56012 (RS)","FM-15","7",,,,,,,,,,,,,,,,,,,,,,,,,,,,"2007-05-17"
"72793024233","2017-12-28T16:00:00","FM-12","4",,,,,,,,,,,,,,,,,,,,,,,,,,,,,,,,,,,,,,,"43","46",,"||RA","+0.04","6","89","30.01","15","29.50","9.94","45","190",,"16",,,,,,,,,,,,,,,,,,,,,,,,,,,,,,,,,,,,,"SYN09272793 11466 81914 10078 20061 39989 40162 56012 60031 761// 92353 333 10089 20033 555 92900=","FM-12","4",,,,,,,,,,,,,,,,,,,,,,,,,,,,"2007-05-17"
"72793024233","2017-12-28T16:53:00","FM-15","7",,,,,,,,,,,,,,,,,,,,,,,,,,,,,,,,,,,,,,"29.98","42","45","0.04","-RA:02 |RA |",,,"90","30.00","SCT:04 29 SCT:04 36 OVC:08 43","29.51","10.00","44","190",,"11",,,,,,,,,,,,,,,,,,,,,,,,,,,,,,,,,,,,,"MET11712/28/17 16:53:01 METAR KSEA 290053Z 19010KT 10SM -RA SCT029 SCT036 OVC043 07/06 A2998 RMK AO2 SLP159 P0004 T00720056","FM-15","7",,,,,,,,,,,,,,,,,,,,,,,,,,,,"2007-05-17"
"72793024233","2017-12-28T17:11:00","FM-16","7",,,,,,,,,,,,,,,,,,,,,,,,,,,,,,,,,,,,,,"29.98","42","45","T","-RA:02 |RA |",,,"90",,"FEW:02 19 BKN:07 27 OVC:08 44","29.51","10.00","44","200",,"9",,,,,,,,,,,,,,,,,,,,,,,,,,,,,,,,,,,,,"MET11012/28/17 17:11:01 SPECI KSEA 290111Z 20008KT 10SM -RA FEW019 BKN027 OVC044 07/06 A2998 RMK AO2 P0000 T00720056","FM-16","7",,,,,,,,,,,,,,,,,,,,,,,,,,,,"2007-05-17"
"72793024233","2017-12-28T17:36:00","FM-16","7",,,,,,,,,,,,,,,,,,,,,,,,,,,,,,,,,,,,,,"29.97","42","45","T","-RA:02 |RA |",,,"90",,"FEW:02 24 BKN:07 32 OVC:08 70","29.50","10.00","44","170",,"9",,,,,,,,,,,,,,,,,,,,,,,,,,,,,,,,,,,,,"MET11012/28/17 17:36:01 SPECI KSEA 290136Z 17008KT 10SM -RA FEW024 BKN032 OVC070 07/06 A2997 RMK AO2 P0000 T00720056","FM-16","7",,,,,,,,,,,,,,,,,,,,,,,,,,,,"2007-05-17"
"72793024233","2017-12-28T17:53:00","FM-15","7",,,,,,,,,,,,,,,,,,,,,,,,,,,,,,,,,,,,,,"29.97","42","44","0.01","-RA:02 |RA |",,,"93","29.99","FEW:02 25 BKN:07 50 OVC:08 70","29.50","10.00","43","160",,"10",,,,,,,,,,,,,,,,,,,,,,,,,,,,,,,,,,,,,"MET11712/28/17 17:53:01 METAR KSEA 290153Z 16009KT 10SM -RA FEW025 BKN050 OVC070 07/06 A2997 RMK AO2 SLP156 P0001 T00670056","FM-15","7",,,,,,,,,,,,,,,,,,,,,,,,,,,,"2007-05-17"
"72793024233","2017-12-28T18:22:00","FM-16","7",,,,,,,,,,,,,,,,,,,,,,,,,,,,,,,,,,,,,,"29.96","42","44","T","-RA:02 BR:1 |RA |",,,"93",,"BKN:07 27 OVC:08 42","29.49","6.00","43","150",,"8",,,,,,,,,,,,,,,,,,,,,,,,,,,,,,,,,,,,,"MET10512/28/17 18:22:01 SPECI KSEA 290222Z 15007KT 6SM -RA BR BKN027 OVC042 07/06 A2996 RMK AO2 P0000 T00670056","FM-16","7",,,,,,,,,,,,,,,,,,,,,,,,,,,,"2007-05-17"
"72793024233","2017-12-28T18:38:00","FM-16","7",,,,,,,,,,,,,,,,,,,,,,,,,,,,,,,,,,,,,,"29.96","43","44","0.01","-RA:02 BR:1 |RA |",,,"96",,"SCT:04 6 SCT:04 16 OVC:08 25","29.49","4.00","44","130",,"7",,,,,,,,,,,,,,,,,,,,,,,,,,,,,,,,,,,,,"MET11212/28/17 18:38:01 SPECI KSEA 290238Z 13006KT 4SM -RA BR SCT006 SCT016 OVC025 07/06 A2996 RMK AO2 P0001 T00670061","FM-16","7",,,,,,,,,,,,,,,,,,,,,,,,,,,,"2007-05-17"
"72793024233","2017-12-28T18:53:00","FM-15","7",,,,,,,,,,,,,,,,,,,,,,,,,,,,,,,,,,,,,,"29.96","43","44","0.01","-RA:02 BR:1 |RA |","+0.02","7","96","29.98","SCT:04 6 BKN:07 15 OVC:08 25","29.49","3.00","44","130",,"6",,,,,,,,,,,,,,,,,,,,,,,,,,,,,,,,,,,,,"MET13112/28/17 18:53:02 METAR KSEA 290253Z 13005KT 3SM -RA BR SCT006 BKN015 OVC025 07/06 A2996 RMK AO2 SLP153 P0001 60006 T00670061 57008","FM-15","7",,,,,,,,,,,,,,,,,,,,,,,,,,,,"2007-05-17"
"72793024233","2017-12-28T19:10:00","FM-16","7",,,,,,,,,,,,,,,,,,,,,,,,,,,,,,,,,,,,,,"29.96","43","44","0.01","-RA:02 BR:1 |RA |",,,"96",,"BKN:07 5 OVC:08 13","29.49","3.00","44","130",,"5",,,,,,,,,,,,,,,,,,,,,,,,,,,,,,,,,,,,,"MET10512/28/17 19:10:02 SPECI KSEA 290310Z 13004KT 3SM -RA BR BKN005 OVC013 07/06 A2996 RMK AO2 P0001 T00670061","FM-16","7",,,,,,,,,,,,,,,,,,,,,,,,,,,,"2007-05-17"
"72793024233","2017-12-28T19:51:00","FM-16","6",,,,,,,,,,,,,,,,,,,,,,,,,,,,,,,,,,,,,,"29.95","43","45",,"BR:1 ||",,,"93",,"BKN:07 5 BKN:07 13 OVC:08 28","29.48","2.50","44","100",,"6",,,,,,,,,,,,,,,,,,,,,,,,,,,,,,,,,,,,,"MET11812/28/17 19:51:03 SPECI KSEA 290351Z 10005KT 2 1/2SM BR BKN005 BKN013 OVC028 07/06 A2995 RMK AO2 RAE49 P0002 FIBI (RS)","FM-16","6",,,,,,,,,,,,,,,,,,,,,,,,,,,,"2007-05-17"
"72793024233","2017-12-28T19:53:00","FM-15","7",,,,,,,,,,,,,,,,,,,,,,,,,,,,,,,,,,,,,,"29.95","43","45","0.03","BR:1 ||",,,"93","29.98","BKN:07 5 BKN:07 11 OVC:08 28","29.48","2.50","44","100",,"6",,,,,,,,,,,,,,,,,,,,,,,,,,,,,,,,,,,,,"MET12512/28/17 19:53:02 METAR KSEA 290353Z 10005KT 2 1/2SM BR BKN005 BKN011 OVC028 07/06 A2995 RMK AO2 RAE49 SLP151 P0002 T00720061","FM-15","7",,,,,,,,,,,,,,,,,,,,,,,,,,,,"2007-05-17"
"72793024233","2017-12-28T19:56:00","FM-16","7",,,,,,,,,,,,,,,,,,,,,,,,,,,,,,,,,,,,,,"29.95","43","45","T","-RA:02 BR:1 |RA |",,,"93",,"BKN:07 5 OVC:08 26","29.48","2.50","44","110",,"6",,,,,,,,,,,,,,,,,,,,,,,,,,,,,,,,,,,,,"MET11512/28/17 19:56:02 SPECI KSEA 290356Z 11005KT 2 1/2SM -RA BR BKN005 OVC026 07/06 A2995 RMK AO2 RAB56 P0000 T00720061","FM-16","7",,,,,,,,,,,,,,,,,,,,,,,,,,,,"2007-05-17"
"72793024233","2017-12-28T20:02:00","FM-16","7",,,,,,,,,,,,,,,,,,,,,,,,,,,,,,,,,,,,,,"29.95","43","45","0.01","-RA:02 BR:1 |RA |",,,"93",,"SCT:04 2 OVC:08 21","29.48","2.00","44","090",,"8",,,,,,,,,,,,,,,,,,,,,,,,,,,,,,,,,,,,,"MET11312/28/17 20:02:02 SPECI KSEA 290402Z 09007KT 2SM -RA BR SCT002 OVC021 07/06 A2995 RMK AO2 RAB0356 P0001 T00720061","FM-16","7",,,,,,,,,,,,,,,,,,,,,,,,,,,,"2007-05-17"
"72793024233","2017-12-28T20:04:00","FM-16","7",,,,,,,,,,,,,,,,,,,,,,,,,,,,,,,,,,,,,,"29.95","43","45","0.01","-RA:02 BR:1 |RA |",,,"93",,"SCT:04 2 BKN:07 5 OVC:08 21","29.48","1.50","44","090",,"7",,,,,,,,,,,,,,,,,,,,,,,,,,,,,,,,,,,,,"MET13812/28/17 20:04:02 SPECI KSEA 290404Z 09006KT 1 1/2SM -RA BR SCT002 BKN005 OVC021 07/06 A2995 RMK AO2 SFC VIS 1 3/4 RAB0356 P0001 T00720061","FM-16","7",,,,,,,,,,,,,,,,,,,,,,,,,,,,"2007-05-17"
"72793024233","2017-12-28T20:53:00","FM-15","7",,,,,,,,,,,,,,,,,,,,,,,,,,,,,,,,,,,,,,"29.93","42","44","0.02","-RA:02 BR:1 |RA |",,,"93","29.96","FEW:02 3 BKN:07 8 OVC:08 27","29.47","1.50","43","120",,"8",,,,,,,,,,,,,,,,,,,,,,,,,,,,,,,,,,,,,"MET14112/28/17 20:53:02 METAR KSEA 290453Z 12007KT 1 1/2SM -RA BR FEW003 BKN008 OVC027 07/06 A2993 RMK AO2 SFC VIS 2 RAB0356 SLP145 P0003 T00670056","FM-15","7",,,,,,,,,,,,,,,,,,,,,,,,,,,,"2007-05-17"
"72793024233","2017-12-28T21:08:00","FM-16","7",,,,,,,,,,,,,,,,,,,,,,,,,,,,,,,,,,,,,,"29.93","42","44","0.01","-RA:02 BR:1 |RA |",,,"93",,"FEW:02 3 SCT:04 8 OVC:08 29","29.47","1.50","43","120",,"8",,,,,,,,,,,,,,,,,,,,,,,,,,,,,,,,,,,,,"MET12612/28/17 21:08:02 SPECI KSEA 290508Z 12007KT 1 1/2SM -RA BR FEW003 SCT008 OVC029 07/06 A2993 RMK AO2 SFC VIS 2 P0001 T00670056","FM-16","7",,,,,,,,,,,,,,,,,,,,,,,,,,,,"2007-05-17"
"72793024233","2017-12-28T21:18:00","FM-16","7",,,,,,,,,,,,,,,,,,,,,,,,,,,,,,,,,,,,,,"29.93","42","44","0.01","-RA:02 BR:1 |RA |",,,"93",,"FEW:02 3 SCT:04 8 OVC:08 32","29.47","1.50","43","110",,"9",,,,,,,,,,,,,,,,,,,,,,,,,,,,,,,,,,,,,"MET12612/28/17 21:18:02 SPECI KSEA 290518Z 11008KT 1 1/2SM -RA BR FEW003 SCT008 OVC032 07/06 A2993 RMK AO2 SFC VIS 3 P0001 T00670056","FM-16","7",,,,,,,,,,,,,,,,,,,,,,,,,,,,"2007-05-17"
"72793024233","2017-12-28T21:51:00","FM-16","7",,,,,,,,,,,,,,,,,,,,,,,,,,,,,,,,,,,,,,"29.93","43","45","0.02","-RA:02 BR:1 |RA |",,,"93",,"FEW:02 11 OVC:08 28","29.47","3.00","44","100",,"7",,,,,,,,,,,,,,,,,,,,,,,,,,,,,,,,,,,,,"MET10512/28/17 21:51:02 SPECI KSEA 290551Z 10006KT 3SM -RA BR FEW011 OVC028 07/06 A2993 RMK AO2 SFC VIS 3 P0002","FM-16","7",,,,,,,,,,,,,,,,,,,,,,,,,,,,"2007-05-17"
"72793024233","2017-12-28T21:53:00","FM-15","7",,,,,,,,,,,,,,,,,,,,,,,,,,,,,,,,,,,,,,"29.93","42","44","0.02","-RA:02 BR:1 |RA |","+0.02","6","93","29.96","FEW:02 11 OVC:08 28","29.47","3.00","43","100",,"6",,,,,,,,,,,,,,,,,,,,,,,,,,,,,,,,,,,,,"MET14612/28/17 21:53:02 METAR KSEA 290553Z 10005KT 3SM -RA BR FEW011 OVC028 07/06 A2993 RMK AO2 SFC VIS 3 SLP145 P0002 60013 T00670056 10078 20067 56008","FM-15","7",,,,,,,,,,,,,,,,,,,,,,,,,,,,"2007-05-17"
"72793024233","2017-12-28T22:00:00","FM-12","4",,,,,,,,,,,,,,,,,,,,,,,,,,,,,,,,,,,,,,,"42","44",,"||RA","+0.02","6","93","29.96","15","29.45","2.98","43","100",,"6",,,,,,,,,,,,,,,,,,,,,,,,,,,,,,,,,,,,,"SYN09872793 11448 81005 10067 20056 39973 40145 56008 60031 761// 90553 333 10078 20033 96010 555 92906=","FM-12","4",,,,,,,,,,,,,,,,,,,,,,,,,,,,"2007-05-17"
"72793024233","2017-12-28T22:03:00","FM-16","7",,,,,,,,,,,,,,,,,,,,,,,,,,,,,,,,,,,,,,"29.94","42","44","0.01","-RA:02 BR:1 |RA |",,,"93",,"FEW:02 6 FEW:02 11 OVC:08 26","29.47","3.00","43","110",,"6",,,,,,,,,,,,,,,,,,,,,,,,,,,,,,,,,,,,,"MET12212/28/17 22:03:02 SPECI KSEA 290603Z 11005KT 3SM -RA BR FEW006 FEW011 OVC026 07/06 A2994 RMK AO2 SFC VIS 3 P0001 T00670056","FM-16","7",,,,,,,,,,,,,,,,,,,,,,,,,,,,"2007-05-17"
"72793024233","2017-12-28T22:37:00","FM-16","7",,,,,,,,,,,,,,,,,,,,,,,,,,,,,,,,,,,,,,"29.94","42","44","0.03","-RA:02 BR:1 |RA |",,,"93",,"FEW:02 5 SCT:04 25 OVC:08 48","29.47","6.00","43","110",,"7",,,,,,,,,,,,,,,,,,,,,,,,,,,,,,,,,,,,,"MET11212/28/17 22:37:02 SPECI KSEA 290637Z 11006KT 6SM -RA BR FEW005 SCT025 OVC048 07/06 A2994 RMK AO2 P0003 T00670056","FM-16","7",,,,,,,,,,,,,,,,,,,,,,,,,,,,"2007-05-17"
"72793024233","2017-12-28T22:53:00","FM-15","7",,,,,,,,,,,,,,,,,,,,,,,,,,,,,,,,,,,,,,"29.93","42","44","0.05","-RA:02 BR:1 |RA |",,,"93","29.96","FEW:02 5 SCT:04 25 OVC:08 48","29.47","6.00","43","120",,"8",,,,,,,,,,,,,,,,,,,,,,,,,,,,,,,,,,,,,"MET11912/28/17 22:53:02 METAR KSEA 290653Z 12007KT 6SM -RA BR FEW005 SCT025 OVC048 07/06 A2993 RMK AO2 SLP144 P0004 T00670056","FM-15","7",,,,,,,,,,,,,,,,,,,,,,,,,,,,"2007-05-17"
"72793024233","2017-12-28T23:40:00","FM-16","7",,,,,,,,,,,,,,,,,,,,,,,,,,,,,,,,,,,,,,"29.94","43","44","0.03","-RA:02 BR:1 |RA |",,,"96",,"FEW:02 15 OVC:08 22","29.47","4.00","44","130",,"8",,,,,,,,,,,,,,,,,,,,,,,,,,,,,,,,,,,,,"MET10512/28/17 23:40:02 SPECI KSEA 290740Z 13007KT 4SM -RA BR FEW015 OVC022 07/06 A2994 RMK AO2 P0003 T00670061","FM-16","7",,,,,,,,,,,,,,,,,,,,,,,,,,,,"2007-05-17"
"72793024233","2017-12-28T23:51:00","FM-16","6",,,,,,,,,,,,,,,,,,,,,,,,,,,,,,,,,,,,,,"29.94","43","45",,"-RA:02 BR:1 |RA |",,,"93",,"FEW:02 6 BKN:07 12 OVC:08 20","29.47","3.00","44","120",,"6",,,,,,,,,,,,,,,,,,,,,,,,,,,,,,,,,,,,,"MET11412/28/17 23:51:03 SPECI KSEA 290751Z 12005KT 3SM -RA BR FEW006 BKN012 OVC020 07/06 A2994 RMK AO2 P0004 $ FIBI (TL)","FM-16","6",,,,,,,,,,,,,,,,,,,,,,,,,,,,"2007-05-17"
"72793024233","2017-12-28T23:53:00","FM-15","7",,,,,,,,,,,,,,,,,,,,,,,,,,,,,,,,,,,,,,"29.94","43","44","0.03","-RA:02 BR:1 |RA |",,,"96","29.96","FEW:02 6 OVC:08 17","29.47","3.00","44","120",,"6",,,,,,,,,,,,,,,,,,,,,,,,,,,,,,,,,,,,,"MET12412/28/17 23:53:02 METAR KSEA 290753Z 12005KT 3SM -RA BR FEW006 OVC017 07/06 A2994 RMK AO2 SLP145 P0004 T00670061 400890033 $","FM-15","7",,,,,,,,,,,,,,,,,,,,,,,,,,,,"2007-05-17"
"72793024233","2017-12-28T23:59:00","SOD  ","6",,,,,,,,,,,,,,,"42","43","90","30.08","29.57","43","10.7","0","2.6","22","48","38","170","24","0.34","0","0.0","180","21","RA BR",,,,,,,,,,,,,,,,,,,,,,,,,,,,,,,,,,,,,,,,,,,,,,,,,,,,,,,,"SOD77524 HR PRECIPITATION (IN): 0.34 WEATHER(CODE):1  24 HR MAX TEMP (F):48 24 HR MAX TEMP TIME (LST):1250 24 HR MIN TEMP (F):38 24 HR MIN TEMP TIME (LST):0020 AVERAGE STATION PRESSURE(D):29.571 MINIMUM SEA LEVEL PRESSURE:29.95 TIME OF OCCURRENCE:2313 PEAK WIND SPEED (MPH):24  PEAK WIND DIR (DEG):170 PEAK WIND TIME (LST):1356  FASTEST 2MIN SPEED (MPH):21 FASTEST 2MIN DIR (DEG):180 FASTEST 2MIN TIME (LST):1357 AVERAGE WIND SPEED (MPH):10.7 24 HR AVG TEMP (F):43 DEPART FROM NORMAL:   3 HEATING DEGREE DAYS: 22 COOLING DEGREE DAYS:  0 LATEST DAY MAX TEMP (0700-1900 LST): 48 LATEST NIGHT MIN TEMP(1900-0800 LST):38 HOURLY INCREMENTAL PRECIPITATION VALUES (IN):0.00 0.00 0.00 0.00 0.00T     0.01T     0.01 0.02 0.01T     0.02 0.03 0.02 0.01 0.04 0.01 0.01 0.03 0.02 0.02 0.05 0.03","SOD  ","6",,,,,,,,,,,,,,,,,,,,,,,,,"0757","1625",,"2007-05-17"
"72793024233","2017-12-29T00:09:00","FM-16","7",,,,,,,,,,,,,,,,,,,,,,,,,,,,,,,,,,,,,,"29.94","43","44","T","-RA:02 BR:1 |RA |",,,"96",,"BKN:07 7 OVC:08 12","29.47","3.00","44","060",,"5",,,,,,,,,,,,,,,,,,,,,,,,,,,,,,,,,,,,,"MET11212/29/17 00:09:02 SPECI KSEA 290809Z 06004KT 3SM -RA BR BKN007 OVC012 07/06 A2994 RMK AO2 P0000 T00670061 $ (TL)","FM-16","7",,,,,,,,,,,,,,,,,,,,,,,,,,,,"2007-05-17"
"72793024233","2017-12-29T00:28:00","FM-16","7",,,,,,,,,,,,,,,,,,,,,,,,,,,,,,,,,,,,,,"29.94","43","44","0.01","-RA:02 BR:1 |RA |",,,"96",,"BKN:07 5 OVC:08 10","29.47","2.00","44","070",,"5",,,,,,,,,,,,,,,,,,,,,,,,,,,,,,,,,,,,,"MET11212/29/17 00:28:02 SPECI KSEA 290828Z 07004KT 2SM -RA BR BKN005 OVC010 07/06 A2994 RMK AO2 P0001 T00670061 $ (TL)","FM-16","7",,,,,,,,,,,,,,,,,,,,,,,,,,,,"2007-05-17"
"72793024233","2017-12-29T00:53:00","FM-15","7",,,,,,,,,,,,,,,,,,,,,,,,,,,,,,,,,,,,,,"29.95","43","44","0.02","-RA:02 BR:1 |RA |","-0.02","3","96","29.98","BKN:07 5 OVC:08 10","29.48","2.00","44","000",,"0",,,,,,,,,,,,,,,,,,,,,,,,,,,,,,,,,,,,,"MET13112/29/17 00:53:02 METAR KSEA 290853Z 00000KT 2SM -RA BR BKN005 OVC010 07/06 A2995 RMK AO2 SLP151 P0002 60010 T00670061 53006 $ (TL)","FM-15","7",,,,,,,,,,,,,,,,,,,,,,,,,,,,"2007-05-17"
"72793024233","2017-12-29T01:45:00","FM-16","7",,,,,,,,,,,,,,,,,,,,,,,,,,,,,,,,,,,,,,"29.95","43","44","0.05","-RA:02 BR:1 |RA |",,,"96",,"FEW:02 3 OVC:08 8","29.48","4.00","44","140",,"6",,,,,,,,,,,,,,,,,,,,,,,,,,,,,,,,,,,,,"MET11212/29/17 01:45:02 SPECI KSEA 290945Z 14005KT 4SM -RA BR FEW003 OVC008 07/06 A2995 RMK AO2 P0005 T00670061 $ (TL)","FM-16","7",,,,,,,,,,,,,,,,,,,,,,,,,,,,"2007-05-17"
"72793024233","2017-12-29T01:53:00","FM-15","7",,,,,,,,,,,,,,,,,,,,,,,,,,,,,,,,,,,,,,"29.95","44","44","0.07","-RA:02 BR:1 |RA |",,,"100","29.97","BKN:07 8 OVC:08 12","29.48","5.00","44","VRB",,"6",,,,,,,,,,,,,,,,,,,,,,,,,,,,,,,,,,,,,"MET11912/29/17 01:53:02 METAR KSEA 290953Z VRB05KT 5SM -RA BR BKN008 OVC012 07/07 A2995 RMK AO2 SLP150 P0006 T00670067 $ (TL)","FM-15","7",,,,,,,,,,,,,,,,,,,,,,,,,,,,"2007-05-17"
"72793024233","2017-12-29T02:09:00","FM-16","7",,,,,,,,,,,,,,,,,,,,,,,,,,,,,,,,,,,,,,"29.95","44","44","0.03","-RA:02 BR:1 |RA |",,,"100",,"OVC:08 6","29.48","1.75","44","140",,"5",,,,,,,,,,,,,,,,,,,,,,,,,,,,,,,,,,,,,"MET10912/29/17 02:09:02 SPECI KSEA 291009Z 14004KT 1 3/4SM -RA BR OVC006 07/07 A2995 RMK AO2 P0003 T00670067 $ (TL)","FM-16","7",,,,,,,,,,,,,,,,,,,,,,,,,,,,"2007-05-17"
"72793024233","2017-12-29T02:12:00","FM-16","7",,,,,,,,,,,,,,,,,,,,,,,,,,,,,,,,,,,,,,"29.96","44","44","0.04","-RA:02 BR:1 |RA |",,,"100",,"OVC:08 4","29.49","1.00","44","140",,"3",,,,,,,,,,,,,,,,,,,,,,,,,,,,,,,,,,,,,"MET11812/29/17 02:12:02 SPECI KSEA 291012Z 14003KT 1SM R16L/P6000FT -RA BR OVC004 07/07 A2996 RMK AO2 P0004 T00670067 $ (TL)","FM-16","7",,,,,,,,,,,,,,,,,,,,,,,,,,,,"2007-05-17"
"72793024233","2017-12-29T02:29:00","FM-16","7",,,,,,,,,,,,,,,,,,,,,,,,,,,,,,,,,,,,,,"29.96","44","44","0.06","-RA:02 BR:1 |RA |",,,"100",,"BKN:07 4 OVC:08 10","29.49","5.00","44","120",,"3",,,,,,,,,,,,,,,,,,,,,,,,,,,,,,,,,,,,,"MET11212/29/17 02:29:02 SPECI KSEA 291029Z 12003KT 5SM -RA BR BKN004 OVC010 07/07 A2996 RMK AO2 P0006 T00670067 $ (TL)","FM-16","7",,,,,,,,,,,,,,,,,,,,,,,,,,,,"2007-05-17"
"72793024233","2017-12-29T02:31:00","FM-16","7",,,,,,,,,,,,,,,,,,,,,,,,,,,,,,,,,,,,,,"29.96","44","44","0.06","-RA:02 BR:1 |RA |",,,"100",,"SCT:04 3 OVC:08 10","29.49","5.00","44","120",,"3",,,,,,,,,,,,,,,,,,,,,,,,,,,,,,,,,,,,,"MET11212/29/17 02:31:02 SPECI KSEA 291031Z 12003KT 5SM -RA BR SCT003 OVC010 07/07 A2996 RMK AO2 P0006 T00670067 $ (TL)","FM-16","7",,,,,,,,,,,,,,,,,,,,,,,,,,,,"2007-05-17"
"72793024233","2017-12-29T02:53:00","FM-15","7",,,,,,,,,,,,,,,,,,,,,,,,,,,,,,,,,,,,,,"29.96","44","44","0.09","-RA:02 BR:1 |RA |",,,"100","29.98","FEW:02 3 OVC:08 13","29.49","4.00","44","140",,"6",,,,,,,,,,,,,,,,,,,,,,,,,,,,,,,,,,,,,"MET11912/29/17 02:53:02 METAR KSEA 291053Z 14005KT 4SM -RA BR FEW003 OVC013 07/07 A2996 RMK AO2 SLP154 P0009 T00670067 $ (TL)","FM-15","7",,,,,,,,,,,,,,,,,,,,,,,,,,,,"2007-05-17"
"72793024233","2017-12-29T03:20:00","FM-16","7",,,,,,,,,,,,,,,,,,,,,,,,,,,,,,,,,,,,,,"29.96","45","45","0.04","-RA:02 BR:1 |RA |",,,"100",,"BKN:07 11 OVC:08 16","29.49","1.75","45","120",,"6",,,,,,,,,,,,,,,,,,,,,,,,,,,,,,,,,,,,,"MET11612/29/17 03:20:02 SPECI KSEA 291120Z 12005KT 1 3/4SM -RA BR BKN011 OVC016 07/07 A2996 RMK AO2 P0004 T00720072 $ (TL)","FM-16","7",,,,,,,,,,,,,,,,,,,,,,,,,,,,"2007-05-17"
"72793024233","2017-12-29T03:22:00","FM-16","7",,,,,,,,,,,,,,,,,,,,,,,,,,,,,,,,,,,,,,"29.96","45","45","0.04","-RA:02 BR:1 |RA |",,,"100",,"BKN:07 8 OVC:08 16","29.49","1.00","45","120",,"5",,,,,,,,,,,,,,,,,,,,,,,,,,,,,,,,,,,,,"MET12512/29/17 03:22:02 SPECI KSEA 291122Z 12004KT 1SM R16L/P6000FT -RA BR BKN008 OVC016 07/07 A2996 RMK AO2 P0004 T00720072 $ (TL)","FM-16","7",,,,,,,,,,,,,,,,,,,,,,,,,,,,"2007-05-17"
"72793024233","2017-12-29T03:27:00","FM-16","7",,,,,,,,,,,,,,,,,,,,,,,,,,,,,,,,,,,,,,"29.96","45","45","0.05","-RA:02 BR:1 |RA |",,,"100",,"FEW:02 2 BKN:07 8 OVC:08 12","29.49","2.00","45","000",,"0",,,,,,,,,,,,,,,,,,,,,,,,,,,,,,,,,,,,,"MET11912/29/17 03:27:02 SPECI KSEA 291127Z 00000KT 2SM -RA BR FEW002 BKN008 OVC012 07/07 A2996 RMK AO2 P0005 T00720072 $ (TL)","FM-16","7",,,,,,,,,,,,,,,,,,,,,,,,,,,,"2007-05-17"
"72793024233","2017-12-29T03:51:00","FM-16","6",,,,,,,,,,,,,,,,,,,,,,,,,,,,,,,,,,,,,,"29.97","45","45",,"-RA:02 BR:1 |RA |",,,"100",,"OVC:08 3","29.50","2.00","45","000",,"0",,,,,,,,,,,,,,,,,,,,,,,,,,,,,,,,,,,,,"MET10012/29/17 03:51:02 SPECI KSEA 291151Z 00000KT 2SM -RA BR OVC003 07/07 A2997 RMK AO2 P0010 $ FIBI (TL)","FM-16","6",,,,,,,,,,,,,,,,,,,,,,,,,,,,"2007-05-17"
"72793024233","2017-12-29T03:53:00","FM-15","7",,,,,,,,,,,,,,,,,,,,,,,,,,,,,,,,,,,,,,"29.97","45","45","0.11","-RA:02 BR:1 |RA |","-0.01","3","100","29.99","OVC:08 3","29.50","2.00","45","000",,"0",,,,,,,,,,,,,,,,,,,,,,,,,,,,,,,,,,,,,"MET14212/29/17 03:53:02 METAR KSEA 291153Z 00000KT 2SM -RA BR OVC003 07/07 A2997 RMK AO2 SLP155 P0010 60035 70061 T00720072 10072 20061 53005 $ (TL)","FM-15","7",,,,,,,,,,,,,,,,,,,,,,,,,,,,"2007-05-17"
"72793024233","2017-12-29T04:00:00","FM-12","4",,,,,,,,,,,,,,,,,,,,,,,,,,,,,,,,,,,,,,,"45","45",,"||RA","-0.01","3","100","29.99","2","29.49","1.99","45","000",,"0",,,,,,,,,,,,,,,,,,,,,,,,,,,,,,,,,,,,,"SYN10472793 11132 80000 10072 20072 39986 40155 53005 60091 761// 91153 333 10089 20061 70155 96010 555 92912=","FM-12","4",,,,,,,,,,,,,,,,,,,,,,,,,,,,"2007-05-17"
"72793024233","2017-12-29T04:26:00","FM-16","7",,,,,,,,,,,,,,,,,,,,,,,,,,,,,,,,,,,,,,"29.96","45","45","0.07","-RA:02 BR:1 |RA |",,,"100",,"BKN:07 7 OVC:08 11","29.49","2.00","45","000",,"0",,,,,,,,,,,,,,,,,,,,,,,,,,,,,,,,,,,,,"MET11212/29/17 04:26:02 SPECI KSEA 291226Z 00000KT 2SM -RA BR BKN007 OVC011 07/07 A2996 RMK AO2 P0007 T00720072 $ (TL)","FM-16","7",,,,,,,,,,,,,,,,,,,,,,,,,,,,"2007-05-17"
"72793024233","2017-12-29T04:53:00","FM-15","7",,,,,,,,,,,,,,,,,,,,,,,,,,,,,,,,,,,,,,"29.96","45","45","0.13","-RA:02 BR:1 |RA |",,,"100","29.98","BKN:07 6 OVC:08 11","29.49","2.00","45","000",,"0",,,,,,,,,,,,,,,,,,,,,,,,,,,,,,,,,,,,,"MET11912/29/17 04:53:02 METAR KSEA 291253Z 00000KT 2SM -RA BR BKN006 OVC011 07/07 A2996 RMK AO2 SLP152 P0014 T00720072 $ (TL)","FM-15","7",,,,,,,,,,,,,,,,,,,,,,,,,,,,"2007-05-17"
"72793024233","2017-12-29T05:22:00","FM-16","7",,,,,,,,,,,,,,,,,,,,,,,,,,,,,,,,,,,,,,"29.95","46","46","0.05","-RA:02 BR:1 |RA |",,,"100",,"FEW:02 7 OVC:08 13","29.48","5.00","46","130",,"3",,,,,,,,,,,,,,,,,,,,,,,,,,,,,,,,,,,,,"MET11212/29/17 05:22:02 SPECI KSEA 291322Z 13003KT 5SM -RA BR FEW007 OVC013 08/08 A2995 RMK AO2 P0005 T00780078 $ (TL)","FM-16","7",,,,,,,,,,,,,,,,,,,,,,,,,,,,"2007-05-17"
"72793024233","2017-12-29T05:53:00","FM-15","7",,,,,,,,,,,,,,,,,,,,,,,,,,,,,,,,,,,,,,"29.95","46","46","0.11","-RA:02 BR:1 |RA |",,,"100","29.98","BKN:07 13 OVC:08 24","29.48","4.00","46","130",,"3",,,,,,,,,,,,,,,,,,,,,,,,,,,,,,,,,,,,,"MET11912/29/17 05:53:02 METAR KSEA 291353Z 13003KT 4SM -RA BR BKN013 OVC024 08/08 A2995 RMK AO2 SLP151 P0010 T00780078 $ (JC)","FM-15","7",,,,,,,,,,,,,,,,,,,,,,,,,,,,"2007-05-17"
"72793024233","2017-12-29T06:12:00","FM-16","7",,,,,,,,,,,,,,,,,,,,,,,,,,,,,,,,,,,,,,"29.95","46","46","0.04","-RA:02 BR:1 |RA |",,,"100",,"FEW:02 7 BKN:07 15 OVC:08 24","29.48","4.00","46","140",,"3",,,,,,,,,,,,,,,,,,,,,,,,,,,,,,,,,,,,,"MET11712/29/17 06:12:02 SPECI KSEA 291412Z 14003KT 4SM -RA BR FEW007 BKN015 OVC024 08/08 A2995 RMK AO2 P0004 T00780078 (JC)","FM-16","7",,,,,,,,,,,,,,,,,,,,,,,,,,,,"2007-05-17"
"72793024233","2017-12-29T06:40:00","FM-16","7",,,,,,,,,,,,,,,,,,,,,,,,,,,,,,,,,,,,,,"29.94","47","47","0.08","-RA:02 BR:1 |RA |",,,"100",,"SCT:04 6 OVC:08 11","29.47","4.00","47","120",,"3",,,,,,,,,,,,,,,,,,,,,,,,,,,,,,,,,,,,,"MET11012/29/17 06:40:02 SPECI KSEA 291440Z 12003KT 4SM -RA BR SCT006 OVC011 08/08 A2994 RMK AO2 P0008 T00830083 (JC)","FM-16","7",,,,,,,,,,,,,,,,,,,,,,,,,,,,"2007-05-17"
"72793024233","2017-12-29T06:53:00","FM-15","7",,,,,,,,,,,,,,,,,,,,,,,,,,,,,,,,,,,,,,"29.94","47","47","0.08","-RA:02 BR:1 |RA |","+0.02","8","100","29.96","SCT:04 6 OVC:08 11","29.47","3.00","47","000",,"0",,,,,,,,,,,,,,,,,,,,,,,,,,,,,,,,,,,,,"MET12912/29/17 06:53:02 METAR KSEA 291453Z 00000KT 3SM -RA BR SCT006 OVC011 08/08 A2994 RMK AO2 SLP147 P0009 60033 T00830083 58008 (JC)","FM-15","7",,,,,,,,,,,,,,,,,,,,,,,,,,,,"2007-05-17"
"72793024233","2017-12-29T07:11:00","FM-16","7",,,,,,,,,,,,,,,,,,,,,,,,,,,,,,,,,,,,,,"29.93","47","47","0.02","-RA:02 BR:1 |RA |",,,"100",,"SCT:04 5 OVC:08 9","29.47","3.00","47","090",,"3",,,,,,,,,,,,,,,,,,,,,,,,,,,,,,,,,,,,,"MET11012/29/17 07:11:02 SPECI KSEA 291511Z 09003KT 3SM -RA BR SCT005 OVC009 08/08 A2993 RMK AO2 P0002 T00830083 (JC)","FM-16","7",,,,,,,,,,,,,,,,,,,,,,,,,,,,"2007-05-17"
"72793024233","2017-12-29T07:51:00","FM-16","6",,,,,,,,,,,,,,,,,,,,,,,,,,,,,,,,,,,,,,"29.92","48","48",,"-RA:02 BR:1 |RA |",,,"100",,"OVC:08 7","29.45","1.50","48","000",,"0",,,,,,,,,,,,,,,,,,,,,,,,,,,,,,,,,,,,,"MET10212/29/17 07:51:02 SPECI KSEA 291551Z 00000KT 1 1/2SM -RA BR OVC007 09/09 A2992 RMK AO2 P0007 FIBI (JC)","FM-16","6",,,,,,,,,,,,,,,,,,,,,,,,,,,,"2007-05-17"
"72793024233","2017-12-29T07:53:00","FM-15","7",,,,,,,,,,,,,,,,,,,,,,,,,,,,,,,,,,,,,,"29.91","47","47","0.07","-RA:02 BR:1 |RA |",,,"100","29.94","BKN:07 7 OVC:08 15","29.44","1.50","47","000",,"0",,,,,,,,,,,,,,,,,,,,,,,,,,,,,,,,,,,,,"MET12112/29/17 07:53:02 METAR KSEA 291553Z 00000KT 1 1/2SM -RA BR BKN007 OVC015 08/08 A2991 RMK AO2 SLP138 P0007 T00830083 (JC)","FM-15","7",,,,,,,,,,,,,,,,,,,,,,,,,,,,"2007-05-17"
"72793024233","2017-12-29T08:24:00","FM-16","7",,,,,,,,,,,,,,,,,,,,,,,,,,,,,,,,,,,,,,"29.92","47","47","0.05","-RA:02 BR:1 |RA |",,,"100",,"BKN:07 4 OVC:08 9","29.45","1.50","47","350",,"5",,,,,,,,,,,,,,,,,,,,,,,,,,,,,,,,,,,,,"MET13112/29/17 08:24:02 SPECI KSEA 291624Z 35004KT 1 1/2SM R16L/3000V6000FT -RA BR BKN004 OVC009 08/08 A2992 RMK AO2 P0005 T00830083 (JC)","FM-16","7",,,,,,,,,,,,,,,,,,,,,,,,,,,,"2007-05-17"
"72793024233","2017-12-29T08:46:00","FM-16","7",,,,,,,,,,,,,,,,,,,,,,,,,,,,,,,,,,,,,,"29.92","47","47","0.09","-RA:02 BR:1 |RA |",,,"100",,"FEW:02 4 BKN:07 8 OVC:08 15","29.45","1.50","47","010",,"6",,,,,,,,,,,,,,,,,,,,,,,,,,,,,,,,,,,,,"MET13912/29/17 08:46:02 SPECI KSEA 291646Z 01005KT 1 1/2SM R16L/3500VP6000FT -RA BR FEW004 BKN008 OVC015 08/08 A2992 RMK AO2 P0009 T00830083 (JC)","FM-16","7",,,,,,,,,,,,,,,,,,,,,,,,,,,,"2007-05-17"
"72793024233","2017-12-29T08:53:00","FM-15","7",,,,,,,,,,,,,,,,,,,,,,,,,,,,,,,,,,,,,,"29.92","47","47","0.11","-RA:02 BR:1 |RA |",,,"100","29.94","FEW:02 4 BKN:07 8 OVC:08 15","29.45","1.50","47","010",,"5",,,,,,,,,,,,,,,,,,,,,,,,,,,,,,,,,,,,,"MET14612/29/17 08:53:02 METAR KSEA 291653Z 01004KT 1 1/2SM R16L/6000VP6000FT -RA BR FEW004 BKN008 OVC015 08/08 A2992 RMK AO2 SLP138 P0010 T00830083 (JC)","FM-15","7",,,,,,,,,,,,,,,,,,,,,,,,,,,,"2007-05-17"
"72793024233","2017-12-29T09:46:00","FM-16","7",,,,,,,,,,,,,,,,,,,,,,,,,,,,,,,,,,,,,,"29.91","47","47","0.13","RA:02 BR:1 |RA |",,,"100",,"BKN:07 2 OVC:08 10","29.44","1.50","47","030",,"5",,,,,,,,,,,,,,,,,,,,,,,,,,,,,,,,,,,,,"MET13312/29/17 09:46:02 SPECI KSEA 291746Z 03004KT 1 1/2SM R16L/5500VP6000FT RA BR BKN002 OVC010 08/08 A2991 RMK AO2 P0013 T00830083 $ (JC)","FM-16","7",,,,,,,,,,,,,,,,,,,,,,,,,,,,"2007-05-17"
"72793024233","2017-12-29T09:53:00","FM-15","7",,,,,,,,,,,,,,,,,,,,,,,,,,,,,,,,,,,,,,"29.91","47","47","0.14","-RA:02 BR:1 |RA |","+0.03","6","100","29.94","BKN:07 2 OVC:08 10","29.44","1.50","47","020",,"3",,,,,,,,,,,,,,,,,,,,,,,,,,,,,,,,,,,,,"MET14712/29/17 09:53:02 METAR KSEA 291753Z 02003KT 1 1/2SM -RA BR BKN002 OVC010 08/08 A2991 RMK AO2 SLP138 P0015 60065 T00830083 10089 20072 56009 $ (JC)","FM-15","7",,,,,,,,,,,,,,,,,,,,,,,,,,,,"2007-05-17"
"72793024233","2017-12-29T10:00:00","FM-12","4",,,,,,,,,,,,,,,,,,,,,,,,,,,,,,,,,,,,,,,"47","47",,"||RA","+0.03","6","100","29.94","2","29.43","1.49","47","020",,"3",,,,,,,,,,,,,,,,,,,,,,,,,,,,,,,,,,,,,"SYN09872793 11124 80203 10083 20083 39966 40138 56009 60171 761// 91753 333 10089 20072 96010 555 92918=","FM-12","4",,,,,,,,,,,,,,,,,,,,,,,,,,,,"2007-05-17"
"72793024233","2017-12-29T10:01:00","FM-16","7",,,,,,,,,,,,,,,,,,,,,,,,,,,,,,,,,,,,,,"29.92","47","47","0.02","RA:02 BR:1 |RA |",,,"100",,"SCT:04 3 BKN:07 16 OVC:08 28","29.45","1.50","47","350",,"3",,,,,,,,,,,,,,,,,,,,,,,,,,,,,,,,,,,,,"MET14012/29/17 10:01:02 SPECI KSEA 291801Z 35003KT 1 1/2SM R16L/0800VP6000FT RA BR SCT003 BKN016 OVC028 08/08 A2992 RMK AO2 P0002 T00830083 $ (JC)","FM-16","7",,,,,,,,,,,,,,,,,,,,,,,,,,,,"2007-05-17"
"72793024233","2017-12-29T10:38:00","FM-16","7",,,,,,,,,,,,,,,,,,,,,,,,,,,,,,,,,,,,,,"29.89","47","47","0.14","RA:02 BR:1 |RA |",,,"100",,"FEW:02 3 BKN:07 11 OVC:08 25","29.42","1.50","47","070",,"6",,,,,,,,,,,,,,,,,,,,,,,,,,,,,,,,,,,,,"MET14012/29/17 10:38:02 SPECI KSEA 291838Z 07005KT 1 1/2SM R16L/5000VP6000FT RA BR FEW003 BKN011 OVC025 08/08 A2989 RMK AO2 P0014 T00830083 $ (JC)","FM-16","7",,,,,,,,,,,,,,,,,,,,,,,,,,,,"2007-05-17"
"72793024233","2017-12-29T10:53:00","FM-15","7",,,,,,,,,,,,,,,,,,,,,,,,,,,,,,,,,,,,,,"29.88","48","48","0.16","-RA:02 BR:1 |RA |",,,"100","29.91","FEW:02 3 BKN:07 12 OVC:08 25","29.41","2.00","48","090",,"7",,,,,,,,,,,,,,,,,,,,,,,,,,,,,,,,,,,,,"MET12612/29/17 10:53:02 METAR KSEA 291853Z 09006KT 2SM -RA BR FEW003 BKN012 OVC025 09/09 A2988 RMK AO2 SLP127 P0016 T00890089 $ (JC)","FM-15","7",,,,,,,,,,,,,,,,,,,,,,,,,,,,"2007-05-17"
"72793024233","2017-12-29T10:56:00","FM-16","7",,,,,,,,,,,,,,,,,,,,,,,,,,,,,,,,,,,,,,"29.88","48","48","T","-RA:02 BR:1 |RA |",,,"100",,"FEW:02 3 BKN:07 12 OVC:08 20","29.41","2.00","48","270",,"7",,,,,,,,,,,,,,,,,,,,,,,,,,,,,,,,,,,,,"MET11912/29/17 10:56:02 SPECI KSEA 291856Z 27006KT 2SM -RA BR FEW003 BKN012 OVC020 09/09 A2988 RMK AO2 P0000 T00890089 $ (JC)","FM-16","7",,,,,,,,,,,,,,,,,,,,,,,,,,,,"2007-05-17"
"72793024233","2017-12-29T11:02:00","FM-16","7",,,,,,,,,,,,,,,,,,,,,,,,,,,,,,,,,,,,,,"29.89","47","47","0.01","RA:02 BR:1 |s RA s |",,,"100",,"FEW:02 3 BKN:07 12 OVC:08 20","29.42","0.50","47","330",,"5",,,,,,,,,,,,,,,,,,,,,,,,,,,,,,,,,,,,,"MET14312/29/17 11:02:02 SPECI KSEA 291902Z 33004KT 1/2SM R16L/P6000FT RA BR FEW003 BKN012 OVC020 08/08 A2989 RMK AO2 SFC VIS 1 P0001 T00830083 $ (JC)","FM-16","7",,,,,,,,,,,,,,,,,,,,,,,,,,,,"2007-05-17"
"72793024233","2017-12-29T11:22:00","FM-16","7",,,,,,,,,,,,,,,,,,,,,,,,,,,,,,,,,,,,,,"29.87","47","47","0.06","RA:02 BR:1 |s RA s |",,,"100",,"SCT:04 3 BKN:07 8 OVC:08 20","29.41","0.50","47","000",,"0",,,,,,,,,,,,,,,,,,,,,,,,,,,,,,,,,,,,,"MET14812/29/17 11:22:02 SPECI KSEA 291922Z 00000KT 1/2SM R16L/5000VP6000FT RA BR SCT003 BKN008 OVC020 08/08 A2987 RMK AO2 SFC VIS 1 P0006 T00830083 $ (JC)","FM-16","7",,,,,,,,,,,,,,,,,,,,,,,,,,,,"2007-05-17"
"72793024233","2017-12-29T11:51:00","FM-16","6",,,,,,,,,,,,,,,,,,,,,,,,,,,,,,,,,,,,,,"29.87","46","46",,"-RA:02 BR:1 |RA |",,,"100",,"SCT:04 3 BKN:07 6 OVC:08 20","29.41","1.00","46","250",,"3",,,,,,,,,,,,,,,,,,,,,,,,,,,,,,,,,,,,,"MET14612/29/17 11:51:02 SPECI KSEA 291951Z 25003KT 1SM R16L/6000VP6000FT -RA BR SCT003 BKN006 OVC020 08/08 A2987 RMK AO2 SFC VIS 1 1/4 P0010 $ FIBI (JC)","FM-16","6",,,,,,,,,,,,,,,,,,,,,,,,,,,,"2007-05-17"
"72793024233","2017-12-29T11:53:00","FM-15","7",,,,,,,,,,,,,,,,,,,,,,,,,,,,,,,,,,,,,,"29.87","47","47","0.10","-RA:02 BR:1 |RA |",,,"100","29.89","SCT:04 3 BKN:07 6 OVC:08 20","29.41","1.00","47","240",,"3",,,,,,,,,,,,,,,,,,,,,,,,,,,,,,,,,,,,,"MET15812/29/17 11:53:02 METAR KSEA 291953Z 24003KT 1SM R16L/6000VP6000FT -RA BR SCT003 BKN006 OVC020 08/08 A2987 RMK AO2 SFC VIS 1 1/4 SLP121 P0010 T00830083 $ (JC)","FM-15","7",,,,,,,,,,,,,,,,,,,,,,,,,,,,"2007-05-17"
"72793024233","2017-12-29T12:05:00","FM-16","7",,,,,,,,,,,,,,,,,,,,,,,,,,,,,,,,,,,,,,"29.86","47","47","0.02","-RA:02 BR:1 |RA |",,,"100",,"BKN:07 3 OVC:08 8","29.39","1.00","47","000",,"0",,,,,,,,,,,,,,,,,,,,,,,,,,,,,,,,,,,,,"MET12512/29/17 12:05:02 SPECI KSEA 292005Z 00000KT 1SM R16L/P6000FT -RA BR BKN003 OVC008 08/08 A2986 RMK AO2 P0002 T00830083 $ (JC)","FM-16","7",,,,,,,,,,,,,,,,,,,,,,,,,,,,"2007-05-17"
"72793024233","2017-12-29T12:53:00","FM-15","7",,,,,,,,,,,,,,,,,,,,,,,,,,,,,,,,,,,,,,"29.84","46","47","0.09","-RA:02 BR:1 |RA |","+0.07","6","97","29.86","BKN:07 3 OVC:08 7","29.38","1.00","47","300",,"3",,,,,,,,,,,,,,,,,,,,,,,,,,,,,,,,,,,,,"MET15812/29/17 12:53:02 METAR KSEA 292053Z 30003KT 1SM R16L/P6000FT -RA BR BKN003 OVC007 08/08 A2984 RMK AO2 SFC VIS 1 1/4 SLP113 P0009 60035 T00830078 56024 $ (JC)","FM-15","7",,,,,,,,,,,,,,,,,,,,,,,,,,,,"2007-05-17"
"72793024233","2017-12-29T13:40:00","FM-16","7",,,,,,,,,,,,,,,,,,,,,,,,,,,,,,,,,,,,,,"29.78","49","49","0.04","-RA:02 BR:1 |s RA s |",,,"100",,"SCT:04 3 BKN:07 49 OVC:08 60","29.32","0.50","49","140",,"11",,,,,,,,,,,,,,,,,,,,,,,,,,,,,,,,,,,,,"MET14812/29/17 13:40:02 SPECI KSEA 292140Z 14010KT 1/2SM R16L/P6000FT -RA BR SCT003 BKN049 OVC060 09/09 A2978 RMK AO2 SFC VIS 1 1/2 P0004 T00940094 $ (JC)","FM-16","7",,,,,,,,,,,,,,,,,,,,,,,,,,,,"2007-05-17"
"72793024233","2017-12-29T13:53:00","FM-15","7",,,,,,,,,,,,,,,,,,,,,,,,,,,,,,,,,,,,,,"29.77","50","50","0.05","-RA:02 BR:1 |s RA s |",,,"100","29.78","SCT:04 3 BKN:07 33 OVC:08 50","29.31","0.50","50","140",,"11",,,,,,,,,,,,,,,,,,,,,,,,,,,,,,,,,,,,,"MET15112/29/17 13:53:02 METAR KSEA 292153Z 14010KT 1/2SM R16L/P6000FT -RA BR SCT003 BKN033 OVC050 10/10 A2977 RMK AO2 SFC VIS 1 SLP086 P0006 T01000100 $ (JC)","FM-15","7",,,,,,,,,,,,,,,,,,,,,,,,,,,,"2007-05-17"
"72793024233","2017-12-29T14:21:00","FM-16","7",,,,,,,,,,,,,,,,,,,,,,,,,,,,,,,,,,,,,,"29.74","50","50","0.02","-RA:02 BR:1 |RA |",,,"100",,"FEW:02 5 BKN:07 43 OVC:08 60","29.28","1.00","50","140","25","17",,,,,,,,,,,,,,,,,,,,,,,,,,,,,,,,,,,,,"MET14512/29/17 14:21:02 SPECI KSEA 292221Z 14015G22KT 1SM R16L/P6000FT -RA BR FEW005 BKN043 OVC060 10/10 A2974 RMK AO2 SFC VIS 3 P0002 T01000100 $ (RS)","FM-16","7",,,,,,,,,,,,,,,,,,,,,,,,,,,,"2007-05-17"
"72793024233","2017-12-29T14:53:00","FM-15","7",,,,,,,,,,,,,,,,,,,,,,,,,,,,,,,,,,,,,,"29.72","50","50","0.05","-RA:02 BR:1 |RA |",,,"100","29.73","FEW:02 5 BKN:07 43 OVC:08 60","29.26","1.00","50","150","24","14",,,,,,,,,,,,,,,,,,,,,,,,,,,,,,,,,,,,,"MET15212/29/17 14:53:02 METAR KSEA 292253Z 15012G21KT 1SM R16L/P6000FT -RA BR FEW005 BKN043 OVC060 10/10 A2972 RMK AO2 SFC VIS 3 SLP069 P0005 T01000100 $ (RS)","FM-15","7",,,,,,,,,,,,,,,,,,,,,,,,,,,,"2007-05-17"
"72793024233","2017-12-29T15:00:00","FM-16","7",,,,,,,,,,,,,,,,,,,,,,,,,,,,,,,,,,,,,,"29.71","50","50","T","-RA:02 BR:1 |RA |",,,"100",,"FEW:02 6 FEW:02 32 OVC:08 43","29.25","6.00","50","150",,"14",,,,,,,,,,,,,,,,,,,,,,,,,,,,,,,,,,,,,"MET11912/29/17 15:00:02 SPECI KSEA 292300Z 15012KT 6SM -RA BR FEW006 FEW032 OVC043 10/10 A2971 RMK AO2 P0000 T01000100 $ (RS)","FM-16","7",,,,,,,,,,,,,,,,,,,,,,,,,,,,"2007-05-17"
"72793024233","2017-12-29T15:53:00","FM-15","7",,,,,,,,,,,,,,,,,,,,,,,,,,,,,,,,,,,,,,"29.69","51","51","0.03","-RA:02 BR:1 |RA |","+0.15","6","100","29.71","FEW:02 6 SCT:04 18 OVC:08 30","29.23","3.00","51","170",,"14",,,,,,,,,,,,,,,,,,,,,,,,,,,,,,,,,,,,,"MET15012/29/17 15:53:02 METAR KSEA 292353Z 17012KT 3SM -RA BR FEW006 SCT018 OVC030 11/11 A2969 RMK AO2 SLP061 P0002 60048 T01060106 10106 20078 56050 $ (RS)","FM-15","7",,,,,,,,,,,,,,,,,,,,,,,,,,,,"2007-05-17"
"72793024233","2017-12-29T16:00:00","FM-12","4",,,,,,,,,,,,,,,,,,,,,,,,,,,,,,,,,,,,,,,"51","51",,"||RA","+0.15","6","100","29.71","5","29.21","2.98","51","170",,"14",,,,,,,,,,,,,,,,,,,,,,,,,,,,,,,,,,,,,"SYN09872793 11248 81712 10106 20106 39892 40061 56050 60121 761// 92353 333 10106 20061 96010 555 93000=","FM-12","4",,,,,,,,,,,,,,,,,,,,,,,,,,,,"2007-05-17"
"72793024233","2017-12-29T16:13:00","FM-16","7",,,,,,,,,,,,,,,,,,,,,,,,,,,,,,,,,,,,,,"29.69","51","51","0.02","-RA:02 BR:1 |RA |",,,"100",,"OVC:08 29","29.23","3.00","51","170",,"11",,,,,,,,,,,,,,,,,,,,,,,,,,,,,,,,,,,,,"MET10012/29/17 16:13:01 SPECI KSEA 300013Z 17010KT 3SM -RA BR OVC029 11/11 A2969 RMK AO2 P0002 T01060106 $","FM-16","7",,,,,,,,,,,,,,,,,,,,,,,,,,,,"2007-05-17"
"72793024233","2017-12-29T16:53:00","FM-15","7",,,,,,,,,,,,,,,,,,,,,,,,,,,,,,,,,,,,,,"29.68","51","51","0.02","-RA:02 BR:1 |RA |",,,"100","29.70","BKN:07 24 OVC:08 29","29.22","5.00","51","180",,"11",,,,,,,,,,,,,,,,,,,,,,,,,,,,,,,,,,,,,"MET11412/29/17 16:53:01 METAR KSEA 300053Z 18010KT 5SM -RA BR BKN024 OVC029 11/11 A2968 RMK AO2 SLP057 P0003 T01060106 $","FM-15","7",,,,,,,,,,,,,,,,,,,,,,,,,,,,"2007-05-17"
"72793024233","2017-12-29T17:53:00","FM-15","7",,,,,,,,,,,,,,,,,,,,,,,,,,,,,,,,,,,,,,"29.65","51","52","T",,,,"97","29.67","OVC:08 23","29.19","7.00","51","180","28","20",,,,,,,,,,,,,,,,,,,,,,,,,,,,,,,,,,,,,"MET10912/29/17 17:53:01 METAR KSEA 300153Z 18017G24KT 7SM OVC023 11/11 A2965 RMK AO2 RAE28 SLP046 P0000 T01110106 $","FM-15","7",,,,,,,,,,,,,,,,,,,,,,,,,,,,"2007-05-17"
"72793024233","2017-12-29T18:27:00","FM-16","7",,,,,,,,,,,,,,,,,,,,,,,,,,,,,,,,,,,,,,"29.62","50","53",,,,,"89",,"SCT:04 24 BKN:07 40 OVC:08 50","29.16","10.00","51","180","29","21",,,,,,,,,,,,,,,,,,,,,,,,,,,,,,,,,,,,,"MET12312/29/17 18:27:01 SPECI KSEA 300227Z 18018G25KT 10SM SCT024 BKN040 OVC050 12/10 A2962 RMK AO2 PK WND 18027/0155 T01170100 $","FM-16","7",,,,,,,,,,,,,,,,,,,,,,,,,,,,"2007-05-17"
"72793024233","2017-12-29T18:51:00","FM-16","6",,,,,,,,,,,,,,,,,,,,,,,,,,,,,,,,,,,,,,"29.62","50","54",,"-RA:02 |RA |",,,"88",,"BKN:07 28 OVC:08 37","29.16","10.00","52","190","32","23",,,,,,,,,,,,,,,,,,,,,,,,,,,,,,,,,,,,,"MET13212/29/17 18:51:03 SPECI KSEA 300251Z 19020G28KT 10SM -RA BKN028 OVC037 12/10 A2962 RMK AO2 PK WND 18031/0231 RAB43 P0000 $ FIBI (RS)","FM-16","6",,,,,,,,,,,,,,,,,,,,,,,,,,,,"2007-05-17"
"72793024233","2017-12-29T18:53:00","FM-15","7",,,,,,,,,,,,,,,,,,,,,,,,,,,,,,,,,,,,,,"29.62","50","54","T",,"+0.07","8","87","29.64","BKN:07 28 OVC:08 37","29.16","10.00","52","180","32","22",,,,,,,,,,,,,,,,,,,,,,,,,,,,,,,,,,,,,"MET15012/29/17 18:53:02 METAR KSEA 300253Z 18019G28KT 10SM BKN028 OVC037 12/10 A2962 RMK AO2 PK WND 18031/0231 RAB43E53 SLP038 P0000 60003 T01220100 58023 $","FM-15","7",,,,,,,,,,,,,,,,,,,,,,,,,,,,"2007-05-17"
"72793024233","2017-12-29T19:29:00","FM-16","7",,,,,,,,,,,,,,,,,,,,,,,,,,,,,,,,,,,,,,"29.63","50","54","T","-RA:02 BR:1 |RA |",,,"87",,"SCT:04 17 OVC:08 34","29.17","6.00","52","190","34","24",,,,,,,,,,,,,,,,,,,,,,,,,,,,,,,,,,,,,"MET13412/29/17 19:29:02 SPECI KSEA 300329Z 19021G30KT 6SM -RA BR SCT017 OVC034 12/10 A2963 RMK AO2 PK WND 18030/0325 RAB07 P0000 T01220100 $","FM-16","7",,,,,,,,,,,,,,,,,,,,,,,,,,,,"2007-05-17"
"72793024233","2017-12-29T19:51:00","FM-16","6",,,,,,,,,,,,,,,,,,,,,,,,,,,,,,,,,,,,,,"29.63","52","54",,"-RA:02 BR:1 |RA |",,,"94",,"BKN:07 16 OVC:08 23","29.17","3.00","53","200","31","20",,,,,,,,,,,,,,,,,,,,,,,,,,,,,,,,,,,,,"MET13412/29/17 19:51:03 SPECI KSEA 300351Z 20017G27KT 3SM -RA BR BKN016 OVC023 12/11 A2963 RMK AO2 PK WND 18030/0325 RAB07 P0004 $ FIBI (RS)","FM-16","6",,,,,,,,,,,,,,,,,,,,,,,,,,,,"2007-05-17"
"72793024233","2017-12-29T19:53:00","FM-15","7",,,,,,,,,,,,,,,,,,,,,,,,,,,,,,,,,,,,,,"29.64","51","53","0.05","RA:02 BR:1 |RA |",,,"93","29.66","BKN:07 16 OVC:08 23","29.18","3.00","52","200","31","23",,,,,,,,,,,,,,,,,,,,,,,,,,,,,,,,,,,,,"MET14012/29/17 19:53:02 METAR KSEA 300353Z 20020G27KT 3SM RA BR BKN016 OVC023 12/11 A2964 RMK AO2 PK WND 18030/0325 RAB07 SLP043 P0004 T01170106 $","FM-15","7",,,,,,,,,,,,,,,,,,,,,,,,,,,,"2007-05-17"
"72793024233","2017-12-29T20:29:00","FM-16","7",,,,,,,,,,,,,,,,,,,,,,,,,,,,,,,,,,,,,,"29.67","51","53","0.02","-RA:02 BR:1 |RA |",,,"93",,"OVC:08 13","29.21","5.00","52","220","37","20",,,,,,,,,,,,,,,,,,,,,,,,,,,,,,,,,,,,,"MET12812/29/17 20:29:02 SPECI KSEA 300429Z 22017G32KT 5SM -RA BR OVC013 12/11 A2967 RMK AO2 PK WND 20036/0401 PRESRR P0002 T01170106 $","FM-16","7",,,,,,,,,,,,,,,,,,,,,,,,,,,,"2007-05-17"
"72793024233","2017-12-29T20:37:00","FM-16","7",,,,,,,,,,,,,,,,,,,,,,,,,,,,,,,,,,,,,,"29.69","49","52","0.03","-RA:02 BR:1 |RA |",,,"89",,"SCT:04 8 OVC:08 13","29.23","3.00","50","220","36","25",,,,,,,,,,,,,,,,,,,,,,,,,,,,,,,,,,,,,"MET13512/29/17 20:37:02 SPECI KSEA 300437Z 22022G31KT 3SM -RA BR SCT008 OVC013 11/09 A2969 RMK AO2 PK WND 20036/0401 PRESRR P0003 T01110094 $","FM-16","7",,,,,,,,,,,,,,,,,,,,,,,,,,,,"2007-05-17"
"72793024233","2017-12-29T20:53:00","FM-15","7",,,,,,,,,,,,,,,,,,,,,,,,,,,,,,,,,,,,,,"29.72","46","50","0.02",,,,"86","29.73","FEW:02 9 OVC:08 13","29.26","7.00","48","220","34","20",,,,,,,,,,,,,,,,,,,,,,,,,,,,,,,,,,,,,"MET13412/29/17 20:53:02 METAR KSEA 300453Z 22017G30KT 7SM FEW009 OVC013 10/08 A2972 RMK AO2 PK WND 20036/0401 RAE41 SLP069 P0003 T01000078 $","FM-15","7",,,,,,,,,,,,,,,,,,,,,,,,,,,,"2007-05-17"
"72793024233","2017-12-29T21:15:00","FM-16","7",,,,,,,,,,,,,,,,,,,,,,,,,,,,,,,,,,,,,,"29.74","45","49",,,,,"86",,"FEW:02 9 OVC:08 17","29.28","10.00","47","210","38","29",,,,,,,,,,,,,,,,,,,,,,,,,,,,,,,,,,,,,"MET12312/29/17 21:15:02 SPECI KSEA 300515Z 21025G33KT 10SM FEW009 OVC017 09/07 A2974 RMK AO2 PK WND 22033/0515 PRESRR T00940072 $","FM-16","7",,,,,,,,,,,,,,,,,,,,,,,,,,,,"2007-05-17"
"72793024233","2017-12-29T21:46:00","FM-16","7",,,,,,,,,,,,,,,,,,,,,,,,,,,,,,,,,,,,,,"29.78","42","47",,,,,"83",,"BKN:07 21","29.32","10.00","45","210","38","26",,,,,,,,,,,,,,,,,,,,,,,,,,,,,,,,,,,,,"MET10912/29/17 21:46:02 SPECI KSEA 300546Z 21023G33KT 10SM BKN021 08/06 A2978 RMK AO2 PK WND 21041/0526 T00830056 $","FM-16","7",,,,,,,,,,,,,,,,,,,,,,,,,,,,"2007-05-17"
"72793024233","2017-12-29T21:53:00","FM-15","7",,,,,,,,,,,,,,,,,,,,,,,,,,,,,,,,,,,,,,"29.80","42","47","0.00",,"-0.17","3","83","29.82","BKN:07 21 BKN:07 26","29.34","10.00","45","220","38","26",,,,,,,,,,,,,,,,,,,,,,,,,,,,,,,,,,,,,"MET15412/29/17 21:53:02 METAR KSEA 300553Z 22023G33KT 10SM BKN021 BKN026 08/06 A2980 RMK AO2 PK WND 21041/0526 PRESRR SLP098 60010 T00830056 10122 20083 53059 $","FM-15","7",,,,,,,,,,,,,,,,,,,,,,,,,,,,"2007-05-17"
"72793024233","2017-12-29T22:00:00","FM-12","4",,,,,,,,,,,,,,,,,,,,,,,,,,,,,,,,,,,,,,,"42","47",,,"-0.17","3","83","29.82","26","29.32","9.94","45","220",,"26",,,,,,,,,,,,,,,,,,,,,,,,,,,,,,,,,,,,,"SYN09272793 12566 62223 10083 20056 39929 40098 53059 60031 90553 333 10122 20061 91033 555 93006=","FM-12","4",,,,,,,,,,,,,,,,,,,,,,,,,,,,"2007-05-17"
"72793024233","2017-12-29T22:53:00","FM-15","7",,,,,,,,,,,,,,,,,,,,,,,,,,,,,,,,,,,,,,"29.86","41","46","0.00",,,,"83","29.88","BKN:07 18","29.39","10.00","44","210","34","25",,,,,,,,,,,,,,,,,,,,,,,,,,,,,,,,,,,,,"MET12312/29/17 22:53:02 METAR KSEA 300653Z 21022G30KT 10SM BKN018 08/05 A2986 RMK AO2 PK WND 20035/0619 PRESRR SLP118 T00780050 $","FM-15","7",,,,,,,,,,,,,,,,,,,,,,,,,,,,"2007-05-17"
"72793024233","2017-12-29T23:34:00","FM-16","7",,,,,,,,,,,,,,,,,,,,,,,,,,,,,,,,,,,,,,"29.88","39","45",,,,,"80",,"SCT:04 20","29.41","10.00","42","230","37","24",,,,,,,,,,,,,,,,,,,,,,,,,,,,,,,,,,,,,"MET10912/29/17 23:34:02 SPECI KSEA 300734Z 23021G32KT 10SM SCT020 07/04 A2988 RMK AO2 PK WND 21036/0654 T00720039 $","FM-16","7",,,,,,,,,,,,,,,,,,,,,,,,,,,,"2007-05-17"
"72793024233","2017-12-29T23:53:00","FM-15","7",,,,,,,,,,,,,,,,,,,,,,,,,,,,,,,,,,,,,,"29.89","39","45","0.00",,,,"80","29.91","SCT:04 20","29.42","10.00","42","220","34","24",,,,,,,,,,,,,,,,,,,,,,,,,,,,,,,,,,,,,"MET12612/29/17 23:53:02 METAR KSEA 300753Z 22021G30KT 10SM SCT020 07/04 A2989 RMK AO2 PK WND 21036/0654 SLP128 T00720039 401220039 $","FM-15","7",,,,,,,,,,,,,,,,,,,,,,,,,,,,"2007-05-17"
"72793024233","2017-12-29T23:59:00","SOD  ","6",,,,,,,,,,,,,,,"47","47","96","29.86","29.38","47","10.3","0","6.5","18","54","39","210","47","1.50","0","0.0","220","33","RA BR",,,,,,,,,,,,,,,,,,,,,,,,,,,,,,,,,,,,,,,,,,,,,,,,,,,,,,,,"SOD73024 HR PRECIPITATION (IN):1.50  24 HR MAX TEMP (F):54 24 HR MAX TEMP TIME (LST):2019 24 HR MIN TEMP (F):39 24 HR MIN TEMP TIME (LST):0002 AVERAGE STATION PRESSURE:29.375 MINIMUM SEA LEVEL PRESSURE:29.63 TIME OF OCCURRENCE:1905 PEAK WIND SPEED (MPH):47  PEAK WIND DIR (DEG):210 PEAK WIND TIME (LST):2126  FASTEST 2MIN SPEED (MPH):33 FASTEST 2MIN DIR (DEG):220 FASTEST 2MIN TIME (LST):2127 AVERAGE WIND SPEED (MPH):10.3 24 HR AVG TEMP (F):47 HEATING DEGREE DAYS:18  COOLING DEGREE DAYS:0   LATEST DAY MAX TEMP (0700-1900 LST):54  LATEST NIGHT MIN TEMP(1900-0800 LST):43 HOURLY INCREMENTAL PRECIPITATION VALUES (IN):.02 0.07 0.09 0.11 0.13 0.11 0.08 0.07 0.11 0.14 0.16 0.10 0.09 0.05 0.05 0.03 0.02 T    T    0.05 0.02 0.00 0.00 0.00","SOD  ","6",,,,,,,,,,,,,,,,,,,,,,,,,"0757","1626",,"2007-05-17"
"72793024233","2017-12-30T00:53:00","FM-15","7",,,,,,,,,,,,,,,,,,,,,,,,,,,,,,,,,,,,,,"29.92","39","45","0.00",,"-0.12","1","80","29.94","FEW:02 16","29.45","10.00","42","230","41","25",,,,,,,,,,,,,,,,,,,,,,,,,,,,,,,,,,,,,"MET12712/30/17 00:53:02 METAR KSEA 300853Z 23022G36KT 10SM FEW016 07/04 A2992 RMK AO2 PK WND 21036/0850 SLP140 T00720039 51041 $ (LC)","FM-15","7",,,,,,,,,,,,,,,,,,,,,,,,,,,,"2007-05-17"
"72793024233","2017-12-30T01:23:00","FM-16","7",,,,,,,,,,,,,,,,,,,,,,,,,,,,,,,,,,,,,,"29.94","39","45",,,,,"80",,"BKN:07 19","29.47","10.00","42","220","31","23",,,,,,,,,,,,,,,,,,,,,,,,,,,,,,,,,,,,,"MET11412/30/17 01:23:02 SPECI KSEA 300923Z 22020G27KT 10SM BKN019 07/04 A2994 RMK AO2 PK WND 21036/0855 T00720039 $ (LC)","FM-16","7",,,,,,,,,,,,,,,,,,,,,,,,,,,,"2007-05-17"
"72793024233","2017-12-30T01:29:00","FM-16","7",,,,,,,,,,,,,,,,,,,,,,,,,,,,,,,,,,,,,,"29.94","39","45",,,,,"80",,"SCT:04 19","29.47","10.00","42","VRB","31","21",,,,,,,,,,,,,,,,,,,,,,,,,,,,,,,,,,,,,"MET11412/30/17 01:29:02 SPECI KSEA 300929Z 22018G27KT 10SM SCT019 07/04 A2994 RMK AO2 PK WND 21036/0855 T00720039 $ (LC)","FM-16","7",,,,,,,,,,,,,,,,,,,,,,,,,,,,"2007-05-17"
"72793024233","2017-12-30T01:53:00","FM-15","7",,,,,,,,,,,,,,,,,,,,,,,,,,,,,,,,,,,,,,"29.95","39","45","0.00",,,,"80","29.97","SCT:04 19","29.48","10.00","42","220","36","24",,,,,,,,,,,,,,,,,,,,,,,,,,,,,,,,,,,,,"MET12112/30/17 01:53:02 METAR KSEA 300953Z 22021G31KT 10SM SCT019 07/04 A2995 RMK AO2 PK WND 21036/0855 SLP150 T00720039 $ (LC)","FM-15","7",,,,,,,,,,,,,,,,,,,,,,,,,,,,"2007-05-17"
"72793024233","2017-12-30T02:53:00","FM-15","7",,,,,,,,,,,,,,,,,,,,,,,,,,,,,,,,,,,,,,"29.99","38","45","0.00",,,,"77","30.01","FEW:02 20 SCT:04 200","29.52","10.00","42","220","32","18",,,,,,,,,,,,,,,,,,,,,,,,,,,,,,,,,,,,,"MET12812/30/17 02:53:02 METAR KSEA 301053Z 22016G28KT 10SM FEW020 SCT200 07/03 A2999 RMK AO2 PK WND 23031/1004 SLP161 T00720033 $ (LC)","FM-15","7",,,,,,,,,,,,,,,,,,,,,,,,,,,,"2007-05-17"
"72793024233","2017-12-30T03:53:00","FM-15","7",,,,,,,,,,,,,,,,,,,,,,,,,,,,,,,,,,,,,,"30.04","38","44","0.00",,"-0.11","3","79","30.06","SCT:04 21","29.57","10.00","41","VRB",,"11",,,,,,,,,,,,,,,,,,,,,,,,,,,,,,,,,,,,,"MET14212/30/17 03:53:02 METAR KSEA 301153Z 20010KT 10SM SCT021 07/03 A3004 RMK AO2 PK WND 22030/1105 SLP178 70123 T00670033 10083 20067 53038 $ (LC)","FM-15","7",,,,,,,,,,,,,,,,,,,,,,,,,,,,"2007-05-17"
"72793024233","2017-12-30T04:00:00","FM-12","4",,,,,,,,,,,,,,,,,,,,,,,,,,,,,,,,,,,,,,,"38","44",,,"-0.11","3","79","30.06","26","29.56","9.94","41","200",,"11",,,,,,,,,,,,,,,,,,,,,,,,,,,,,,,,,,,,,"SYN08672793 32566 42010 10067 20033 30009 40178 53038 91153 333 10122 20067 70312 555 93012=","FM-12","4",,,,,,,,,,,,,,,,,,,,,,,,,,,,"2007-05-17"
"72793024233","2017-12-30T04:01:00","FM-16","7",,,,,,,,,,,,,,,,,,,,,,,,,,,,,,,,,,,,,,"30.04","38","44",,,,,"79",,"BKN:07 20","29.57","10.00","41","220","20","11",,,,,,,,,,,,,,,,,,,,,,,,,,,,,,,,,,,,,"MET09612/30/17 04:01:02 SPECI KSEA 301201Z 22010G17KT 10SM BKN020 07/03 A3004 RMK AO2 T00670033 $ (LC)","FM-16","7",,,,,,,,,,,,,,,,,,,,,,,,,,,,"2007-05-17"
"72793024233","2017-12-30T04:53:00","FM-15","7",,,,,,,,,,,,,,,,,,,,,,,,,,,,,,,,,,,,,,"30.05","39","44","0.00",,,,"83","30.07","SCT:04 14 BKN:07 20","29.58","10.00","42","190",,"11",,,,,,,,,,,,,,,,,,,,,,,,,,,,,,,,,,,,,"MET10712/30/17 04:53:02 METAR KSEA 301253Z 19010KT 10SM SCT014 BKN020 07/04 A3005 RMK AO2 SLP182 T00670039 $ (LC)","FM-15","7",,,,,,,,,,,,,,,,,,,,,,,,,,,,"2007-05-17"
"72793024233","2017-12-30T05:41:00","FM-16","7",,,,,,,,,,,,,,,,,,,,,,,,,,,,,,,,,,,,,,"30.04","39","44",,,,,"83",,"SCT:04 17","29.57","10.00","42","210","26","23",,,,,,,,,,,,,,,,,,,,,,,,,,,,,,,,,,,,,"MET09612/30/17 05:41:02 SPECI KSEA 301341Z 21020G23KT 10SM SCT017 07/04 A3004 RMK AO2 T00670039 $ (LC)","FM-16","7",,,,,,,,,,,,,,,,,,,,,,,,,,,,"2007-05-17"
"72793024233","2017-12-30T05:53:00","FM-15","7",,,,,,,,,,,,,,,,,,,,,,,,,,,,,,,,,,,,,,"30.04","39","44","0.00",,,,"83","30.06","SCT:04 17","29.57","10.00","42","210","28","18",,,,,,,,,,,,,,,,,,,,,,,,,,,,,,,,,,,,,"MET10312/30/17 05:53:02 METAR KSEA 301353Z 21016G24KT 10SM SCT017 07/04 A3004 RMK AO2 SLP180 T00670039 $ (LC)","FM-15","7",,,,,,,,,,,,,,,,,,,,,,,,,,,,"2007-05-17"
"72793024233","2017-12-30T06:34:00","FM-16","7",,,,,,,,,,,,,,,,,,,,,,,,,,,,,,,,,,,,,,"30.06","39","44",,,,,"83",,"BKN:07 15","29.59","10.00","42","210","25","14",,,,,,,,,,,,,,,,,,,,,,,,,,,,,,,,,,,,,"MET09612/30/17 06:34:02 SPECI KSEA 301434Z 21012G22KT 10SM BKN015 07/04 A3006 RMK AO2 T00670039 $ (TL)","FM-16","7",,,,,,,,,,,,,,,,,,,,,,,,,,,,"2007-05-17"
"72793024233","2017-12-30T06:53:00","FM-15","7",,,,,,,,,,,,,,,,,,,,,,,,,,,,,,,,,,,,,,"30.07","39","44","0.00",,"-0.04","3","83","30.09","OVC:08 17","29.60","10.00","42","210","26","15",,,,,,,,,,,,,,,,,,,,,,,,,,,,,,,,,,,,,"MET10912/30/17 06:53:02 METAR KSEA 301453Z 21013G23KT 10SM OVC017 07/04 A3007 RMK AO2 SLP191 T00670039 53012 $ (TL)","FM-15","7",,,,,,,,,,,,,,,,,,,,,,,,,,,,"2007-05-17"
"72793024233","2017-12-30T07:53:00","FM-15","7",,,,,,,,,,,,,,,,,,,,,,,,,,,,,,,,,,,,,,"30.12","39","44","0.00",,,,"83","30.14","OVC:08 15","29.65","10.00","42","190",,"11",,,,,,,,,,,,,,,,,,,,,,,,,,,,,,,,,,,,,"MET10012/30/17 07:53:02 METAR KSEA 301553Z 19010KT 10SM OVC015 07/04 A3012 RMK AO2 SLP207 T00670039 $ (TL)","FM-15","7",,,,,,,,,,,,,,,,,,,,,,,,,,,,"2007-05-17"
"72793024233","2017-12-30T08:09:00","FM-16","7",,,,,,,,,,,,,,,,,,,,,,,,,,,,,,,,,,,,,,"30.13","39","44",,,,,"83",,"OVC:08 13","29.66","10.00","42","180",,"9",,,,,,,,,,,,,,,,,,,,,,,,,,,,,,,,,,,,,"MET09312/30/17 08:09:02 SPECI KSEA 301609Z 18008KT 10SM OVC013 07/04 A3013 RMK AO2 T00670039 $ (TL)","FM-16","7",,,,,,,,,,,,,,,,,,,,,,,,,,,,"2007-05-17"
"72793024233","2017-12-30T08:53:00","FM-15","7",,,,,,,,,,,,,,,,,,,,,,,,,,,,,,,,,,,,,,"30.16","40","44","0.00",,,,"85","30.18","OVC:08 13","29.69","10.00","42","190",,"10",,,,,,,,,,,,,,,,,,,,,,,,,,,,,,,,,,,,,"MET10012/30/17 08:53:02 METAR KSEA 301653Z 19009KT 10SM OVC013 07/04 A3016 RMK AO2 SLP220 T00670044 $ (TL)","FM-15","7",,,,,,,,,,,,,,,,,,,,,,,,,,,,"2007-05-17"
"72793024233","2017-12-30T09:53:00","FM-15","7",,,,,,,,,,,,,,,,,,,,,,,,,,,,,,,,,,,,,,"30.19","40","45","0.00",,"-0.12","1","83","30.22","BKN:07 13 OVC:08 22","29.72","10.00","43","200",,"9",,,,,,,,,,,,,,,,,,,,,,,,,,,,,,,,,,,,,"MET12512/30/17 09:53:02 METAR KSEA 301753Z 20008KT 10SM BKN013 OVC022 07/04 A3019 RMK AO2 SLP232 T00720044 10072 20061 51040 $ (TL)","FM-15","7",,,,,,,,,,,,,,,,,,,,,,,,,,,,"2007-05-17"
"72793024233","2017-12-30T10:00:00","FM-12","4",,,,,,,,,,,,,,,,,,,,,,,,,,,,,,,,,,,,,,,"40","45",,,"-0.12","1","83","30.22","15","29.71","9.94","43","200",,"9",,,,,,,,,,,,,,,,,,,,,,,,,,,,,,,,,,,,,"SYN08072793 32466 82008 10072 20044 30060 40232 51040 91753 333 10083 20061 555 93018=","FM-12","4",,,,,,,,,,,,,,,,,,,,,,,,,,,,"2007-05-17"
"72793024233","2017-12-30T10:45:00","FM-16","7",,,,,,,,,,,,,,,,,,,,,,,,,,,,,,,,,,,,,,"30.21","40","45",,,,,"83",,"BKN:07 16 OVC:08 27","29.74","10.00","43","220",,"9",,,,,,,,,,,,,,,,,,,,,,,,,,,,,,,,,,,,,"MET10012/30/17 10:45:02 SPECI KSEA 301845Z 22008KT 10SM BKN016 OVC027 07/04 A3021 RMK AO2 T00720044 $ (TL)","FM-16","7",,,,,,,,,,,,,,,,,,,,,,,,,,,,"2007-05-17"
"72793024233","2017-12-30T10:53:00","FM-15","7",,,,,,,,,,,,,,,,,,,,,,,,,,,,,,,,,,,,,,"30.21","39","45","0.00",,,,"80","30.24","BKN:07 16 OVC:08 24","29.74","10.00","42","220",,"14",,,,,,,,,,,,,,,,,,,,,,,,,,,,,,,,,,,,,"MET10712/30/17 10:53:02 METAR KSEA 301853Z 22012KT 10SM BKN016 OVC024 07/04 A3021 RMK AO2 SLP239 T00720039 $ (TL)","FM-15","7",,,,,,,,,,,,,,,,,,,,,,,,,,,,"2007-05-17"
"72793024233","2017-12-30T11:53:00","FM-15","7",,,,,,,,,,,,,,,,,,,,,,,,,,,,,,,,,,,,,,"30.22","39","46","0.00",,,,"77","30.25","OVC:08 21","29.75","10.00","43","210",,"11",,,,,,,,,,,,,,,,,,,,,,,,,,,,,,,,,,,,,"MET10012/30/17 11:53:02 METAR KSEA 301953Z 21010KT 10SM OVC021 08/04 A3022 RMK AO2 SLP244 T00780039 $ (TL)","FM-15","7",,,,,,,,,,,,,,,,,,,,,,,,,,,,"2007-05-17"
"72793024233","2017-12-30T12:53:00","FM-15","7",,,,,,,,,,,,,,,,,,,,,,,,,,,,,,,,,,,,,,"30.23","39","46","0.00",,"-0.04","1","77","30.26","BKN:07 18 OVC:08 25","29.76","10.00","43","210",,"10",,,,,,,,,,,,,,,,,,,,,,,,,,,,,,,,,,,,,"MET11312/30/17 12:53:02 METAR KSEA 302053Z 21009KT 10SM BKN018 OVC025 08/04 A3023 RMK AO2 SLP246 T00780039 51014 $ (TL)","FM-15","7",,,,,,,,,,,,,,,,,,,,,,,,,,,,"2007-05-17"
"72793024233","2017-12-30T13:53:00","FM-15","7",,,,,,,,,,,,,,,,,,,,,,,,,,,,,,,,,,,,,,"30.25","38","47","0.00",,,,"71","30.27","SCT:04 19 OVC:08 25","29.78","10.00","43","210",,"10",,,,,,,,,,,,,,,,,,,,,,,,,,,,,,,,,,,,,"MET10712/30/17 13:53:02 METAR KSEA 302153Z 21009KT 10SM SCT019 OVC025 08/03 A3025 RMK AO2 SLP251 T00830033 $ (RT)","FM-15","7",,,,,,,,,,,,,,,,,,,,,,,,,,,,"2007-05-17"
"72793024233","2017-12-30T14:18:00","FM-16","7",,,,,,,,,,,,,,,,,,,,,,,,,,,,,,,,,,,,,,"30.26","39","47",,,,,"74",,"SCT:04 25 OVC:08 30","29.79","10.00","43","200",,"8",,,,,,,,,,,,,,,,,,,,,,,,,,,,,,,,,,,,,"MET10012/30/17 14:18:02 SPECI KSEA 302218Z 20007KT 10SM SCT025 OVC030 08/04 A3026 RMK AO2 T00830039 $ (RT)","FM-16","7",,,,,,,,,,,,,,,,,,,,,,,,,,,,"2007-05-17"
"72793024233","2017-12-30T14:53:00","FM-15","7",,,,,,,,,,,,,,,,,,,,,,,,,,,,,,,,,,,,,,"30.26","39","46","0.00",,,,"77","30.29","FEW:02 12 SCT:04 25 OVC:08 32","29.79","10.00","43","220",,"6",,,,,,,,,,,,,,,,,,,,,,,,,,,,,,,,,,,,,"MET11412/30/17 14:53:02 METAR KSEA 302253Z 22005KT 10SM FEW012 SCT025 OVC032 08/04 A3026 RMK AO2 SLP257 T00780039 $ (RT)","FM-15","7",,,,,,,,,,,,,,,,,,,,,,,,,,,,"2007-05-17"
"72793024233","2017-12-30T15:43:00","FM-16","7",,,,,,,,,,,,,,,,,,,,,,,,,,,,,,,,,,,,,,"30.27","42","44","0.01","-RA:02 BR:1 |RA |",,,"93",,"FEW:02 17 BKN:07 28 OVC:08 34","29.80","6.00","43","150",,"3",,,,,,,,,,,,,,,,,,,,,,,,,,,,,,,,,,,,,"MET12512/30/17 15:43:02 SPECI KSEA 302343Z 15003KT 6SM -RA BR FEW017 BKN028 OVC034 07/06 A3027 RMK AO2 RAB10 P0001 T00670056 $ (RT)","FM-16","7",,,,,,,,,,,,,,,,,,,,,,,,,,,,"2007-05-17"
"72793024233","2017-12-30T15:53:00","FM-15","7",,,,,,,,,,,,,,,,,,,,,,,,,,,,,,,,,,,,,,"30.28","42","44","0.02","-RA:02 BR:1 |RA |","-0.04","3","93","30.30","FEW:02 17 BKN:07 28 OVC:08 34","29.81","5.00","43","160",,"6",,,,,,,,,,,,,,,,,,,,,,,,,,,,,,,,,,,,,"MET15612/30/17 15:53:02 METAR KSEA 302353Z 16005KT 5SM -RA BR FEW017 BKN028 OVC034 07/06 A3028 RMK AO2 RAB10 SLP262 P0002 60002 T00670056 10089 20067 53015 $ (RT)","FM-15","7",,,,,,,,,,,,,,,,,,,,,,,,,,,,"2007-05-17"
"72793024233","2017-12-30T16:00:00","FM-12","4",,,,,,,,,,,,,,,,,,,,,,,,,,,,,,,,,,,,,,,"42","44",,"||RA","-0.04","3","93","30.30","15","29.80","4.97","43","160",,"6",,,,,,,,,,,,,,,,,,,,,,,,,,,,,,,,,,,,,"SYN09872793 11458 81605 10067 20056 30090 40262 53015 69951 761// 92353 333 10089 20067 96010 555 93100=","FM-12","4",,,,,,,,,,,,,,,,,,,,,,,,,,,,"2007-05-17"
"72793024233","2017-12-30T16:19:00","FM-16","7",,,,,,,,,,,,,,,,,,,,,,,,,,,,,,,,,,,,,,"30.28","41","44","0.02","-RA:02 BR:1 |RA |",,,"89",,"FEW:02 5 BKN:07 20 OVC:08 28","29.81","5.00","43","020",,"11",,,,,,,,,,,,,,,,,,,,,,,,,,,,,,,,,,,,,"MET11912/30/17 16:19:03 SPECI KSEA 310019Z 02010KT 5SM -RA BR FEW005 BKN020 OVC028 07/05 A3028 RMK AO2 P0002 T00670050 $ (RT)","FM-16","7",,,,,,,,,,,,,,,,,,,,,,,,,,,,"2007-05-17"
"72793024233","2017-12-30T16:53:00","FM-15","7",,,,,,,,,,,,,,,,,,,,,,,,,,,,,,,,,,,,,,"30.29","40","43","0.04","-RA:02 BR:1 |RA |",,,"89","30.32","FEW:02 5 BKN:07 21 OVC:08 38","29.82","6.00","42","030",,"11",,,,,,,,,,,,,,,,,,,,,,,,,,,,,,,,,,,,,"MET12612/30/17 16:53:03 METAR KSEA 310053Z 03010KT 6SM -RA BR FEW005 BKN021 OVC038 06/04 A3029 RMK AO2 SLP266 P0004 T00610044 $ (RT)","FM-15","7",,,,,,,,,,,,,,,,,,,,,,,,,,,,"2007-05-17"
"72793024233","2017-12-30T17:53:00","FM-15","7",,,,,,,,,,,,,,,,,,,,,,,,,,,,,,,,,,,,,,"30.30","40","43","0.02","-RA:02 |RA |",,,"89","30.32","FEW:02 14 BKN:07 28 OVC:08 36","29.83","8.00","42","030",,"13",,,,,,,,,,,,,,,,,,,,,,,,,,,,,,,,,,,,,"MET12312/30/17 17:53:03 METAR KSEA 310153Z 03011KT 8SM -RA FEW014 BKN028 OVC036 06/04 A3030 RMK AO2 SLP269 P0002 T00610044 $ (RT)","FM-15","7",,,,,,,,,,,,,,,,,,,,,,,,,,,,"2007-05-17"
"72793024233","2017-12-30T18:14:00","FM-16","7",,,,,,,,,,,,,,,,,,,,,,,,,,,,,,,,,,,,,,"30.30","39","42","0.02","-RA:02 |RA |",,,"89",,"FEW:02 13 SCT:04 27 OVC:08 34","29.83","10.00","41","030",,"13",,,,,,,,,,,,,,,,,,,,,,,,,,,,,,,,,,,,,"MET11712/30/17 18:14:03 SPECI KSEA 310214Z 03011KT 10SM -RA FEW013 SCT027 OVC034 06/04 A3030 RMK AO2 P0002 T00560039 $ (RT)","FM-16","7",,,,,,,,,,,,,,,,,,,,,,,,,,,,"2007-05-17"
"72793024233","2017-12-30T18:53:00","FM-15","7",,,,,,,,,,,,,,,,,,,,,,,,,,,,,,,,,,,,,,"30.30","39","42","0.03","-RA:02 |RA |","-0.02","1","89","30.33","FEW:02 13 OVC:08 33","29.83","10.00","41","040",,"8",,,,,,,,,,,,,,,,,,,,,,,,,,,,,,,,,,,,,"MET12912/30/17 18:53:03 METAR KSEA 310253Z 04007KT 10SM -RA FEW013 OVC033 06/04 A3030 RMK AO2 SLP270 P0003 60009 T00560039 51008 $ (RT)","FM-15","7",,,,,,,,,,,,,,,,,,,,,,,,,,,,"2007-05-17"
"72793024233","2017-12-30T19:20:00","FM-16","7",,,,,,,,,,,,,,,,,,,,,,,,,,,,,,,,,,,,,,"30.31","39","43","T","-RA:02 |RA |",,,"86",,"FEW:02 13 BKN:07 23 OVC:08 34","29.84","10.00","41","040",,"8",,,,,,,,,,,,,,,,,,,,,,,,,,,,,,,,,,,,,"MET11712/30/17 19:20:03 SPECI KSEA 310320Z 04007KT 10SM -RA FEW013 BKN023 OVC034 06/04 A3031 RMK AO2 P0000 T00610039 $ (RT)","FM-16","7",,,,,,,,,,,,,,,,,,,,,,,,,,,,"2007-05-17"
"72793024233","2017-12-30T19:53:00","FM-15","7",,,,,,,,,,,,,,,,,,,,,,,,,,,,,,,,,,,,,,"30.31","39","43","T","-RA:02 |RA |",,,"86","30.34","FEW:02 13 BKN:07 26 OVC:08 36","29.84","10.00","41","040",,"8",,,,,,,,,,,,,,,,,,,,,,,,,,,,,,,,,,,,,"MET12412/30/17 19:53:03 METAR KSEA 310353Z 04007KT 10SM -RA FEW013 BKN026 OVC036 06/04 A3031 RMK AO2 SLP273 P0000 T00610039 $ (RT)","FM-15","7",,,,,,,,,,,,,,,,,,,,,,,,,,,,"2007-05-17"
"72793024233","2017-12-30T20:53:00","FM-15","7",,,,,,,,,,,,,,,,,,,,,,,,,,,,,,,,,,,,,,"30.30","38","41","T",,,,"89","30.33","BKN:07 26 BKN:07 36","29.83","10.00","40","030",,"9",,,,,,,,,,,,,,,,,,,,,,,,,,,,,,,,,,,,,"MET11912/30/17 20:53:03 METAR KSEA 310453Z 03008KT 10SM BKN026 BKN036 05/03 A3030 RMK AO2 RAE08 SLP270 P0000 T00500033 $ (RT)","FM-15","7",,,,,,,,,,,,,,,,,,,,,,,,,,,,"2007-05-17"
"72793024233","2017-12-30T21:10:00","FM-16","7",,,,,,,,,,,,,,,,,,,,,,,,,,,,,,,,,,,,,,"30.30","38","41",,,,,"89",,"SCT:04 27 BKN:07 38","29.83","10.00","40","030",,"10",,,,,,,,,,,,,,,,,,,,,,,,,,,,,,,,,,,,,"MET10012/30/17 21:10:03 SPECI KSEA 310510Z 03009KT 10SM SCT027 BKN038 05/03 A3030 RMK AO2 T00500033 $ (RT)","FM-16","7",,,,,,,,,,,,,,,,,,,,,,,,,,,,"2007-05-17"
"72793024233","2017-12-30T21:53:00","FM-15","7",,,,,,,,,,,,,,,,,,,,,,,,,,,,,,,,,,,,,,"30.31","38","40","0.00",,"-0.01","1","93","30.34","FEW:02 27 SCT:04 38","29.84","10.00","39","040",,"8",,,,,,,,,,,,,,,,,,,,,,,,,,,,,,,,,,,,,"MET13112/30/17 21:53:03 METAR KSEA 310553Z 04007KT 10SM FEW027 SCT038 04/03 A3031 RMK AO2 SLP273 60009 T00440033 10072 20044 51002 $ (LC)","FM-15","7",,,,,,,,,,,,,,,,,,,,,,,,,,,,"2007-05-17"
"72793024233","2017-12-30T22:00:00","FM-12","4",,,,,,,,,,,,,,,,,,,,,,,,,,,,,,,,,,,,,,,"38","40",,,"-0.01","1","93","30.34","26","29.83","9.94","39","040",,"8",,,,,,,,,,,,,,,,,,,,,,,,,,,,,,,,,,,,,"SYN08672793 12566 40407 10044 20033 30100 40273 51002 60021 90553 333 10083 20044 555 93106=","FM-12","4",,,,,,,,,,,,,,,,,,,,,,,,,,,,"2007-05-17"
"72793024233","2017-12-30T22:23:00","FM-16","7",,,,,,,,,,,,,,,,,,,,,,,,,,,,,,,,,,,,,,"30.31","38","41",,,,,"89",,"BKN:07 29 BKN:07 40","29.84","10.00","40","360",,"7",,,,,,,,,,,,,,,,,,,,,,,,,,,,,,,,,,,,,"MET10012/30/17 22:23:03 SPECI KSEA 310623Z 36006KT 10SM BKN029 BKN040 05/03 A3031 RMK AO2 T00500033 $ (LC)","FM-16","7",,,,,,,,,,,,,,,,,,,,,,,,,,,,"2007-05-17"
"72793024233","2017-12-30T22:46:00","FM-16","7",,,,,,,,,,,,,,,,,,,,,,,,,,,,,,,,,,,,,,"30.30","38","39",,,,,"96",,"SCT:04 29 BKN:07 37","29.83","9.00","39","350",,"5",,,,,,,,,,,,,,,,,,,,,,,,,,,,,,,,,,,,,"MET09912/30/17 22:46:03 SPECI KSEA 310646Z 35004KT 9SM SCT029 BKN037 04/03 A3030 RMK AO2 T00390033 $ (LC)","FM-16","7",,,,,,,,,,,,,,,,,,,,,,,,,,,,"2007-05-17"
"72793024233","2017-12-30T22:53:00","FM-15","7",,,,,,,,,,,,,,,,,,,,,,,,,,,,,,,,,,,,,,"30.31","38","39","0.00",,,,"96","30.33","SCT:04 29 BKN:07 37","29.84","7.00","39","360",,"5",,,,,,,,,,,,,,,,,,,,,,,,,,,,,,,,,,,,,"MET10612/30/17 22:53:03 METAR KSEA 310653Z 36004KT 7SM SCT029 BKN037 04/03 A3031 RMK AO2 SLP271 T00390033 $ (LC)","FM-15","7",,,,,,,,,,,,,,,,,,,,,,,,,,,,"2007-05-17"
"72793024233","2017-12-30T23:31:00","FM-16","7",,,,,,,,,,,,,,,,,,,,,,,,,,,,,,,,,,,,,,"30.30","36","38",,"BR:1 ||",,,"93",,"FEW:02 3 SCT:04 33","29.83","6.00","37","020",,"8",,,,,,,,,,,,,,,,,,,,,,,,,,,,,,,,,,,,,"MET10212/30/17 23:31:03 SPECI KSEA 310731Z 02007KT 6SM BR FEW003 SCT033 03/02 A3030 RMK AO2 T00330022 $ (LC)","FM-16","7",,,,,,,,,,,,,,,,,,,,,,,,,,,,"2007-05-17"
"72793024233","2017-12-30T23:51:00","FM-16","6",,,,,,,,,,,,,,,,,,,,,,,,,,,,,,,,,,,,,,"30.30","37","39",,"BR:1 ||",,,"93",,"OVC:08 2","29.83","3.00","38","360",,"8",,,,,,,,,,,,,,,,,,,,,,,,,,,,,,,,,,,,,"MET09012/30/17 23:51:03 SPECI KSEA 310751Z 36007KT 3SM BR OVC002 04/03 A3030 RMK AO2 $ FIBI (LC)","FM-16","6",,,,,,,,,,,,,,,,,,,,,,,,,,,,"2007-05-17"
"72793024233","2017-12-30T23:53:00","FM-15","7",,,,,,,,,,,,,,,,,,,,,,,,,,,,,,,,,,,,,,"30.30","37","39","0.00","BR:1 ||",,,"93","30.32","OVC:08 2","29.83","3.00","38","350",,"7",,,,,,,,,,,,,,,,,,,,,,,,,,,,,,,,,,,,,"MET11212/30/17 23:53:03 METAR KSEA 310753Z 35006KT 3SM BR OVC002 04/03 A3030 RMK AO2 SLP268 T00390028 400890033 $ (LC)","FM-15","7",,,,,,,,,,,,,,,,,,,,,,,,,,,,"2007-05-17"
"72793024233","2017-12-30T23:59:00","SOD  ","6",,,,,,,,,,,,,,,"39","43","84","30.21","29.73","42","11.7","0","2.5","22","48","38","210","41","0.11","0","0.0","220","31","RA BR",,,,,,,,,,,,,,,,,,,,,,,,,,,,,,,,,,,,,,,,,,,,,,,,,,,,,,,,"SOD73024 HR PRECIPITATION (IN):0.11  24 HR MAX TEMP (F):48 24 HR MAX TEMP TIME (LST):1316 24 HR MIN TEMP (F):38 24 HR MIN TEMP TIME (LST):2356 AVERAGE STATION PRESSURE:29.730 MINIMUM SEA LEVEL PRESSURE:29.91 TIME OF OCCURRENCE:0016 PEAK WIND SPEED (MPH):41  PEAK WIND DIR (DEG):210 PEAK WIND TIME (LST):0050  FASTEST 2MIN SPEED (MPH):31 FASTEST 2MIN DIR (DEG):220 FASTEST 2MIN TIME (LST):0058 AVERAGE WIND SPEED (MPH):11.7 24 HR AVG TEMP (F):43 HEATING DEGREE DAYS:22  COOLING DEGREE DAYS:0   LATEST DAY MAX TEMP (0700-1900 LST):48  LATEST NIGHT MIN TEMP(1900-0800 LST):43 HOURLY INCREMENTAL PRECIPITATION VALUES (IN):.00 0.00 0.00 0.00 0.00 0.00 0.00 0.00 0.00 0.00 0.00 0.00 0.00 0.00 0.00 0.02 0.04 0.02 0.03 T    T    0.00 0.00 0.00","SOD  ","6",,,,,,,,,,,,,,,,,,,,,,,,,"0757","1627",,"2007-05-17"
"72793024233","2017-12-31T00:07:00","FM-16","7",,,,,,,,,,,,,,,,,,,,,,,,,,,,,,,,,,,,,,"30.30","38","39",,"FG:2 |FG |",,,"96",,"OVC:08 1","29.83","0.25","39","340",,"7",,,,,,,,,,,,,,,,,,,,,,,,,,,,,,,,,,,,,"MET11512/31/17 00:07:02 SPECI KSEA 310807Z 34006KT 1/4SM R16L/6000VP6000FT FG OVC001 04/03 A3030 RMK AO2 T00390033 $ (LC)","FM-16","7",,,,,,,,,,,,,,,,,,,,,,,,,,,,"2007-05-17"
"72793024233","2017-12-31T00:36:00","FM-16","7",,,,,,,,,,,,,,,,,,,,,,,,,,,,,,,,,,,,,,"30.30","38","39",,"FG:2 |FG |",,,"96",,"VV:09 1","29.83","0.25","39","010",,"9",,,,,,,,,,,,,,,,,,,,,,,,,,,,,,,,,,,,,"MET11312/31/17 00:36:02 SPECI KSEA 310836Z 01008KT 1/4SM R16L/1400V1600FT FG VV001 04/03 A3030 RMK AO2 T00390033 $ (LC)","FM-16","7",,,,,,,,,,,,,,,,,,,,,,,,,,,,"2007-05-17"
"72793024233","2017-12-31T00:51:00","FM-16","7",,,,,,,,,,,,,,,,,,,,,,,,,,,,,,,,,,,,,,"30.29","37","39",,"FG:2 |FG s FG |",,,"93",,"VV:09 1","29.82","0.00","38","010",,"9",,,,,,,,,,,,,,,,,,,,,,,,,,,,,,,,,,,,,"MET11612/31/17 00:51:02 SPECI KSEA 310851Z 01008KT 1/16SM R16L/1200V2600FT FG VV001 04/03 A3029 RMK AO2 TWR VIS 1/4 $ (LC)","FM-16","7",,,,,,,,,,,,,,,,,,,,,,,,,,,,"2007-05-17"
"72793024233","2017-12-31T00:53:00","FM-15","7",,,,,,,,,,,,,,,,,,,,,,,,,,,,,,,,,,,,,,"30.29","38","39","0.00","FG:2 |FG s FG |","+0.02","8","96","30.32","VV:09 1","29.82","0.00","39","360",,"8",,,,,,,,,,,,,,,,,,,,,,,,,,,,,,,,,,,,,"MET13912/31/17 00:53:02 METAR KSEA 310853Z 36007KT 1/16SM R16L/1200V2600FT FG VV001 04/03 A3029 RMK AO2 TWR VIS 1/4 SLP266 T00390033 58006 $ (LC)","FM-15","7",,,,,,,,,,,,,,,,,,,,,,,,,,,,"2007-05-17"
"72793024233","2017-12-31T01:07:00","FM-16","7",,,,,,,,,,,,,,,,,,,,,,,,,,,,,,,,,,,,,,"30.29","38","39",,"FG:2 |FG s FG |",,,"96",,"VV:09 1","29.82","0.00","39","020",,"10",,,,,,,,,,,,,,,,,,,,,,,,,,,,,,,,,,,,,"MET12612/31/17 01:07:02 SPECI KSEA 310907Z 02009KT 1/16SM R16L/1000V1800FT FG VV001 04/03 A3029 RMK AO2 TWR VIS 1/4 T00390033 $ (LC)","FM-16","7",,,,,,,,,,,,,,,,,,,,,,,,,,,,"2007-05-17"
"72793024233","2017-12-31T01:53:00","FM-15","7",,,,,,,,,,,,,,,,,,,,,,,,,,,,,,,,,,,,,,"30.29","37","38","0.00","FG:2 |FG s FG |",,,"97","30.31","VV:09 1","29.82","0.00","38","020",,"8",,,,,,,,,,,,,,,,,,,,,,,,,,,,,,,,,,,,,"MET13312/31/17 01:53:02 METAR KSEA 310953Z 02007KT 1/16SM R16L/1000V1200FT FG VV001 03/03 A3029 RMK AO2 TWR VIS 1/4 SLP265 T00330028 $ (LC)","FM-15","7",,,,,,,,,,,,,,,,,,,,,,,,,,,,"2007-05-17"
"72793024233","2017-12-31T02:50:00","FM-16","7",,,,,,,,,,,,,,,,,,,,,,,,,,,,,,,,,,,,,,"30.28","37","37",,"FG:2 |FG s FG |",,,"100",,"VV:09 1","29.81","0.00","37","020",,"10",,,,,,,,,,,,,,,,,,,,,,,,,,,,,,,,,,,,,"MET11712/31/17 02:50:02 SPECI KSEA 311050Z 02009KT 1/16SM R16L/1400VP6000FT FG VV001 03/03 A3028 RMK AO2 TWR VIS 1/4 $ (LC)","FM-16","7",,,,,,,,,,,,,,,,,,,,,,,,,,,,"2007-05-17"
"72793024233","2017-12-31T02:53:00","FM-15","7",,,,,,,,,,,,,,,,,,,,,,,,,,,,,,,,,,,,,,"30.28","37","37","0.00","FG:2 |FG s FG |",,,"100","30.30","VV:09 1","29.81","0.00","37","020",,"11",,,,,,,,,,,,,,,,,,,,,,,,,,,,,,,,,,,,,"MET13412/31/17 02:53:02 METAR KSEA 311053Z 02010KT 1/16SM R16L/1400VP6000FT FG VV001 03/03 A3028 RMK AO2 TWR VIS 1/4 SLP262 T00280028 $ (LC)","FM-15","7",,,,,,,,,,,,,,,,,,,,,,,,,,,,"2007-05-17"
"72793024233","2017-12-31T02:55:00","FM-16","7",,,,,,,,,,,,,,,,,,,,,,,,,,,,,,,,,,,,,,"30.28","37","37",,"FG:2 |FG |",,,"100",,"VV:09 1","29.81","0.25","37","010",,"11",,,,,,,,,,,,,,,,,,,,,,,,,,,,,,,,,,,,,"MET12512/31/17 02:55:02 SPECI KSEA 311055Z 01010KT 1/4SM R16L/1400V2000FT FG VV001 03/03 A3028 RMK AO2 TWR VIS 1/4 T00280028 $ (LC)","FM-16","7",,,,,,,,,,,,,,,,,,,,,,,,,,,,"2007-05-17"
"72793024233","2017-12-31T03:25:00","FM-16","7",,,,,,,,,,,,,,,,,,,,,,,,,,,,,,,,,,,,,,"30.28","37","37",,"FG:2 |FG |",,,"100",,"VV:09 1","29.81","0.25","37","010",,"10",,,,,,,,,,,,,,,,,,,,,,,,,,,,,,,,,,,,,"MET11312/31/17 03:25:02 SPECI KSEA 311125Z 01009KT 1/4SM R16L/1800V3500FT FG VV001 03/03 A3028 RMK AO2 T00280028 $ (LC)","FM-16","7",,,,,,,,,,,,,,,,,,,,,,,,,,,,"2007-05-17"
"72793024233","2017-12-31T03:53:00","FM-15","7",,,,,,,,,,,,,,,,,,,,,,,,,,,,,,,,,,,,,,"30.28","37","37","0.00","FG:2 |FG |","+0.01","6","100","30.31","VV:09 1","29.81","0.25","37","350",,"8",,,,,,,,,,,,,,,,,,,,,,,,,,,,,,,,,,,,,"MET14412/31/17 03:53:02 METAR KSEA 311153Z 35007KT 1/4SM R16L/1600V4000FT FG VV001 03/03 A3028 RMK AO2 SLP263 70011 T00280028 10050 20028 56003 $ (LC)","FM-15","7",,,,,,,,,,,,,,,,,,,,,,,,,,,,"2007-05-17"
"72793024233","2017-12-31T04:00:00","FM-12","4",,,,,,,,,,,,,,,,,,,,,,,,,,,,,,,,,,,,,,,"37","37",,"||FG","+0.01","6","100","30.31","1","29.80","0.25","37","350",,"8",,,,,,,,,,,,,,,,,,,,,,,,,,,,,,,,,,,,,"SYN09272793 31004 93507 10028 20028 30090 40263 56003 741// 91153 333 10089 20028 70028 555 93112=","FM-12","4",,,,,,,,,,,,,,,,,,,,,,,,,,,,"2007-05-17"
"72793024233","2017-12-31T04:45:00","FM-16","7",,,,,,,,,,,,,,,,,,,,,,,,,,,,,,,,,,,,,,"30.29","36","37",,"BR:1 ||",,,"96",,"OVC:08 2","29.82","1.00","37","010",,"11",,,,,,,,,,,,,,,,,,,,,,,,,,,,,,,,,,,,,"MET12212/31/17 04:45:02 SPECI KSEA 311245Z 01010KT 1SM R16L/P6000FT BR OVC002 03/02 A3029 RMK AO2 SFC VIS 1 1/2 T00280022 $ (LC)","FM-16","7",,,,,,,,,,,,,,,,,,,,,,,,,,,,"2007-05-17"
"72793024233","2017-12-31T04:53:00","FM-15","7",,,,,,,,,,,,,,,,,,,,,,,,,,,,,,,,,,,,,,"30.29","35","36","0.00","BR:1 ||",,,"97","30.32","OVC:08 2","29.82","1.00","36","360",,"14",,,,,,,,,,,,,,,,,,,,,,,,,,,,,,,,,,,,,"MET12512/31/17 04:53:02 METAR KSEA 311253Z 36012KT 1SM R16L/P6000FT BR OVC002 02/02 A3029 RMK AO2 SFC VIS 3 SLP266 T00220017 $ (LC)","FM-15","7",,,,,,,,,,,,,,,,,,,,,,,,,,,,"2007-05-17"
"72793024233","2017-12-31T05:42:00","FM-16","7",,,,,,,,,,,,,,,,,,,,,,,,,,,,,,,,,,,,,,"30.28","35","36",,"BR:1 |s |",,,"97",,"OVC:08 2","29.81","0.50","36","010",,"11",,,,,,,,,,,,,,,,,,,,,,,,,,,,,,,,,,,,,"MET12012/31/17 05:42:02 SPECI KSEA 311342Z 01010KT 1/2SM R16L/P6000FT BR OVC002 02/02 A3028 RMK AO2 SFC VIS 3 T00220017 $ (LC)","FM-16","7",,,,,,,,,,,,,,,,,,,,,,,,,,,,"2007-05-17"
"72793024233","2017-12-31T05:53:00","FM-15","7",,,,,,,,,,,,,,,,,,,,,,,,,,,,,,,,,,,,,,"30.28","34","35","0.00","BR:1 |s |",,,"96","30.30","OVC:08 2","29.81","0.50","35","020",,"15",,,,,,,,,,,,,,,,,,,,,,,,,,,,,,,,,,,,,"MET11412/31/17 05:53:02 METAR KSEA 311353Z 02013KT 1/2SM BR OVC002 02/01 A3028 RMK AO2 SFC VIS 3 SLP262 T00170011 $ (LZ)","FM-15","7",,,,,,,,,,,,,,,,,,,,,,,,,,,,"2007-05-17"
"72793024233","2017-12-31T06:04:00","FM-16","7",,,,,,,,,,,,,,,,,,,,,,,,,,,,,,,,,,,,,,"30.27","34","35",,"FG:2 |FG |",,,"96",,"VV:09 1","29.80","0.25","35","020",,"14",,,,,,,,,,,,,,,,,,,,,,,,,,,,,,,,,,,,,"MET12512/31/17 06:04:02 SPECI KSEA 311404Z 02012KT 1/4SM R16L/1600V2600FT FG VV001 02/01 A3027 RMK AO2 TWR VIS 1/2 T00170011 $ (LZ)","FM-16","7",,,,,,,,,,,,,,,,,,,,,,,,,,,,"2007-05-17"
"72793024233","2017-12-31T06:53:00","FM-15","7",,,,,,,,,,,,,,,,,,,,,,,,,,,,,,,,,,,,,,"30.27","35","35","0.00","FG:2 |FG |","+0.01","8","100","30.30","VV:09 1","29.80","0.25","35","030",,"13",,,,,,,,,,,,,,,,,,,,,,,,,,,,,,,,,,,,,"MET13812/31/17 06:53:02 METAR KSEA 311453Z 03011KT 1/4SM R16L/3000V6000FT FG VV001 02/02 A3027 RMK AO2 SFC VIS 1/2 SLP260 T00170017 58003 $ (LZ)","FM-15","7",,,,,,,,,,,,,,,,,,,,,,,,,,,,"2007-05-17"
"72793024233","2017-12-31T07:53:00","FM-15","7",,,,,,,,,,,,,,,,,,,,,,,,,,,,,,,,,,,,,,"30.26","34","34","0.00","FG:2 |FG |",,,"100","30.29","VV:09 1","29.79","0.25","34","020",,"14",,,,,,,,,,,,,,,,,,,,,,,,,,,,,,,,,,,,,"MET12012/31/17 07:53:02 METAR KSEA 311553Z 02012KT 1/4SM R16L/1400V2400FT FG VV001 01/01 A3026 RMK AO2 SLP257 T00110011 $ (LZ)","FM-15","7",,,,,,,,,,,,,,,,,,,,,,,,,,,,"2007-05-17"
"72793024233","2017-12-31T08:08:00","FM-16","7",,,,,,,,,,,,,,,,,,,,,,,,,,,,,,,,,,,,,,"30.26","34","34",,"FG:2 |FG |",,,"100",,"VV:09 1","29.79","0.25","34","010",,"10",,,,,,,,,,,,,,,,,,,,,,,,,,,,,,,,,,,,,"MET12512/31/17 08:08:02 SPECI KSEA 311608Z 01009KT 1/4SM R16L/1400V1600FT FG VV001 01/01 A3026 RMK AO2 TWR VIS 1/4 T00110011 $ (LZ)","FM-16","7",,,,,,,,,,,,,,,,,,,,,,,,,,,,"2007-05-17"
"72793024233","2017-12-31T08:23:00","FM-16","7",,,,,,,,,,,,,,,,,,,,,,,,,,,,,,,,,,,,,,"30.26","34","34",,"FG:2 |FG |",,,"100",,"VV:09 1","29.79","0.25","34","360",,"8",,,,,,,,,,,,,,,,,,,,,,,,,,,,,,,,,,,,,"MET12512/31/17 08:23:02 SPECI KSEA 311623Z 36007KT 1/4SM R16L/1800V2800FT FG VV001 01/01 A3026 RMK AO2 TWR VIS 1/4 T00110011 $ (LZ)","FM-16","7",,,,,,,,,,,,,,,,,,,,,,,,,,,,"2007-05-17"
"72793024233","2017-12-31T08:39:00","FM-16","7",,,,,,,,,,,,,,,,,,,,,,,,,,,,,,,,,,,,,,"30.26","34","34",,"FG:2 |FG s |",,,"100",,"VV:09 1","29.79","0.12","34","020",,"10",,,,,,,,,,,,,,,,,,,,,,,,,,,,,,,,,,,,,"MET12512/31/17 08:39:02 SPECI KSEA 311639Z 02009KT 1/8SM R16L/1000V1400FT FG VV001 01/01 A3026 RMK AO2 TWR VIS 1/4 T00110011 $ (LZ)","FM-16","7",,,,,,,,,,,,,,,,,,,,,,,,,,,,"2007-05-17"
"72793024233","2017-12-31T08:53:00","FM-15","7",,,,,,,,,,,,,,,,,,,,,,,,,,,,,,,,,,,,,,"30.26","33","34","0.00","FG:2 |FG s |",,,"97","30.29","VV:09 1","29.79","0.12","34","010",,"11",,,,,,,,,,,,,,,,,,,,,,,,,,,,,,,,,,,,,"MET13212/31/17 08:53:02 METAR KSEA 311653Z 01010KT 1/8SM R16L/1000V1200FT FG VV001 01/01 A3026 RMK AO2 TWR VIS 1/4 SLP257 T00110006 $ (LZ)","FM-15","7",,,,,,,,,,,,,,,,,,,,,,,,,,,,"2007-05-17"
"72793024233","2017-12-31T09:45:00","FM-16","7",,,,,,,,,,,,,,,,,,,,,,,,,,,,,,,,,,,,,,"30.27","34","35",,"FG:2 |FG |",,,"96",,"VV:09 1","29.80","0.25","35","350",,"10",,,,,,,,,,,,,,,,,,,,,,,,,,,,,,,,,,,,,"MET12512/31/17 09:45:02 SPECI KSEA 311745Z 35009KT 1/4SM R16L/1200V3500FT FG VV001 02/01 A3027 RMK AO2 TWR VIS 1/4 T00170011 $ (LZ)","FM-16","7",,,,,,,,,,,,,,,,,,,,,,,,,,,,"2007-05-17"
"72793024233","2017-12-31T09:53:00","FM-15","7",,,,,,,,,,,,,,,,,,,,,,,,,,,,,,,,,,,,,,"30.27","34","35","0.00","BR:1 |s |","-0.00","3","96","30.30","OVC:08 1","29.80","0.25","35","360",,"13",,,,,,,,,,,,,,,,,,,,,,,,,,,,,,,,,,,,,"MET15412/31/17 09:53:02 METAR KSEA 311753Z 36011KT 1/4SM R16L/3000VP6000FT BR OVC001 02/01 A3027 RMK AO2 SFC VIS 1 1/2 SLP260 T00170011 10028 20011 53000 $ (LZ)","FM-15","7",,,,,,,,,,,,,,,,,,,,,,,,,,,,"2007-05-17"
"72793024233","2017-12-31T10:00:00","FM-12","4",,,,,,,,,,,,,,,,,,,,,,,,,,,,,,,,,,,,,,,"34","35",,,,,"96","30.30","1","29.78","0.25","35","360",,"13",,,,,,,,,,,,,,,,,,,,,,,,,,,,,,,,,,,,,"SYN08672793 31004 83611 10017 20011 30086 40260 53000 710// 91753 333 10050 20011 555 93118=","FM-12","4",,,,,,,,,,,,,,,,,,,,,,,,,,,,"2007-05-17"
"72793024233","2017-12-31T10:15:00","FM-16","7",,,,,,,,,,,,,,,,,,,,,,,,,,,,,,,,,,,,,,"30.27","34","35",,"BR:1 |s |",,,"96",,"OVC:08 1","29.80","0.50","35","020",,"13",,,,,,,,,,,,,,,,,,,,,,,,,,,,,,,,,,,,,"MET12012/31/17 10:15:02 SPECI KSEA 311815Z 02011KT 1/2SM R16L/P6000FT BR OVC001 02/01 A3027 RMK AO2 SFC VIS 6 T00170011 $ (LZ)","FM-16","7",,,,,,,,,,,,,,,,,,,,,,,,,,,,"2007-05-17"
"72793024233","2017-12-31T10:22:00","FM-16","7",,,,,,,,,,,,,,,,,,,,,,,,,,,,,,,,,,,,,,"30.27","34","35",,"BR:1 |s |",,,"96",,"OVC:08 2","29.80","0.50","35","010",,"13",,,,,,,,,,,,,,,,,,,,,,,,,,,,,,,,,,,,,"MET12012/31/17 10:22:02 SPECI KSEA 311822Z 01011KT 1/2SM R16L/P6000FT BR OVC002 02/01 A3027 RMK AO2 SFC VIS 6 T00170011 $ (LZ)","FM-16","7",,,,,,,,,,,,,,,,,,,,,,,,,,,,"2007-05-17"
"72793024233","2017-12-31T10:51:00","FM-16","6",,,,,,,,,,,,,,,,,,,,,,,,,,,,,,,,,,,,,,"30.26","34","36",,,,,"93",,"OVC:08 3","29.79","2.00","35","010",,"13",,,,,,,,,,,,,,,,,,,,,,,,,,,,,,,,,,,,,"MET09812/31/17 10:51:02 SPECI KSEA 311851Z 01011KT 2SM OVC003 02/01 A3026 RMK AO2 SFC VIS 10 $ FIBI (LZ)","FM-16","6",,,,,,,,,,,,,,,,,,,,,,,,,,,,"2007-05-17"
"72793024233","2017-12-31T10:53:00","FM-15","7",,,,,,,,,,,,,,,,,,,,,,,,,,,,,,,,,,,,,,"30.26","34","36","0.00","BR:1 ||",,,"93","30.29","OVC:08 3","29.79","2.00","35","010",,"15",,,,,,,,,,,,,,,,,,,,,,,,,,,,,,,,,,,,,"MET11212/31/17 10:53:02 METAR KSEA 311853Z 01013KT 2SM BR OVC003 02/01 A3026 RMK AO2 SFC VIS 6 SLP257 T00220011 $ (LZ)","FM-15","7",,,,,,,,,,,,,,,,,,,,,,,,,,,,"2007-05-17"
"72793024233","2017-12-31T11:27:00","FM-16","7",,,,,,,,,,,,,,,,,,,,,,,,,,,,,,,,,,,,,,"30.25","34","37",,,,,"89",,"BKN:07 4","29.78","10.00","36","020",,"15",,,,,,,,,,,,,,,,,,,,,,,,,,,,,,,,,,,,,"MET09312/31/17 11:27:02 SPECI KSEA 311927Z 02013KT 10SM BKN004 03/01 A3025 RMK AO2 T00280011 $ (LZ)","FM-16","7",,,,,,,,,,,,,,,,,,,,,,,,,,,,"2007-05-17"
"72793024233","2017-12-31T11:29:00","FM-16","7",,,,,,,,,,,,,,,,,,,,,,,,,,,,,,,,,,,,,,"30.25","33","37",,,,,"86",,"FEW:02 4 BKN:07 120 BKN:07 200","29.78","10.00","35","010",,"14",,,,,,,,,,,,,,,,,,,,,,,,,,,,,,,,,,,,,"MET10712/31/17 11:29:02 SPECI KSEA 311929Z 01012KT 10SM FEW004 BKN120 BKN200 03/01 A3025 RMK AO2 T00280006 $ (LZ)","FM-16","7",,,,,,,,,,,,,,,,,,,,,,,,,,,,"2007-05-17"
"72793024233","2017-12-31T11:53:00","FM-15","7",,,,,,,,,,,,,,,,,,,,,,,,,,,,,,,,,,,,,,"30.24","34","39","0.00",,,,"82","30.27","FEW:02 4 BKN:07 170 BKN:07 200","29.77","10.00","37","360",,"11",,,,,,,,,,,,,,,,,,,,,,,,,,,,,,,,,,,,,"MET11412/31/17 11:53:02 METAR KSEA 311953Z 36010KT 10SM FEW004 BKN170 BKN200 04/01 A3024 RMK AO2 SLP249 T00390011 $ (LZ)","FM-15","7",,,,,,,,,,,,,,,,,,,,,,,,,,,,"2007-05-17"
"72793024233","2017-12-31T12:53:00","FM-15","7",,,,,,,,,,,,,,,,,,,,,,,,,,,,,,,,,,,,,,"30.22","34","42","0.00",,"+0.05","8","73","30.25","FEW:02 4 FEW:02 30 BKN:07 210","29.75","10.00","39","360",,"10",,,,,,,,,,,,,,,,,,,,,,,,,,,,,,,,,,,,,"MET12012/31/17 12:53:02 METAR KSEA 312053Z 36009KT 10SM FEW004 FEW030 BKN210 06/01 A3022 RMK AO2 SLP243 T00560011 58017 $ (LZ)","FM-15","7",,,,,,,,,,,,,,,,,,,,,,,,,,,,"2007-05-17"
"72793024233","2017-12-31T13:53:00","FM-15","7",,,,,,,,,,,,,,,,,,,,,,,,,,,,,,,,,,,,,,"30.21","32","41","0.00",,,,"70","30.24","FEW:02 5 FEW:02 30 BKN:07 220","29.74","10.00","37","010",,"18",,,,,,,,,,,,,,,,,,,,,,,,,,,,,,,,,,,,,"MET11412/31/17 13:53:02 METAR KSEA 312153Z 01016KT 10SM FEW005 FEW030 BKN220 05/00 A3021 RMK AO2 SLP239 T00500000 $ (TL)","FM-15","7",,,,,,,,,,,,,,,,,,,,,,,,,,,,"2007-05-17"
"72793024233","2017-12-31T14:53:00","FM-15","7",,,,,,,,,,,,,,,,,,,,,,,,,,,,,,,,,,,,,,"30.20","32","41","0.00",,,,"70","30.22","FEW:02 30 BKN:07 220","29.73","10.00","37","010",,"15",,,,,,,,,,,,,,,,,,,,,,,,,,,,,,,,,,,,,"MET10712/31/17 14:53:02 METAR KSEA 312253Z 01013KT 10SM FEW030 BKN220 05/00 A3020 RMK AO2 SLP235 T00500000 $ (TL)","FM-15","7",,,,,,,,,,,,,,,,,,,,,,,,,,,,"2007-05-17"
"72793024233","2017-12-31T15:53:00","FM-15","7",,,,,,,,,,,,,,,,,,,,,,,,,,,,,,,,,,,,,,"30.20","32","41","0.00",,"+0.02","5","70","30.23","BKN:07 220","29.73","10.00","37","010",,"16",,,,,,,,,,,,,,,,,,,,,,,,,,,,,,,,,,,,,"MET11812/31/17 15:53:02 METAR KSEA 312353Z 01014KT 10SM BKN220 05/00 A3020 RMK AO2 SLP236 T00500000 10061 20017 55006 $ (TL)","FM-15","7",,,,,,,,,,,,,,,,,,,,,,,,,,,,"2007-05-17"
"72793024233","2017-12-31T16:53:00","FM-15","6",,,,,,,,,,,,,,,,,,,,,,,,,,,,,,,,,,,,,,"30.21","31","38","0.00",,,,"76","30.23","FEW:02 40 BKN:07 220","29.74","10.00","35","010",,"15",,,,,,,,,,,,,,,,,,,,,,,,,,,,,,,,,,,,,"MET10812/31/17 16:53:03 METAR KSEA 010053Z 01013KT 10SM FEW040 BKN220 03/M01 A3021 RMK AO2 SLP238 T00331006 $ (TL)","FM-15","6",,,,,,,,,,,,,,,,,,,,,,,,,,,,"2007-05-17"
"72793024233","2017-12-31T17:53:00","FM-15","6",,,,,,,,,,,,,,,,,,,,,,,,,,,,,,,,,,,,,,"30.21","31","36","0.00",,,,"82","30.24","BKN:07 220","29.74","10.00","34","010",,"16",,,,,,,,,,,,,,,,,,,,,,,,,,,,,,,,,,,,,"MET10112/31/17 17:53:03 METAR KSEA 010153Z 01014KT 10SM BKN220 02/M01 A3021 RMK AO2 SLP241 T00221006 $ (TL)","FM-15","6",,,,,,,,,,,,,,,,,,,,,,,,,,,,"2007-05-17"
"72793024233","2017-12-31T18:53:00","FM-15","6",,,,,,,,,,,,,,,,,,,,,,,,,,,,,,,,,,,,,,"30.22","31","36","0.00",,"-0.02","3","82","30.25","BKN:07 220","29.75","10.00","34","010",,"11",,,,,,,,,,,,,,,,,,,,,,,,,,,,,,,,,,,,,"MET10712/31/17 18:53:03 METAR KSEA 010253Z 01010KT 10SM BKN220 02/M01 A3022 RMK AO2 SLP244 T00221006 53006 $ (TL)","FM-15","6",,,,,,,,,,,,,,,,,,,,,,,,,,,,"2007-05-17"
"72793024233","2017-12-31T19:53:00","FM-15","6",,,,,,,,,,,,,,,,,,,,,,,,,,,,,,,,,,,,,,"30.23","31","35","0.00",,,,"85","30.26","BKN:07 220","29.76","10.00","33","020",,"11",,,,,,,,,,,,,,,,,,,,,,,,,,,,,,,,,,,,,"MET10112/31/17 19:53:03 METAR KSEA 010353Z 02010KT 10SM BKN220 02/M01 A3023 RMK AO2 SLP248 T00171006 $ (TL)","FM-15","6",,,,,,,,,,,,,,,,,,,,,,,,,,,,"2007-05-17"
"72793024233","2017-12-31T20:53:00","FM-15","6",,,,,,,,,,,,,,,,,,,,,,,,,,,,,,,,,,,,,,"30.24","31","35","0.00",,,,"85","30.27","FEW:02 170 BKN:07 250","29.77","10.00","33","020",,"13",,,,,,,,,,,,,,,,,,,,,,,,,,,,,,,,,,,,,"MET10812/31/17 20:53:03 METAR KSEA 010453Z 02011KT 10SM FEW170 BKN250 02/M01 A3024 RMK AO2 SLP251 T00171006 $ (TL)","FM-15","6",,,,,,,,,,,,,,,,,,,,,,,,,,,,"2007-05-17"
"72793024233","2017-12-31T21:53:00","FM-15","6",,,,,,,,,,,,,,,,,,,,,,,,,,,,,,,,,,,,,,"30.25","30","35","0.00",,"-0.04","3","82","30.29","BKN:07 150","29.78","10.00","33","020",,"10",,,,,,,,,,,,,,,,,,,,,,,,,,,,,,,,,,,,,"MET11912/31/17 21:53:03 METAR KSEA 010553Z 02009KT 10SM BKN150 02/M01 A3025 RMK AO2 SLP256 T00171011 10050 20011 53012 $ (RT)","FM-15","6",,,,,,,,,,,,,,,,,,,,,,,,,,,,"2007-05-17"
"72793024233","2017-12-31T22:53:00","FM-15","6",,,,,,,,,,,,,,,,,,,,,,,,,,,,,,,,,,,,,,"30.27","30","34","0.00",,,,"85","30.30","SCT:04 150 BKN:07 200","29.80","10.00","32","020",,"11",,,,,,,,,,,,,,,,,,,,,,,,,,,,,,,,,,,,,"MET10812/31/17 22:53:03 METAR KSEA 010653Z 02010KT 10SM SCT150 BKN200 01/M01 A3027 RMK AO2 SLP261 T00111011 $ (RT)","FM-15","6",,,,,,,,,,,,,,,,,,,,,,,,,,,,"2007-05-17"
"72793024233","2017-12-31T23:53:00","FM-15","6",,,,,,,,,,,,,,,,,,,,,,,,,,,,,,,,,,,,,,"30.28","30","33","0.00",,,,"89","30.32","FEW:02 150 BKN:07 200","29.81","10.00","32","360",,"6",,,,,,,,,,,,,,,,,,,,,,,,,,,,,,,,,,,,,"MET11812/31/17 23:53:03 METAR KSEA 010753Z 36005KT 10SM FEW150 BKN200 01/M01 A3028 RMK AO2 SLP266 T00061011 400610006 $ (RT)","FM-15","6",,,,,,,,,,,,,,,,,,,,,,,,,,,,"2007-05-17"
"72793024233","2017-12-31T23:59:00","SOD  ","6",,,,,,,,,,,,,,,"33","38","87","30.28","29.78","35","12.3","0","-2.6","27","43","33","020","23","0.00","0","0.0","020","20",,,,,,,,,,,,,,,,,,,,,,,,,,,,,,,,,,,,,,,,,,,,,,,,,,,,,,,,,"SOD73024 HR PRECIPITATION (IN):0.00  24 HR MAX TEMP (F):43 24 HR MAX TEMP TIME (LST):1319 24 HR MIN TEMP (F):33 24 HR MIN TEMP TIME (LST):2359 AVERAGE STATION PRESSURE:29.775 MINIMUM SEA LEVEL PRESSURE:29.78 TIME OF OCCURRENCE:1512 PEAK WIND SPEED (MPH):23  PEAK WIND DIR (DEG):20  PEAK WIND TIME (LST):1351  FASTEST 2MIN SPEED (MPH):20 FASTEST 2MIN DIR (DEG):20  FASTEST 2MIN TIME (LST):1357 AVERAGE WIND SPEED (MPH):12.3 24 HR AVG TEMP (F):38 HEATING DEGREE DAYS:27  COOLING DEGREE DAYS:0   LATEST DAY MAX TEMP (0700-1900 LST):43  LATEST NIGHT MIN TEMP(1900-0800 LST):34 HOURLY INCREMENTAL PRECIPITATION VALUES (IN):.00 0.00 0.00 0.00 0.00 0.00 0.00 0.00 0.00 0.00 0.00 0.00 0.00 0.00 0.00 0.00 0.00 0.00 0.00 0.00 0.00 0.00 0.00 0.00","SOD  ","6",,,,,,,,,,,,,,,,,,,,,,,,,"0757","1628",,"2007-05-17"
"72793024233","2017-12-31T23:59:00","SOM  ","6","7.8",,,,,,,,,,,"376","0","2",,,,,,,,,,,,,,,,,,,,,"1781","773",,,,,,,,,,,,,,,,,,,"16","10","10","0","0","0","-0.6","0",,,"-1.1","0.08",,"1.64","18-19","2","26","1.6","24-24","30.66","06","1053","45.5","40.0","29.49","19","0953","34.5","30.29","29.77","5.43","2.6",,"0","755","SOM795PCP MTOT:5.43 PCP GT 24HRS:1.64 DATE(S):18-19 DAYS W/PCP >=.01:16 DAYS W/PCP >=.10:10 DAYS W/ PCP >=.50:4 DAYS W/PCP >=1.00:2 MSDP AMTS W/DATE-TIME TAGS:MIN:5 0.05  18/1642 MIN:10 0.10  18/1642 MIN:15 0.13  18/1640 MIN:20 0.15  18/1642 MIN:30 0.17  18/1651 MIN:45 0.20  18/1703 MIN:60 0.22  18/1703 MIN:80 0.27  18/1740 MIN:100 0.30  18/1756 MIN:120 0.33  18/1756 MIN:150 0.39  29/1039 MIN:180 0.44  19/0740 AVG DLY MIN:34.5  AVG DLY MAX:45.5  AVG MLY TMP:40.0  MIN TMP:28 DATE(S):24 MAX TMP:54  DATE(S):29 DAYS MAX <=32:0 DAYS MAX >=90:0  DAYS MIN <=32:10 DAYS MIN  <=0:0  AVG STP:29.765 LWST SLP:29.48 DATE/TIME:191022 HGST SLP:30.67 DATE/TIME:061018 HDD MTH TOT:769 DEP NORM:-2553 SEASON(JUL 1-JUN 30):1758 DEP NORM:-25536 CDD MTH TOT:0 DEP NORM:-2553 SEASON(JAN 1-DEC 31):392 DEP NORM:-25536","SOM  ","6","2017-12-18 16:42","2017-12-18 16:42","2017-12-18 16:40","2017-12-18 16:42","2017-12-18 16:51","2017-12-18 17:03","2017-12-18 17:03","2017-12-18 17:40","2017-12-18 17:56","2017-12-18 17:56","2017-12-29 10:39","2017-12-19 07:40","0.05","0.10","0.13","0.15","0.17","0.20","0.22","0.27","0.30","0.33","0.39","0.44",,,,"2007-05-17"
